{"type": "FeatureCollection", "features": [{"type": "Feature", "properties": {"@id": "node/428510503", "amenity": "bench"}, "geometry": {"type": "Point", "coordinates": [-3.5661989, 54.5217179]}, "id": "node/428510503"}, {"type": "Feature", "properties": {"@id": "node/560133303", "amenity": "bench"}, "geometry": {"type": "Point", "coordinates": [-3.6240775, 54.9778091]}, "id": "node/560133303"}, {"type": "Feature", "properties": {"@id": "node/839181149", "amenity": "bench"}, "geometry": {"type": "Point", "coordinates": [-4.3761745, 54.9540862]}, "id": "node/839181149"}, {"type": "Feature", "properties": {"@id": "node/2382616095", "amenity": "bench"}, "geometry": {"type": "Point", "coordinates": [-3.5005573, 54.7100315]}, "id": "node/2382616095"}, {"type": "Feature", "properties": {"@id": "node/2382616097", "amenity": "bench"}, "geometry": {"type": "Point", "coordinates": [-3.5004071, 54.7100129]}, "id": "node/2382616097"}, {"type": "Feature", "properties": {"@id": "node/2382616098", "amenity": "bench"}, "geometry": {"type": "Point", "coordinates": [-3.5039476, 54.7107133]}, "id": "node/2382616098"}, {"type": "Feature", "properties": {"@id": "node/2475158971", "amenity": "bench"}, "geometry": {"type": "Point", "coordinates": [-3.765779, 54.8725373]}, "id": "node/2475158971"}, {"type": "Feature", "properties": {"@id": "node/2625795439", "amenity": "bench"}, "geometry": {"type": "Point", "coordinates": [-4.4432307, 54.8680758]}, "id": "node/2625795439"}, {"type": "Feature", "properties": {"@id": "node/2625880097", "amenity": "bench"}, "geometry": {"type": "Point", "coordinates": [-4.4420601, 54.8682445]}, "id": "node/2625880097"}, {"type": "Feature", "properties": {"@id": "node/2625881011", "amenity": "bench"}, "geometry": {"type": "Point", "coordinates": [-4.4418979, 54.8683139]}, "id": "node/2625881011"}, {"type": "Feature", "properties": {"@id": "node/2625882126", "amenity": "bench"}, "geometry": {"type": "Point", "coordinates": [-4.4423008, 54.8685218]}, "id": "node/2625882126"}, {"type": "Feature", "properties": {"@id": "node/2974478181", "amenity": "bench", "backrest": "yes"}, "geometry": {"type": "Point", "coordinates": [-3.5106152, 54.7063197]}, "id": "node/2974478181"}, {"type": "Feature", "properties": {"@id": "node/2974478182", "amenity": "bench", "backrest": "yes"}, "geometry": {"type": "Point", "coordinates": [-3.5107259, 54.7062238]}, "id": "node/2974478182"}, {"type": "Feature", "properties": {"@id": "node/3369818208", "amenity": "bench"}, "geometry": {"type": "Point", "coordinates": [-3.5851013, 54.5274651]}, "id": "node/3369818208"}, {"type": "Feature", "properties": {"@id": "node/3369818209", "amenity": "bench"}, "geometry": {"type": "Point", "coordinates": [-3.5851705, 54.527425]}, "id": "node/3369818209"}, {"type": "Feature", "properties": {"@id": "node/3379514833", "amenity": "bench"}, "geometry": {"type": "Point", "coordinates": [-3.5213175, 54.664037]}, "id": "node/3379514833"}, {"type": "Feature", "properties": {"@id": "node/3379514834", "amenity": "bench"}, "geometry": {"type": "Point", "coordinates": [-3.5208052, 54.6643333]}, "id": "node/3379514834"}, {"type": "Feature", "properties": {"@id": "node/3379514835", "amenity": "bench"}, "geometry": {"type": "Point", "coordinates": [-3.5210037, 54.6645349]}, "id": "node/3379514835"}, {"type": "Feature", "properties": {"@id": "node/3379632893", "amenity": "bench"}, "geometry": {"type": "Point", "coordinates": [-3.5164398, 54.5837175]}, "id": "node/3379632893"}, {"type": "Feature", "properties": {"@id": "node/3384345950", "amenity": "bench", "backrest": "yes"}, "geometry": {"type": "Point", "coordinates": [-3.5088646, 54.5188437]}, "id": "node/3384345950"}, {"type": "Feature", "properties": {"@id": "node/3384345951", "amenity": "bench", "backrest": "yes"}, "geometry": {"type": "Point", "coordinates": [-3.5087707, 54.5188827]}, "id": "node/3384345951"}, {"type": "Feature", "properties": {"@id": "node/3401568061", "amenity": "bench", "backrest": "yes", "source": "survey"}, "geometry": {"type": "Point", "coordinates": [-3.5809415, 54.57008]}, "id": "node/3401568061"}, {"type": "Feature", "properties": {"@id": "node/3415584859", "amenity": "bench"}, "geometry": {"type": "Point", "coordinates": [-3.5716494, 54.5798596]}, "id": "node/3415584859"}, {"type": "Feature", "properties": {"@id": "node/3415597399", "amenity": "bench"}, "geometry": {"type": "Point", "coordinates": [-3.5562499, 54.5726869]}, "id": "node/3415597399"}, {"type": "Feature", "properties": {"@id": "node/3415632735", "amenity": "bench"}, "geometry": {"type": "Point", "coordinates": [-3.5272656, 54.4655049]}, "id": "node/3415632735"}, {"type": "Feature", "properties": {"@id": "node/3415632736", "amenity": "bench"}, "geometry": {"type": "Point", "coordinates": [-3.5272516, 54.4654736]}, "id": "node/3415632736"}, {"type": "Feature", "properties": {"@id": "node/3461574019", "amenity": "bench"}, "geometry": {"type": "Point", "coordinates": [-3.5401642, 54.5954953]}, "id": "node/3461574019"}, {"type": "Feature", "properties": {"@id": "node/3461574020", "amenity": "bench"}, "geometry": {"type": "Point", "coordinates": [-3.5402015, 54.5954764]}, "id": "node/3461574020"}, {"type": "Feature", "properties": {"@id": "node/3461574021", "amenity": "bench"}, "geometry": {"type": "Point", "coordinates": [-3.5402949, 54.595498]}, "id": "node/3461574021"}, {"type": "Feature", "properties": {"@id": "node/3483642811", "amenity": "bench"}, "geometry": {"type": "Point", "coordinates": [-3.5584296, 54.4533066]}, "id": "node/3483642811"}, {"type": "Feature", "properties": {"@id": "node/3483642812", "amenity": "bench"}, "geometry": {"type": "Point", "coordinates": [-3.5584346, 54.4533449]}, "id": "node/3483642812"}, {"type": "Feature", "properties": {"@id": "node/3743054137", "amenity": "bench", "backrest": "yes", "source": "survey"}, "geometry": {"type": "Point", "coordinates": [-3.5809364, 54.5699627]}, "id": "node/3743054137"}, {"type": "Feature", "properties": {"@id": "node/3748531273", "amenity": "bench", "backrest": "yes", "colour": "blue", "material": "metal"}, "geometry": {"type": "Point", "coordinates": [-3.520536, 54.6898175]}, "id": "node/3748531273"}, {"type": "Feature", "properties": {"@id": "node/4283767381", "amenity": "bench", "backrest": "yes"}, "geometry": {"type": "Point", "coordinates": [-3.5285415, 54.4801798]}, "id": "node/4283767381"}, {"type": "Feature", "properties": {"@id": "node/4283767382", "amenity": "bench", "backrest": "yes"}, "geometry": {"type": "Point", "coordinates": [-3.5285313, 54.4801077]}, "id": "node/4283767382"}, {"type": "Feature", "properties": {"@id": "node/4283798136", "amenity": "bench", "backrest": "yes"}, "geometry": {"type": "Point", "coordinates": [-3.5289744, 54.4812462]}, "id": "node/4283798136"}, {"type": "Feature", "properties": {"@id": "node/4283798137", "amenity": "bench", "backrest": "yes"}, "geometry": {"type": "Point", "coordinates": [-3.528946, 54.4812946]}, "id": "node/4283798137"}, {"type": "Feature", "properties": {"@id": "node/4283924965", "amenity": "bench", "backrest": "yes"}, "geometry": {"type": "Point", "coordinates": [-3.5283558, 54.4835864]}, "id": "node/4283924965"}, {"type": "Feature", "properties": {"@id": "node/4420329081", "amenity": "bench", "backrest": "yes"}, "geometry": {"type": "Point", "coordinates": [-3.5495665, 54.6436381]}, "id": "node/4420329081"}, {"type": "Feature", "properties": {"@id": "node/4420329082", "amenity": "bench", "backrest": "yes"}, "geometry": {"type": "Point", "coordinates": [-3.549494, 54.6436238]}, "id": "node/4420329082"}, {"type": "Feature", "properties": {"@id": "node/4420398912", "amenity": "bench", "backrest": "no", "check_date": "2023-04-16"}, "geometry": {"type": "Point", "coordinates": [-3.5456139, 54.6441752]}, "id": "node/4420398912"}, {"type": "Feature", "properties": {"@id": "node/4420398913", "amenity": "bench", "backrest": "no", "check_date": "2023-04-16"}, "geometry": {"type": "Point", "coordinates": [-3.5456796, 54.6441566]}, "id": "node/4420398913"}, {"type": "Feature", "properties": {"@id": "node/4420398914", "amenity": "bench", "backrest": "no", "check_date": "2023-04-16"}, "geometry": {"type": "Point", "coordinates": [-3.5456381, 54.6441418]}, "id": "node/4420398914"}, {"type": "Feature", "properties": {"@id": "node/4420398915", "amenity": "bench", "backrest": "no", "check_date": "2023-04-16"}, "geometry": {"type": "Point", "coordinates": [-3.5455911, 54.6441364]}, "id": "node/4420398915"}, {"type": "Feature", "properties": {"@id": "node/4515673887", "amenity": "bench"}, "geometry": {"type": "Point", "coordinates": [-3.6191288, 54.4917546]}, "id": "node/4515673887"}, {"type": "Feature", "properties": {"@id": "node/4527982283", "amenity": "bench", "backrest": "yes", "check_date": "2024-06-23"}, "geometry": {"type": "Point", "coordinates": [-3.5870107, 54.5507434]}, "id": "node/4527982283"}, {"type": "Feature", "properties": {"@id": "node/4528040312", "amenity": "bench", "backrest": "yes"}, "geometry": {"type": "Point", "coordinates": [-3.5865328, 54.5494592]}, "id": "node/4528040312"}, {"type": "Feature", "properties": {"@id": "node/4528040313", "amenity": "bench", "backrest": "yes"}, "geometry": {"type": "Point", "coordinates": [-3.5865948, 54.5494028]}, "id": "node/4528040313"}, {"type": "Feature", "properties": {"@id": "node/4543204477", "amenity": "bench", "backrest": "yes"}, "geometry": {"type": "Point", "coordinates": [-3.5892888, 54.5467521]}, "id": "node/4543204477"}, {"type": "Feature", "properties": {"@id": "node/4543338317", "amenity": "bench", "backrest": "no"}, "geometry": {"type": "Point", "coordinates": [-3.5863435, 54.5468958]}, "id": "node/4543338317"}, {"type": "Feature", "properties": {"@id": "node/4543338318", "amenity": "bench", "backrest": "no"}, "geometry": {"type": "Point", "coordinates": [-3.5862522, 54.546853]}, "id": "node/4543338318"}, {"type": "Feature", "properties": {"@id": "node/4543338328", "amenity": "bench", "backrest": "yes"}, "geometry": {"type": "Point", "coordinates": [-3.5858851, 54.5467391]}, "id": "node/4543338328"}, {"type": "Feature", "properties": {"@id": "node/4543338329", "amenity": "bench", "backrest": "yes"}, "geometry": {"type": "Point", "coordinates": [-3.5857665, 54.5466878]}, "id": "node/4543338329"}, {"type": "Feature", "properties": {"@id": "node/4543338330", "amenity": "bench", "backrest": "yes"}, "geometry": {"type": "Point", "coordinates": [-3.5857053, 54.5467327]}, "id": "node/4543338330"}, {"type": "Feature", "properties": {"@id": "node/4543338331", "amenity": "bench", "backrest": "yes"}, "geometry": {"type": "Point", "coordinates": [-3.585823, 54.5467863]}, "id": "node/4543338331"}, {"type": "Feature", "properties": {"@id": "node/4543338333", "amenity": "bench", "backrest": "yes"}, "geometry": {"type": "Point", "coordinates": [-3.5854784, 54.5466157]}, "id": "node/4543338333"}, {"type": "Feature", "properties": {"@id": "node/4780701304", "amenity": "bench", "backrest": "yes"}, "geometry": {"type": "Point", "coordinates": [-3.516097, 54.5213149]}, "id": "node/4780701304"}, {"type": "Feature", "properties": {"@id": "node/4780701305", "amenity": "bench", "backrest": "yes"}, "geometry": {"type": "Point", "coordinates": [-3.5161848, 54.5213408]}, "id": "node/4780701305"}, {"type": "Feature", "properties": {"@id": "node/4780701306", "amenity": "bench", "backrest": "yes", "check_date": "2025-03-21"}, "geometry": {"type": "Point", "coordinates": [-3.5164513, 54.5213444]}, "id": "node/4780701306"}, {"type": "Feature", "properties": {"@id": "node/5604781601", "amenity": "bench"}, "geometry": {"type": "Point", "coordinates": [-3.6234141, 54.9796098]}, "id": "node/5604781601"}, {"type": "Feature", "properties": {"@id": "node/5604781607", "amenity": "bench", "backrest": "yes", "source": "survey"}, "geometry": {"type": "Point", "coordinates": [-3.6196221, 54.9792009]}, "id": "node/5604781607"}, {"type": "Feature", "properties": {"@id": "node/5604781621", "amenity": "bench"}, "geometry": {"type": "Point", "coordinates": [-3.6237676, 54.979636]}, "id": "node/5604781621"}, {"type": "Feature", "properties": {"@id": "node/5604781627", "amenity": "bench", "backrest": "yes", "source": "survey"}, "geometry": {"type": "Point", "coordinates": [-3.6194725, 54.9790854]}, "id": "node/5604781627"}, {"type": "Feature", "properties": {"@id": "node/5604781636", "amenity": "bench"}, "geometry": {"type": "Point", "coordinates": [-3.6235224, 54.9796142]}, "id": "node/5604781636"}, {"type": "Feature", "properties": {"@id": "node/5604781639", "amenity": "bench"}, "geometry": {"type": "Point", "coordinates": [-3.6239954, 54.9796477]}, "id": "node/5604781639"}, {"type": "Feature", "properties": {"@id": "node/5631280200", "amenity": "bench"}, "geometry": {"type": "Point", "coordinates": [-4.4751745, 54.9453183]}, "id": "node/5631280200"}, {"type": "Feature", "properties": {"@id": "node/5644704806", "amenity": "bench"}, "geometry": {"type": "Point", "coordinates": [-4.457134, 54.9579534]}, "id": "node/5644704806"}, {"type": "Feature", "properties": {"@id": "node/5644906592", "amenity": "bench"}, "geometry": {"type": "Point", "coordinates": [-4.4007459, 54.9383128]}, "id": "node/5644906592"}, {"type": "Feature", "properties": {"@id": "node/5646342244", "amenity": "bench"}, "geometry": {"type": "Point", "coordinates": [-4.3717888, 54.9068802]}, "id": "node/5646342244"}, {"type": "Feature", "properties": {"@id": "node/5717994754", "amenity": "bench", "backrest": "yes", "direction": "85"}, "geometry": {"type": "Point", "coordinates": [-4.4375439, 54.871149]}, "id": "node/5717994754"}, {"type": "Feature", "properties": {"@id": "node/5916786360", "amenity": "bench", "backrest": "yes"}, "geometry": {"type": "Point", "coordinates": [-3.9311374, 54.9359497]}, "id": "node/5916786360"}, {"type": "Feature", "properties": {"@id": "node/5916786361", "amenity": "bench", "backrest": "yes"}, "geometry": {"type": "Point", "coordinates": [-3.9307173, 54.9358879]}, "id": "node/5916786361"}, {"type": "Feature", "properties": {"@id": "node/5916786362", "amenity": "bench", "backrest": "yes"}, "geometry": {"type": "Point", "coordinates": [-3.9304112, 54.9358356]}, "id": "node/5916786362"}, {"type": "Feature", "properties": {"@id": "node/5916786363", "amenity": "bench", "backrest": "yes"}, "geometry": {"type": "Point", "coordinates": [-3.9300627, 54.9358]}, "id": "node/5916786363"}, {"type": "Feature", "properties": {"@id": "node/5924713592", "amenity": "bench"}, "geometry": {"type": "Point", "coordinates": [-3.9254457, 54.9247505]}, "id": "node/5924713592"}, {"type": "Feature", "properties": {"@id": "node/6571225450", "amenity": "bench"}, "geometry": {"type": "Point", "coordinates": [-4.4172207, 54.9541262]}, "id": "node/6571225450"}, {"type": "Feature", "properties": {"@id": "node/6571225482", "amenity": "bench"}, "geometry": {"type": "Point", "coordinates": [-4.4189943, 54.9521392]}, "id": "node/6571225482"}, {"type": "Feature", "properties": {"@id": "node/6571225483", "amenity": "bench"}, "geometry": {"type": "Point", "coordinates": [-4.4189139, 54.9522001]}, "id": "node/6571225483"}, {"type": "Feature", "properties": {"@id": "node/6571225486", "amenity": "bench"}, "geometry": {"type": "Point", "coordinates": [-4.4187865, 54.9506975]}, "id": "node/6571225486"}, {"type": "Feature", "properties": {"@id": "node/6571225487", "amenity": "bench"}, "geometry": {"type": "Point", "coordinates": [-4.4185585, 54.9514646]}, "id": "node/6571225487"}, {"type": "Feature", "properties": {"@id": "node/7683118494", "amenity": "bench", "backrest": "no", "material": "concrete", "seats": "3"}, "geometry": {"type": "Point", "coordinates": [-3.5098845, 54.7035528]}, "id": "node/7683118494"}, {"type": "Feature", "properties": {"@id": "node/7710023815", "amenity": "bench"}, "geometry": {"type": "Point", "coordinates": [-3.8352723, 54.8181322]}, "id": "node/7710023815"}, {"type": "Feature", "properties": {"@id": "node/7710023816", "amenity": "bench"}, "geometry": {"type": "Point", "coordinates": [-3.8350389, 54.8194365]}, "id": "node/7710023816"}, {"type": "Feature", "properties": {"@id": "node/7912972288", "amenity": "bench", "backrest": "yes", "material": "wood", "seats": "3"}, "geometry": {"type": "Point", "coordinates": [-4.4418967, 54.8686036]}, "id": "node/7912972288"}, {"type": "Feature", "properties": {"@id": "node/7912972290", "amenity": "bench", "backrest": "yes", "material": "wood", "seats": "3"}, "geometry": {"type": "Point", "coordinates": [-4.4417503, 54.8684742]}, "id": "node/7912972290"}, {"type": "Feature", "properties": {"@id": "node/7921093025", "amenity": "bench", "backrest": "yes", "material": "wood", "seats": "3"}, "geometry": {"type": "Point", "coordinates": [-4.4419955, 54.8686028]}, "id": "node/7921093025"}, {"type": "Feature", "properties": {"@id": "node/7921093038", "amenity": "bench", "backrest": "yes", "material": "wood", "seats": "3"}, "geometry": {"type": "Point", "coordinates": [-4.4419332, 54.8685484]}, "id": "node/7921093038"}, {"type": "Feature", "properties": {"@id": "node/7926130530", "amenity": "bench"}, "geometry": {"type": "Point", "coordinates": [-3.5873223, 54.5533109]}, "id": "node/7926130530"}, {"type": "Feature", "properties": {"@id": "node/8032404517", "amenity": "bench"}, "geometry": {"type": "Point", "coordinates": [-4.2538146, 54.9527954]}, "id": "node/8032404517"}, {"type": "Feature", "properties": {"@id": "node/8400896150", "amenity": "bench"}, "geometry": {"type": "Point", "coordinates": [-3.6717127, 54.9993108]}, "id": "node/8400896150"}, {"type": "Feature", "properties": {"@id": "node/8574208191", "amenity": "bench"}, "geometry": {"type": "Point", "coordinates": [-3.8004456, 54.897454]}, "id": "node/8574208191"}, {"type": "Feature", "properties": {"@id": "node/9008121295", "amenity": "bench"}, "geometry": {"type": "Point", "coordinates": [-3.5160931, 54.5209397]}, "id": "node/9008121295"}, {"type": "Feature", "properties": {"@id": "node/9008121297", "amenity": "bench"}, "geometry": {"type": "Point", "coordinates": [-3.5163318, 54.520977]}, "id": "node/9008121297"}, {"type": "Feature", "properties": {"@id": "node/9395379521", "amenity": "bench"}, "geometry": {"type": "Point", "coordinates": [-3.8811316, 54.8723754]}, "id": "node/9395379521"}, {"type": "Feature", "properties": {"@id": "node/9653957969", "amenity": "bench"}, "geometry": {"type": "Point", "coordinates": [-3.8102191, 54.8719269]}, "id": "node/9653957969"}, {"type": "Feature", "properties": {"@id": "node/9653957970", "amenity": "bench"}, "geometry": {"type": "Point", "coordinates": [-3.8103044, 54.8719357]}, "id": "node/9653957970"}, {"type": "Feature", "properties": {"@id": "node/9653957971", "amenity": "bench"}, "geometry": {"type": "Point", "coordinates": [-3.8102628, 54.8718924]}, "id": "node/9653957971"}, {"type": "Feature", "properties": {"@id": "node/9677069450", "amenity": "bench"}, "geometry": {"type": "Point", "coordinates": [-4.2539107, 54.9528631]}, "id": "node/9677069450"}, {"type": "Feature", "properties": {"@id": "node/9677069479", "amenity": "bench"}, "geometry": {"type": "Point", "coordinates": [-4.2027244, 54.9162996]}, "id": "node/9677069479"}, {"type": "Feature", "properties": {"@id": "node/9677069490", "amenity": "bench"}, "geometry": {"type": "Point", "coordinates": [-4.1990176, 54.913506]}, "id": "node/9677069490"}, {"type": "Feature", "properties": {"@id": "node/9711563867", "amenity": "bench", "backrest": "yes"}, "geometry": {"type": "Point", "coordinates": [-3.5974883, 54.4922082]}, "id": "node/9711563867"}, {"type": "Feature", "properties": {"@id": "node/9878849037", "amenity": "bench", "backrest": "yes", "material": "wood"}, "geometry": {"type": "Point", "coordinates": [-3.8081361, 54.9230544]}, "id": "node/9878849037"}, {"type": "Feature", "properties": {"@id": "node/9878849038", "amenity": "bench", "backrest": "yes", "material": "wood"}, "geometry": {"type": "Point", "coordinates": [-3.8082069, 54.9230254]}, "id": "node/9878849038"}, {"type": "Feature", "properties": {"@id": "node/9878897386", "amenity": "bench", "backrest": "yes", "material": "wood"}, "geometry": {"type": "Point", "coordinates": [-3.8111371, 54.9206531]}, "id": "node/9878897386"}, {"type": "Feature", "properties": {"@id": "node/9893250468", "amenity": "bench", "backrest": "yes"}, "geometry": {"type": "Point", "coordinates": [-4.5849556, 54.7580127]}, "id": "node/9893250468"}, {"type": "Feature", "properties": {"@id": "node/9935785196", "amenity": "bench", "backrest": "yes", "inscription": "Donated by Garlieston Vegetable, Flower and Craft Show 1969 - 2014", "material": "plastic"}, "geometry": {"type": "Point", "coordinates": [-4.3650725, 54.7956115]}, "id": "node/9935785196"}, {"type": "Feature", "properties": {"@id": "node/9935785197", "amenity": "bench", "backrest": "yes", "material": "metal"}, "geometry": {"type": "Point", "coordinates": [-4.3684135, 54.7942129]}, "id": "node/9935785197"}, {"type": "Feature", "properties": {"@id": "node/9935785198", "amenity": "bench", "backrest": "yes", "material": "wood"}, "geometry": {"type": "Point", "coordinates": [-4.3690241, 54.791925]}, "id": "node/9935785198"}, {"type": "Feature", "properties": {"@id": "node/9935785199", "amenity": "bench", "backrest": "yes"}, "geometry": {"type": "Point", "coordinates": [-4.3689118, 54.7914743]}, "id": "node/9935785199"}, {"type": "Feature", "properties": {"@id": "node/9935785201", "amenity": "bench", "backrest": "yes", "material": "wood"}, "geometry": {"type": "Point", "coordinates": [-4.3691844, 54.7907649]}, "id": "node/9935785201"}, {"type": "Feature", "properties": {"@id": "node/9935799983", "amenity": "bench", "backrest": "yes", "material": "wood"}, "geometry": {"type": "Point", "coordinates": [-4.3690888, 54.7899762]}, "id": "node/9935799983"}, {"type": "Feature", "properties": {"@id": "node/9937094775", "amenity": "bench", "backrest": "yes", "material": "metal"}, "geometry": {"type": "Point", "coordinates": [-4.3627425, 54.7882736]}, "id": "node/9937094775"}, {"type": "Feature", "properties": {"@id": "node/9939232800", "amenity": "bench", "backrest": "yes", "material": "wood"}, "geometry": {"type": "Point", "coordinates": [-4.3620223, 54.7856208]}, "id": "node/9939232800"}, {"type": "Feature", "properties": {"@id": "node/9939711401", "amenity": "bench", "backrest": "yes", "material": "plastic"}, "geometry": {"type": "Point", "coordinates": [-4.4149053, 54.7376067]}, "id": "node/9939711401"}, {"type": "Feature", "properties": {"@id": "node/9941262232", "amenity": "bench", "backrest": "yes", "material": "metal"}, "geometry": {"type": "Point", "coordinates": [-4.3609947, 54.6974333]}, "id": "node/9941262232"}, {"type": "Feature", "properties": {"@id": "node/10092439418", "amenity": "bench", "backrest": "yes"}, "geometry": {"type": "Point", "coordinates": [-4.4449384, 54.9642742]}, "id": "node/10092439418"}, {"type": "Feature", "properties": {"@id": "node/10092596417", "amenity": "bench"}, "geometry": {"type": "Point", "coordinates": [-4.4174299, 54.9598775]}, "id": "node/10092596417"}, {"type": "Feature", "properties": {"@id": "node/10274696931", "amenity": "bench"}, "geometry": {"type": "Point", "coordinates": [-3.5516414, 54.5592374]}, "id": "node/10274696931"}, {"type": "Feature", "properties": {"@id": "node/10274696932", "amenity": "bench"}, "geometry": {"type": "Point", "coordinates": [-3.5516378, 54.5591482]}, "id": "node/10274696932"}, {"type": "Feature", "properties": {"@id": "node/10569267256", "amenity": "bench"}, "geometry": {"type": "Point", "coordinates": [-3.9462275, 54.8090696]}, "id": "node/10569267256"}, {"type": "Feature", "properties": {"@id": "node/10982830758", "amenity": "bench"}, "geometry": {"type": "Point", "coordinates": [-3.5271773, 54.4992008]}, "id": "node/10982830758"}, {"type": "Feature", "properties": {"@id": "node/11060572297", "amenity": "bench"}, "geometry": {"type": "Point", "coordinates": [-3.5404487, 54.531565]}, "id": "node/11060572297"}, {"type": "Feature", "properties": {"@id": "node/11060629785", "amenity": "bench"}, "geometry": {"type": "Point", "coordinates": [-3.540232, 54.5952818]}, "id": "node/11060629785"}, {"type": "Feature", "properties": {"@id": "node/11079146214", "amenity": "bench", "backrest": "yes", "material": "wood"}, "geometry": {"type": "Point", "coordinates": [-4.4332142, 54.8600132]}, "id": "node/11079146214"}, {"type": "Feature", "properties": {"@id": "node/11079146217", "amenity": "bench", "backrest": "yes", "material": "wood"}, "geometry": {"type": "Point", "coordinates": [-4.4344722, 54.8603718]}, "id": "node/11079146217"}, {"type": "Feature", "properties": {"@id": "node/11129325076", "amenity": "bench", "backrest": "yes"}, "geometry": {"type": "Point", "coordinates": [-3.5909403, 54.5459585]}, "id": "node/11129325076"}, {"type": "Feature", "properties": {"@id": "node/11129325077", "amenity": "bench", "backrest": "yes"}, "geometry": {"type": "Point", "coordinates": [-3.5908539, 54.5459853]}, "id": "node/11129325077"}, {"type": "Feature", "properties": {"@id": "node/11129325078", "amenity": "bench", "backrest": "yes"}, "geometry": {"type": "Point", "coordinates": [-3.59102, 54.5460601]}, "id": "node/11129325078"}, {"type": "Feature", "properties": {"@id": "node/11134063982", "amenity": "bench", "backrest": "yes"}, "geometry": {"type": "Point", "coordinates": [-4.3616458, 54.697281]}, "id": "node/11134063982"}, {"type": "Feature", "properties": {"@id": "node/11134063983", "amenity": "bench", "backrest": "no"}, "geometry": {"type": "Point", "coordinates": [-4.3617768, 54.6974734]}, "id": "node/11134063983"}, {"type": "Feature", "properties": {"@id": "node/11134063985", "amenity": "bench", "backrest": "yes"}, "geometry": {"type": "Point", "coordinates": [-4.3621573, 54.697668]}, "id": "node/11134063985"}, {"type": "Feature", "properties": {"@id": "node/11134063986", "amenity": "bench", "backrest": "yes"}, "geometry": {"type": "Point", "coordinates": [-4.3616495, 54.697436]}, "id": "node/11134063986"}, {"type": "Feature", "properties": {"@id": "node/11134063987", "amenity": "bench", "backrest": "no"}, "geometry": {"type": "Point", "coordinates": [-4.3618659, 54.6974935]}, "id": "node/11134063987"}, {"type": "Feature", "properties": {"@id": "node/11134145778", "amenity": "bench", "backrest": "yes", "material": "metal"}, "geometry": {"type": "Point", "coordinates": [-4.3610455, 54.6974272]}, "id": "node/11134145778"}, {"type": "Feature", "properties": {"@id": "node/11146008766", "amenity": "bench", "backrest": "yes"}, "geometry": {"type": "Point", "coordinates": [-4.3605713, 54.6969567]}, "id": "node/11146008766"}, {"type": "Feature", "properties": {"@id": "node/11146008777", "amenity": "bench", "backrest": "yes", "material": "metal"}, "geometry": {"type": "Point", "coordinates": [-4.3607833, 54.6974743]}, "id": "node/11146008777"}, {"type": "Feature", "properties": {"@id": "node/11146008785", "amenity": "bench", "backrest": "yes", "material": "metal"}, "geometry": {"type": "Point", "coordinates": [-4.3608367, 54.6974298]}, "id": "node/11146008785"}, {"type": "Feature", "properties": {"@id": "node/11149088232", "amenity": "bench"}, "geometry": {"type": "Point", "coordinates": [-3.9197504, 54.9073912]}, "id": "node/11149088232"}, {"type": "Feature", "properties": {"@id": "node/11149088233", "amenity": "bench"}, "geometry": {"type": "Point", "coordinates": [-3.9194554, 54.9073799]}, "id": "node/11149088233"}, {"type": "Feature", "properties": {"@id": "node/11158750050", "amenity": "bench"}, "geometry": {"type": "Point", "coordinates": [-3.5843145, 54.5417632]}, "id": "node/11158750050"}, {"type": "Feature", "properties": {"@id": "node/11158750051", "amenity": "bench"}, "geometry": {"type": "Point", "coordinates": [-3.5843997, 54.541844]}, "id": "node/11158750051"}, {"type": "Feature", "properties": {"@id": "node/11176831455", "amenity": "bench", "backrest": "yes"}, "geometry": {"type": "Point", "coordinates": [-3.586372, 54.4995915]}, "id": "node/11176831455"}, {"type": "Feature", "properties": {"@id": "node/11176831456", "amenity": "bench", "backrest": "yes"}, "geometry": {"type": "Point", "coordinates": [-3.5829832, 54.5019556]}, "id": "node/11176831456"}, {"type": "Feature", "properties": {"@id": "node/11318895398", "amenity": "bench"}, "geometry": {"type": "Point", "coordinates": [-3.6015932, 54.5172296]}, "id": "node/11318895398"}, {"type": "Feature", "properties": {"@id": "node/11318895399", "amenity": "bench"}, "geometry": {"type": "Point", "coordinates": [-3.6015557, 54.5173074]}, "id": "node/11318895399"}, {"type": "Feature", "properties": {"@id": "node/11318895400", "amenity": "bench"}, "geometry": {"type": "Point", "coordinates": [-3.6015494, 54.5173956]}, "id": "node/11318895400"}, {"type": "Feature", "properties": {"@id": "node/11390383741", "amenity": "bench", "backrest": "yes", "material": "wood", "seats": "2"}, "geometry": {"type": "Point", "coordinates": [-3.8104985, 54.8355361]}, "id": "node/11390383741"}, {"type": "Feature", "properties": {"@id": "node/11395112930", "amenity": "bench"}, "geometry": {"type": "Point", "coordinates": [-4.3683883, 54.7880593]}, "id": "node/11395112930"}, {"type": "Feature", "properties": {"@id": "node/11395112939", "amenity": "bench"}, "geometry": {"type": "Point", "coordinates": [-4.3686067, 54.7887552]}, "id": "node/11395112939"}, {"type": "Feature", "properties": {"@id": "node/11395146727", "amenity": "bench", "backrest": "yes"}, "geometry": {"type": "Point", "coordinates": [-3.8141676, 54.8795933]}, "id": "node/11395146727"}, {"type": "Feature", "properties": {"@id": "node/11395146729", "amenity": "bench", "backrest": "yes"}, "geometry": {"type": "Point", "coordinates": [-3.8142731, 54.8799225]}, "id": "node/11395146729"}, {"type": "Feature", "properties": {"@id": "node/11395146730", "amenity": "bench", "backrest": "yes"}, "geometry": {"type": "Point", "coordinates": [-3.8142508, 54.8798793]}, "id": "node/11395146730"}, {"type": "Feature", "properties": {"@id": "node/11395146731", "amenity": "bench", "backrest": "yes"}, "geometry": {"type": "Point", "coordinates": [-3.8142418, 54.8798387]}, "id": "node/11395146731"}, {"type": "Feature", "properties": {"@id": "node/11395146732", "amenity": "bench", "backrest": "yes"}, "geometry": {"type": "Point", "coordinates": [-3.8142293, 54.879796]}, "id": "node/11395146732"}, {"type": "Feature", "properties": {"@id": "node/11395146733", "amenity": "bench", "backrest": "yes"}, "geometry": {"type": "Point", "coordinates": [-3.8142061, 54.8797096]}, "id": "node/11395146733"}, {"type": "Feature", "properties": {"@id": "node/11395146734", "amenity": "bench", "backrest": "yes"}, "geometry": {"type": "Point", "coordinates": [-3.8141864, 54.8796689]}, "id": "node/11395146734"}, {"type": "Feature", "properties": {"@id": "node/11395146735", "amenity": "bench", "backrest": "yes"}, "geometry": {"type": "Point", "coordinates": [-3.8141766, 54.8796288]}, "id": "node/11395146735"}, {"type": "Feature", "properties": {"@id": "node/11794231716", "amenity": "bench", "backrest": "yes"}, "geometry": {"type": "Point", "coordinates": [-4.5830584, 54.7599869]}, "id": "node/11794231716"}, {"type": "Feature", "properties": {"@id": "node/11794231717", "amenity": "bench", "backrest": "yes", "material": "wood"}, "geometry": {"type": "Point", "coordinates": [-4.5830959, 54.7598882]}, "id": "node/11794231717"}, {"type": "Feature", "properties": {"@id": "node/11802124206", "amenity": "bench", "backrest": "yes", "material": "wood"}, "geometry": {"type": "Point", "coordinates": [-3.9475642, 54.9239999]}, "id": "node/11802124206"}, {"type": "Feature", "properties": {"@id": "node/11841415059", "amenity": "bench", "backrest": "yes"}, "geometry": {"type": "Point", "coordinates": [-3.7886615, 54.8566138]}, "id": "node/11841415059"}, {"type": "Feature", "properties": {"@id": "node/11841446770", "amenity": "bench"}, "geometry": {"type": "Point", "coordinates": [-4.1359659, 54.7774548]}, "id": "node/11841446770"}, {"type": "Feature", "properties": {"@id": "node/11841462469", "amenity": "bench"}, "geometry": {"type": "Point", "coordinates": [-4.132755, 54.7790549]}, "id": "node/11841462469"}, {"type": "Feature", "properties": {"@id": "node/11841462484", "amenity": "bench"}, "geometry": {"type": "Point", "coordinates": [-4.1499174, 54.7784072]}, "id": "node/11841462484"}, {"type": "Feature", "properties": {"@id": "node/11841488478", "amenity": "bench"}, "geometry": {"type": "Point", "coordinates": [-4.1456442, 54.7845182]}, "id": "node/11841488478"}, {"type": "Feature", "properties": {"@id": "node/11842011352", "amenity": "bench", "backrest": "yes"}, "geometry": {"type": "Point", "coordinates": [-3.796032, 54.8653416]}, "id": "node/11842011352"}, {"type": "Feature", "properties": {"@id": "node/11842011353", "amenity": "bench", "backrest": "yes"}, "geometry": {"type": "Point", "coordinates": [-3.7959833, 54.8653299]}, "id": "node/11842011353"}, {"type": "Feature", "properties": {"@id": "node/11842011354", "amenity": "bench", "backrest": "yes"}, "geometry": {"type": "Point", "coordinates": [-3.7963665, 54.8654313]}, "id": "node/11842011354"}, {"type": "Feature", "properties": {"@id": "node/11842011355", "amenity": "bench", "backrest": "yes"}, "geometry": {"type": "Point", "coordinates": [-3.796431, 54.8654511]}, "id": "node/11842011355"}, {"type": "Feature", "properties": {"@id": "node/11842011356", "amenity": "bench", "backrest": "yes"}, "geometry": {"type": "Point", "coordinates": [-3.7966814, 54.8655061]}, "id": "node/11842011356"}, {"type": "Feature", "properties": {"@id": "node/11842011357", "amenity": "bench", "backrest": "yes"}, "geometry": {"type": "Point", "coordinates": [-3.7968009, 54.8655234]}, "id": "node/11842011357"}, {"type": "Feature", "properties": {"@id": "node/11845422168", "amenity": "bench", "backrest": "yes", "colour": "black", "material": "plastic"}, "geometry": {"type": "Point", "coordinates": [-3.8117184, 54.871301]}, "id": "node/11845422168"}, {"type": "Feature", "properties": {"@id": "node/11952143413", "amenity": "bench"}, "geometry": {"type": "Point", "coordinates": [-4.2175866, 54.8431046]}, "id": "node/11952143413"}, {"type": "Feature", "properties": {"@id": "node/12002236368", "amenity": "bench", "backrest": "yes", "check_date": "2024-06-23"}, "geometry": {"type": "Point", "coordinates": [-3.5877958, 54.5479479]}, "id": "node/12002236368"}, {"type": "Feature", "properties": {"@id": "node/12002317619", "amenity": "bench", "backrest": "yes", "check_date": "2024-06-23"}, "geometry": {"type": "Point", "coordinates": [-3.5879592, 54.5479898]}, "id": "node/12002317619"}, {"type": "Feature", "properties": {"@id": "node/12002323332", "amenity": "bench", "backrest": "yes", "check_date": "2024-06-23"}, "geometry": {"type": "Point", "coordinates": [-3.5877698, 54.5478993]}, "id": "node/12002323332"}, {"type": "Feature", "properties": {"@id": "node/12002345703", "amenity": "bench", "backrest": "yes", "check_date": "2024-06-23"}, "geometry": {"type": "Point", "coordinates": [-3.5877734, 54.547964]}, "id": "node/12002345703"}, {"type": "Feature", "properties": {"@id": "node/12002351065", "amenity": "bench", "backrest": "yes", "check_date": "2024-06-23"}, "geometry": {"type": "Point", "coordinates": [-3.5878599, 54.5479819]}, "id": "node/12002351065"}, {"type": "Feature", "properties": {"@id": "node/12002372394", "amenity": "bench", "backrest": "yes", "check_date": "2024-06-23"}, "geometry": {"type": "Point", "coordinates": [-3.5877466, 54.5479877]}, "id": "node/12002372394"}, {"type": "Feature", "properties": {"@id": "node/12002373331", "amenity": "bench", "backrest": "yes", "check_date": "2024-06-23"}, "geometry": {"type": "Point", "coordinates": [-3.5878084, 54.5480249]}, "id": "node/12002373331"}, {"type": "Feature", "properties": {"@id": "node/12002386081", "amenity": "bench", "backrest": "yes", "check_date": "2024-06-23"}, "geometry": {"type": "Point", "coordinates": [-3.5878415, 54.5480009]}, "id": "node/12002386081"}, {"type": "Feature", "properties": {"@id": "node/12101484189", "amenity": "bench"}, "geometry": {"type": "Point", "coordinates": [-3.8135983, 54.8761861]}, "id": "node/12101484189"}, {"type": "Feature", "properties": {"@id": "node/12101484190", "amenity": "bench"}, "geometry": {"type": "Point", "coordinates": [-3.8136198, 54.8764022]}, "id": "node/12101484190"}, {"type": "Feature", "properties": {"@id": "node/12101484191", "amenity": "bench"}, "geometry": {"type": "Point", "coordinates": [-3.8136171, 54.8763798]}, "id": "node/12101484191"}, {"type": "Feature", "properties": {"@id": "node/12101484192", "amenity": "bench"}, "geometry": {"type": "Point", "coordinates": [-3.8136171, 54.8763559]}, "id": "node/12101484192"}, {"type": "Feature", "properties": {"@id": "node/12101484193", "amenity": "bench"}, "geometry": {"type": "Point", "coordinates": [-3.8136144, 54.8763204]}, "id": "node/12101484193"}, {"type": "Feature", "properties": {"@id": "node/12101484194", "amenity": "bench"}, "geometry": {"type": "Point", "coordinates": [-3.813609, 54.8762695]}, "id": "node/12101484194"}, {"type": "Feature", "properties": {"@id": "node/12101484195", "amenity": "bench"}, "geometry": {"type": "Point", "coordinates": [-3.8136037, 54.8762347]}, "id": "node/12101484195"}, {"type": "Feature", "properties": {"@id": "node/12101504952", "amenity": "bench"}, "geometry": {"type": "Point", "coordinates": [-3.7739915, 54.8819426]}, "id": "node/12101504952"}, {"type": "Feature", "properties": {"@id": "node/12115027748", "amenity": "bench"}, "geometry": {"type": "Point", "coordinates": [-3.5916168, 54.5489424]}, "id": "node/12115027748"}, {"type": "Feature", "properties": {"@id": "node/12115030252", "amenity": "bench"}, "geometry": {"type": "Point", "coordinates": [-3.5929124, 54.5481757]}, "id": "node/12115030252"}, {"type": "Feature", "properties": {"@id": "node/12115052492", "amenity": "bench"}, "geometry": {"type": "Point", "coordinates": [-3.5919541, 54.5492042]}, "id": "node/12115052492"}, {"type": "Feature", "properties": {"@id": "node/12115055832", "amenity": "bench"}, "geometry": {"type": "Point", "coordinates": [-3.5917655, 54.5490555]}, "id": "node/12115055832"}, {"type": "Feature", "properties": {"@id": "node/12115069991", "amenity": "bench"}, "geometry": {"type": "Point", "coordinates": [-3.5914346, 54.5488092]}, "id": "node/12115069991"}, {"type": "Feature", "properties": {"@id": "node/12115084650", "amenity": "bench"}, "geometry": {"type": "Point", "coordinates": [-3.5932202, 54.5481565]}, "id": "node/12115084650"}, {"type": "Feature", "properties": {"@id": "node/12116945167", "amenity": "bench"}, "geometry": {"type": "Point", "coordinates": [-3.5283876, 54.4820774]}, "id": "node/12116945167"}, {"type": "Feature", "properties": {"@id": "node/12116945447", "amenity": "bench"}, "geometry": {"type": "Point", "coordinates": [-3.5283781, 54.4821151]}, "id": "node/12116945447"}, {"type": "Feature", "properties": {"@id": "node/12118112910", "amenity": "bench"}, "geometry": {"type": "Point", "coordinates": [-3.5739521, 54.5711493]}, "id": "node/12118112910"}, {"type": "Feature", "properties": {"@id": "node/12118115120", "amenity": "bench"}, "geometry": {"type": "Point", "coordinates": [-3.5744298, 54.5801834]}, "id": "node/12118115120"}, {"type": "Feature", "properties": {"@id": "node/12118122910", "amenity": "bench"}, "geometry": {"type": "Point", "coordinates": [-3.5746758, 54.5769753]}, "id": "node/12118122910"}, {"type": "Feature", "properties": {"@id": "node/12118123075", "amenity": "bench"}, "geometry": {"type": "Point", "coordinates": [-3.5739893, 54.5711223]}, "id": "node/12118123075"}, {"type": "Feature", "properties": {"@id": "node/12120270833", "amenity": "bench"}, "geometry": {"type": "Point", "coordinates": [-3.5811849, 54.5670976]}, "id": "node/12120270833"}, {"type": "Feature", "properties": {"@id": "node/12120317519", "amenity": "bench"}, "geometry": {"type": "Point", "coordinates": [-3.5807618, 54.5670085]}, "id": "node/12120317519"}, {"type": "Feature", "properties": {"@id": "node/12416470384", "amenity": "bench", "backrest": "yes"}, "geometry": {"type": "Point", "coordinates": [-3.5941398, 54.4929116]}, "id": "node/12416470384"}, {"type": "Feature", "properties": {"@id": "node/12416470386", "amenity": "bench", "backrest": "yes"}, "geometry": {"type": "Point", "coordinates": [-3.5911429, 54.4922631]}, "id": "node/12416470386"}, {"type": "Feature", "properties": {"@id": "node/12416497859", "amenity": "bench", "backrest": "yes"}, "geometry": {"type": "Point", "coordinates": [-3.5956697, 54.4917117]}, "id": "node/12416497859"}, {"type": "Feature", "properties": {"@id": "node/12416502391", "amenity": "bench", "backrest": "yes"}, "geometry": {"type": "Point", "coordinates": [-3.5979413, 54.4919062]}, "id": "node/12416502391"}, {"type": "Feature", "properties": {"@id": "node/12416515428", "amenity": "bench", "backrest": "yes"}, "geometry": {"type": "Point", "coordinates": [-3.5913174, 54.4923739]}, "id": "node/12416515428"}, {"type": "Feature", "properties": {"@id": "node/12416516030", "amenity": "bench", "backrest": "yes"}, "geometry": {"type": "Point", "coordinates": [-3.5911799, 54.4923018]}, "id": "node/12416516030"}, {"type": "Feature", "properties": {"@id": "node/12416516031", "amenity": "bench", "backrest": "yes"}, "geometry": {"type": "Point", "coordinates": [-3.5913399, 54.4922804]}, "id": "node/12416516031"}, {"type": "Feature", "properties": {"@id": "node/12416524620", "amenity": "bench", "backrest": "yes"}, "geometry": {"type": "Point", "coordinates": [-3.5911278, 54.4923591]}, "id": "node/12416524620"}, {"type": "Feature", "properties": {"@id": "node/12416529425", "amenity": "bench", "backrest": "yes"}, "geometry": {"type": "Point", "coordinates": [-3.5913177, 54.4923518]}, "id": "node/12416529425"}, {"type": "Feature", "properties": {"@id": "node/12416547331", "amenity": "bench", "backrest": "yes"}, "geometry": {"type": "Point", "coordinates": [-3.5911036, 54.4924676]}, "id": "node/12416547331"}, {"type": "Feature", "properties": {"@id": "node/12747211745", "amenity": "bench"}, "geometry": {"type": "Point", "coordinates": [-3.7289417, 54.8752563]}, "id": "node/12747211745"}, {"type": "Feature", "properties": {"@id": "node/12755508607", "amenity": "bench", "armrest": "no", "backrest": "yes", "material": "wood", "seats": "2"}, "geometry": {"type": "Point", "coordinates": [-3.8202067, 54.9352504]}, "id": "node/12755508607"}, {"type": "Feature", "properties": {"@id": "node/12755508608", "amenity": "bench", "armrest": "no", "backrest": "yes", "material": "wood", "seats": "2"}, "geometry": {"type": "Point", "coordinates": [-3.8204151, 54.9351891]}, "id": "node/12755508608"}, {"type": "Feature", "properties": {"@id": "node/12755508609", "amenity": "bench", "armrest": "yes", "backrest": "yes", "material": "wood", "seats": "2"}, "geometry": {"type": "Point", "coordinates": [-3.8205289, 54.9351161]}, "id": "node/12755508609"}, {"type": "Feature", "properties": {"@id": "node/12755508610", "amenity": "bench", "armrest": "yes", "backrest": "yes", "material": "wood", "seats": "2"}, "geometry": {"type": "Point", "coordinates": [-3.8208125, 54.9349397]}, "id": "node/12755508610"}]}