{"type": "FeatureCollection", "features": [{"type": "Feature", "properties": {"@id": "node/281563704", "amenity": "bench", "backrest": "no"}, "geometry": {"type": "Point", "coordinates": [-4.2344496, 57.4614268]}, "id": "node/281563704"}, {"type": "Feature", "properties": {"@id": "node/288167932", "amenity": "bench"}, "geometry": {"type": "Point", "coordinates": [-4.0577979, 57.9236534]}, "id": "node/288167932"}, {"type": "Feature", "properties": {"@id": "node/474805552", "amenity": "bench", "backrest": "yes"}, "geometry": {"type": "Point", "coordinates": [-3.8651422, 57.5845151]}, "id": "node/474805552"}, {"type": "Feature", "properties": {"@id": "node/492466225", "amenity": "bench", "source": "survey"}, "geometry": {"type": "Point", "coordinates": [-4.5941294, 57.5839087]}, "id": "node/492466225"}, {"type": "Feature", "properties": {"@id": "node/797091818", "amenity": "bench", "backrest": "yes", "colour": "silver", "inscription": "In memory of Jock Dyce who loves to fish this river 1926-2003", "material": "metal", "memorial": "plaque", "seats": "2"}, "geometry": {"type": "Point", "coordinates": [-4.2441275, 57.4596262]}, "id": "node/797091818"}, {"type": "Feature", "properties": {"@id": "node/797095861", "amenity": "bench", "backrest": "yes", "colour": "black", "material": "metal", "seats": "3"}, "geometry": {"type": "Point", "coordinates": [-4.2380375, 57.4600182]}, "id": "node/797095861"}, {"type": "Feature", "properties": {"@id": "node/932356436", "amenity": "bench", "backrest": "yes", "material": "wood"}, "geometry": {"type": "Point", "coordinates": [-4.4777653, 57.4034372]}, "id": "node/932356436"}, {"type": "Feature", "properties": {"@id": "node/1030057538", "amenity": "bench", "backrest": "yes", "check_date": "2021-06-27", "description": "Kiltarlity Community Council. This seat is donated by Cameron & Mackinnon. For the benefit of all senior citizens to rest their weary legs. 2010", "material": "wood"}, "geometry": {"type": "Point", "coordinates": [-4.4917408, 57.4371254]}, "id": "node/1030057538"}, {"type": "Feature", "properties": {"@id": "node/1034404905", "amenity": "bench", "backrest": "yes"}, "geometry": {"type": "Point", "coordinates": [-4.4904766, 57.4393823]}, "id": "node/1034404905"}, {"type": "Feature", "properties": {"@id": "node/1210236360", "amenity": "bench", "backrest": "yes"}, "geometry": {"type": "Point", "coordinates": [-4.2258952, 57.476411]}, "id": "node/1210236360"}, {"type": "Feature", "properties": {"@id": "node/1319636310", "amenity": "bench"}, "geometry": {"type": "Point", "coordinates": [-3.8698311, 57.584148]}, "id": "node/1319636310"}, {"type": "Feature", "properties": {"@id": "node/1319636318", "amenity": "bench"}, "geometry": {"type": "Point", "coordinates": [-3.8710703, 57.5833335]}, "id": "node/1319636318"}, {"type": "Feature", "properties": {"@id": "node/1319636320", "amenity": "bench"}, "geometry": {"type": "Point", "coordinates": [-3.8697721, 57.5841581]}, "id": "node/1319636320"}, {"type": "Feature", "properties": {"@id": "node/1319636321", "amenity": "bench"}, "geometry": {"type": "Point", "coordinates": [-3.8711467, 57.5832472]}, "id": "node/1319636321"}, {"type": "Feature", "properties": {"@id": "node/1319636331", "amenity": "bench"}, "geometry": {"type": "Point", "coordinates": [-3.8698968, 57.5841401]}, "id": "node/1319636331"}, {"type": "Feature", "properties": {"@id": "node/1319636332", "amenity": "bench"}, "geometry": {"type": "Point", "coordinates": [-3.8711212, 57.583276]}, "id": "node/1319636332"}, {"type": "Feature", "properties": {"@id": "node/1319636334", "amenity": "bench"}, "geometry": {"type": "Point", "coordinates": [-3.8710957, 57.5833061]}, "id": "node/1319636334"}, {"type": "Feature", "properties": {"@id": "node/1551786644", "amenity": "bench", "backrest": "yes"}, "geometry": {"type": "Point", "coordinates": [-4.2252741, 57.4751796]}, "id": "node/1551786644"}, {"type": "Feature", "properties": {"@id": "node/1695344737", "amenity": "bench", "backrest": "yes", "material": "wood", "name": "The Gruffalo's Child", "tourism": "artwork"}, "geometry": {"type": "Point", "coordinates": [-4.1402988, 57.4867509]}, "id": "node/1695344737"}, {"type": "Feature", "properties": {"@id": "node/1806321818", "amenity": "bench"}, "geometry": {"type": "Point", "coordinates": [-4.5437257, 57.9728687]}, "id": "node/1806321818"}, {"type": "Feature", "properties": {"@id": "node/1806321875", "amenity": "bench", "tourism": "picnic_site"}, "geometry": {"type": "Point", "coordinates": [-4.5391175, 57.9749774]}, "id": "node/1806321875"}, {"type": "Feature", "properties": {"@id": "node/1880546472", "amenity": "bench"}, "geometry": {"type": "Point", "coordinates": [-4.1561881, 57.9890366]}, "id": "node/1880546472"}, {"type": "Feature", "properties": {"@id": "node/2095323575", "amenity": "bench"}, "geometry": {"type": "Point", "coordinates": [-4.5393357, 57.5803342]}, "id": "node/2095323575"}, {"type": "Feature", "properties": {"@id": "node/2243008660", "amenity": "bench", "backrest": "yes", "material": "wood"}, "geometry": {"type": "Point", "coordinates": [-4.5405739, 57.5988929]}, "id": "node/2243008660"}, {"type": "Feature", "properties": {"@id": "node/2286217967", "amenity": "bench", "backrest": "yes", "mapillary": "787070918479528", "survey:date": "2018-02-23"}, "geometry": {"type": "Point", "coordinates": [-4.2448974, 57.5008919]}, "id": "node/2286217967"}, {"type": "Feature", "properties": {"@id": "node/2286218318", "amenity": "bench"}, "geometry": {"type": "Point", "coordinates": [-4.2503261, 57.5017809]}, "id": "node/2286218318"}, {"type": "Feature", "properties": {"@id": "node/2286218319", "amenity": "bench", "backrest": "yes", "mapillary": "836667517233262", "survey:date": "2018-02-23"}, "geometry": {"type": "Point", "coordinates": [-4.2518846, 57.5019944]}, "id": "node/2286218319"}, {"type": "Feature", "properties": {"@id": "node/2286220475", "amenity": "bench"}, "geometry": {"type": "Point", "coordinates": [-4.2542691, 57.5022076]}, "id": "node/2286220475"}, {"type": "Feature", "properties": {"@id": "node/2327717993", "amenity": "bench"}, "geometry": {"type": "Point", "coordinates": [-4.1113652, 57.8033149]}, "id": "node/2327717993"}, {"type": "Feature", "properties": {"@id": "node/2369651486", "amenity": "bench"}, "geometry": {"type": "Point", "coordinates": [-3.9624707, 57.9806985]}, "id": "node/2369651486"}, {"type": "Feature", "properties": {"@id": "node/2369671318", "amenity": "bench"}, "geometry": {"type": "Point", "coordinates": [-3.9620591, 57.9816266]}, "id": "node/2369671318"}, {"type": "Feature", "properties": {"@id": "node/2369687580", "amenity": "bench"}, "geometry": {"type": "Point", "coordinates": [-3.9655233, 57.9840509]}, "id": "node/2369687580"}, {"type": "Feature", "properties": {"@id": "node/2374190849", "amenity": "bench", "source": "Ground survey"}, "geometry": {"type": "Point", "coordinates": [-3.9635379, 57.9827743]}, "id": "node/2374190849"}, {"type": "Feature", "properties": {"@id": "node/2374219098", "amenity": "bench"}, "geometry": {"type": "Point", "coordinates": [-3.9699374, 57.9858102]}, "id": "node/2374219098"}, {"type": "Feature", "properties": {"@id": "node/2375606143", "amenity": "bench"}, "geometry": {"type": "Point", "coordinates": [-3.9737357, 57.9874314]}, "id": "node/2375606143"}, {"type": "Feature", "properties": {"@id": "node/2375606146", "amenity": "bench"}, "geometry": {"type": "Point", "coordinates": [-3.9755808, 57.9885133]}, "id": "node/2375606146"}, {"type": "Feature", "properties": {"@id": "node/2375606155", "amenity": "bench"}, "geometry": {"type": "Point", "coordinates": [-3.974729, 57.9884185]}, "id": "node/2375606155"}, {"type": "Feature", "properties": {"@id": "node/2375606176", "amenity": "bench"}, "geometry": {"type": "Point", "coordinates": [-3.9758919, 57.9890152]}, "id": "node/2375606176"}, {"type": "Feature", "properties": {"@id": "node/2375606194", "amenity": "bench"}, "geometry": {"type": "Point", "coordinates": [-3.975342, 57.9885872]}, "id": "node/2375606194"}, {"type": "Feature", "properties": {"@id": "node/2408268363", "amenity": "bench"}, "geometry": {"type": "Point", "coordinates": [-4.07394, 57.7571036]}, "id": "node/2408268363"}, {"type": "Feature", "properties": {"@id": "node/2408280128", "amenity": "bench"}, "geometry": {"type": "Point", "coordinates": [-4.0722376, 57.7577818]}, "id": "node/2408280128"}, {"type": "Feature", "properties": {"@id": "node/2408293872", "amenity": "bench"}, "geometry": {"type": "Point", "coordinates": [-4.0722478, 57.7585576]}, "id": "node/2408293872"}, {"type": "Feature", "properties": {"@id": "node/2408293881", "amenity": "bench"}, "geometry": {"type": "Point", "coordinates": [-4.0730941, 57.7586048]}, "id": "node/2408293881"}, {"type": "Feature", "properties": {"@id": "node/2408293949", "amenity": "bench"}, "geometry": {"type": "Point", "coordinates": [-4.0743038, 57.7591779]}, "id": "node/2408293949"}, {"type": "Feature", "properties": {"@id": "node/2408293958", "amenity": "bench"}, "geometry": {"type": "Point", "coordinates": [-4.0769256, 57.7584904]}, "id": "node/2408293958"}, {"type": "Feature", "properties": {"@id": "node/2408293964", "amenity": "bench"}, "geometry": {"type": "Point", "coordinates": [-4.0758071, 57.7589919]}, "id": "node/2408293964"}, {"type": "Feature", "properties": {"@id": "node/2408295336", "amenity": "bench"}, "geometry": {"type": "Point", "coordinates": [-4.0712635, 57.7584495]}, "id": "node/2408295336"}, {"type": "Feature", "properties": {"@id": "node/2408295342", "amenity": "bench"}, "geometry": {"type": "Point", "coordinates": [-4.0713165, 57.7580614]}, "id": "node/2408295342"}, {"type": "Feature", "properties": {"@id": "node/2409270707", "amenity": "bench"}, "geometry": {"type": "Point", "coordinates": [-4.0714269, 57.7579839]}, "id": "node/2409270707"}, {"type": "Feature", "properties": {"@id": "node/2409281860", "amenity": "bench"}, "geometry": {"type": "Point", "coordinates": [-4.071895, 57.7579323]}, "id": "node/2409281860"}, {"type": "Feature", "properties": {"@id": "node/2451939790", "amenity": "bench"}, "geometry": {"type": "Point", "coordinates": [-4.3311687, 57.6049083]}, "id": "node/2451939790"}, {"type": "Feature", "properties": {"@id": "node/2502254815", "amenity": "bench", "source": "Ground survey"}, "geometry": {"type": "Point", "coordinates": [-4.0654423, 57.7400119]}, "id": "node/2502254815"}, {"type": "Feature", "properties": {"@id": "node/2502254842", "amenity": "bench", "source": "Ground survey"}, "geometry": {"type": "Point", "coordinates": [-4.065703, 57.7408967]}, "id": "node/2502254842"}, {"type": "Feature", "properties": {"@id": "node/2613195760", "amenity": "bench"}, "geometry": {"type": "Point", "coordinates": [-3.7032239, 57.631623]}, "id": "node/2613195760"}, {"type": "Feature", "properties": {"@id": "node/2613196205", "amenity": "bench"}, "geometry": {"type": "Point", "coordinates": [-3.7139634, 57.6294058]}, "id": "node/2613196205"}, {"type": "Feature", "properties": {"@id": "node/2619208435", "amenity": "bench", "source": "Ground survey"}, "geometry": {"type": "Point", "coordinates": [-4.0713495, 57.7437639]}, "id": "node/2619208435"}, {"type": "Feature", "properties": {"@id": "node/2742403217", "amenity": "bench", "source": "Ground survey"}, "geometry": {"type": "Point", "coordinates": [-4.4401562, 57.5634669]}, "id": "node/2742403217"}, {"type": "Feature", "properties": {"@id": "node/2910098138", "amenity": "bench"}, "geometry": {"type": "Point", "coordinates": [-4.1767511, 57.5594577]}, "id": "node/2910098138"}, {"type": "Feature", "properties": {"@id": "node/2910098139", "amenity": "bench", "source": "gps survey"}, "geometry": {"type": "Point", "coordinates": [-4.1767538, 57.5594477]}, "id": "node/2910098139"}, {"type": "Feature", "properties": {"@id": "node/2910098142", "amenity": "bench", "source": "gps survey"}, "geometry": {"type": "Point", "coordinates": [-4.1705116, 57.5661886]}, "id": "node/2910098142"}, {"type": "Feature", "properties": {"@id": "node/2910098143", "amenity": "bench", "source": "gps survey"}, "geometry": {"type": "Point", "coordinates": [-4.1704486, 57.566231]}, "id": "node/2910098143"}, {"type": "Feature", "properties": {"@id": "node/2910098144", "amenity": "bench", "source": "gps survey"}, "geometry": {"type": "Point", "coordinates": [-4.1700141, 57.5664453]}, "id": "node/2910098144"}, {"type": "Feature", "properties": {"@id": "node/2910098145", "amenity": "bench", "source": "gps survey"}, "geometry": {"type": "Point", "coordinates": [-4.1698918, 57.5667648]}, "id": "node/2910098145"}, {"type": "Feature", "properties": {"@id": "node/2929998262", "amenity": "bench", "backrest": "yes", "material": "wood", "source": "local survey"}, "geometry": {"type": "Point", "coordinates": [-4.113012, 57.5936814]}, "id": "node/2929998262"}, {"type": "Feature", "properties": {"@id": "node/2929998263", "amenity": "bench", "backrest": "yes", "material": "wood", "source": "local survey"}, "geometry": {"type": "Point", "coordinates": [-4.1130871, 57.5936799]}, "id": "node/2929998263"}, {"type": "Feature", "properties": {"@id": "node/2930080946", "amenity": "bench", "backrest": "yes", "material": "wood", "source": "ground survey"}, "geometry": {"type": "Point", "coordinates": [-4.1130757, 57.5935118]}, "id": "node/2930080946"}, {"type": "Feature", "properties": {"@id": "node/2930080961", "amenity": "bench", "backrest": "yes", "source": "ground survey"}, "geometry": {"type": "Point", "coordinates": [-4.1127139, 57.5926723]}, "id": "node/2930080961"}, {"type": "Feature", "properties": {"@id": "node/2930080982", "amenity": "bench", "backrest": "yes", "source": "ground survey"}, "geometry": {"type": "Point", "coordinates": [-4.1128347, 57.5927666]}, "id": "node/2930080982"}, {"type": "Feature", "properties": {"@id": "node/2930080983", "amenity": "bench", "backrest": "yes", "source": "ground survey"}, "geometry": {"type": "Point", "coordinates": [-4.1128575, 57.5928989]}, "id": "node/2930080983"}, {"type": "Feature", "properties": {"@id": "node/2930080987", "amenity": "bench", "backrest": "yes", "source": "ground survey"}, "geometry": {"type": "Point", "coordinates": [-4.1129346, 57.5931975]}, "id": "node/2930080987"}, {"type": "Feature", "properties": {"@id": "node/2930080988", "amenity": "bench", "backrest": "yes"}, "geometry": {"type": "Point", "coordinates": [-4.1129413, 57.5932967]}, "id": "node/2930080988"}, {"type": "Feature", "properties": {"@id": "node/2930081710", "amenity": "bench", "backrest": "yes", "source": "ground survey"}, "geometry": {"type": "Point", "coordinates": [-4.1129523, 57.5935144]}, "id": "node/2930081710"}, {"type": "Feature", "properties": {"@id": "node/3185390085", "amenity": "bench", "backrest": "no"}, "geometry": {"type": "Point", "coordinates": [-3.5916747, 57.6520411]}, "id": "node/3185390085"}, {"type": "Feature", "properties": {"@id": "node/3185390095", "amenity": "bench", "backrest": "no"}, "geometry": {"type": "Point", "coordinates": [-3.5913758, 57.6523609]}, "id": "node/3185390095"}, {"type": "Feature", "properties": {"@id": "node/3185390096", "amenity": "bench", "backrest": "yes"}, "geometry": {"type": "Point", "coordinates": [-3.5918008, 57.6524366]}, "id": "node/3185390096"}, {"type": "Feature", "properties": {"@id": "node/3185390120", "amenity": "bench", "backrest": "yes"}, "geometry": {"type": "Point", "coordinates": [-3.5922877, 57.6530824]}, "id": "node/3185390120"}, {"type": "Feature", "properties": {"@id": "node/3185390136", "amenity": "bench", "backrest": "no"}, "geometry": {"type": "Point", "coordinates": [-3.5889112, 57.6534172]}, "id": "node/3185390136"}, {"type": "Feature", "properties": {"@id": "node/3187584081", "amenity": "bench", "backrest": "yes"}, "geometry": {"type": "Point", "coordinates": [-3.612217, 57.6592079]}, "id": "node/3187584081"}, {"type": "Feature", "properties": {"@id": "node/3187584085", "amenity": "bench", "backrest": "yes"}, "geometry": {"type": "Point", "coordinates": [-3.6111196, 57.6599628]}, "id": "node/3187584085"}, {"type": "Feature", "properties": {"@id": "node/3688187271", "amenity": "bench", "backrest": "yes", "colour": "green", "material": "wood"}, "geometry": {"type": "Point", "coordinates": [-3.8112828, 57.577494]}, "id": "node/3688187271"}, {"type": "Feature", "properties": {"@id": "node/3688187274", "amenity": "bench", "backrest": "yes", "colour": "green", "material": "wood"}, "geometry": {"type": "Point", "coordinates": [-3.8112836, 57.577534]}, "id": "node/3688187274"}, {"type": "Feature", "properties": {"@id": "node/3707175210", "amenity": "bench"}, "geometry": {"type": "Point", "coordinates": [-3.8241704, 57.8352198]}, "id": "node/3707175210"}, {"type": "Feature", "properties": {"@id": "node/4187916868", "amenity": "bench", "material": "wood", "seats": "3"}, "geometry": {"type": "Point", "coordinates": [-4.1006276, 57.4747]}, "id": "node/4187916868"}, {"type": "Feature", "properties": {"@id": "node/4187916937", "amenity": "bench", "material": "wood", "seats": "3"}, "geometry": {"type": "Point", "coordinates": [-4.0974458, 57.4776595]}, "id": "node/4187916937"}, {"type": "Feature", "properties": {"@id": "node/4264711272", "amenity": "bench", "backrest": "yes", "direction": "90"}, "geometry": {"type": "Point", "coordinates": [-4.2278285, 57.4755948]}, "id": "node/4264711272"}, {"type": "Feature", "properties": {"@id": "node/4264711273", "amenity": "bench", "backrest": "yes", "check_date": "2024-09-11", "direction": "90", "mapillary": "664727267667330"}, "geometry": {"type": "Point", "coordinates": [-4.2278401, 57.4754081]}, "id": "node/4264711273"}, {"type": "Feature", "properties": {"@id": "node/4264711274", "amenity": "bench", "backrest": "yes"}, "geometry": {"type": "Point", "coordinates": [-4.233136, 57.4842203]}, "id": "node/4264711274"}, {"type": "Feature", "properties": {"@id": "node/4264711309", "amenity": "bench", "backrest": "yes", "direction": "90"}, "geometry": {"type": "Point", "coordinates": [-4.2278585, 57.4752301]}, "id": "node/4264711309"}, {"type": "Feature", "properties": {"@id": "node/4280004038", "amenity": "bench", "backrest": "yes"}, "geometry": {"type": "Point", "coordinates": [-3.9024534, 58.3538679]}, "id": "node/4280004038"}, {"type": "Feature", "properties": {"@id": "node/4445371804", "amenity": "bench", "backrest": "yes", "source": "survey"}, "geometry": {"type": "Point", "coordinates": [-4.4071428, 57.5926629]}, "id": "node/4445371804"}, {"type": "Feature", "properties": {"@id": "node/4559254471", "amenity": "bench", "backrest": "yes"}, "geometry": {"type": "Point", "coordinates": [-3.6010393, 57.611417]}, "id": "node/4559254471"}, {"type": "Feature", "properties": {"@id": "node/4715942444", "amenity": "bench"}, "geometry": {"type": "Point", "coordinates": [-3.8684958, 57.5848338]}, "id": "node/4715942444"}, {"type": "Feature", "properties": {"@id": "node/4715942459", "amenity": "bench"}, "geometry": {"type": "Point", "coordinates": [-3.8683321, 57.5849273]}, "id": "node/4715942459"}, {"type": "Feature", "properties": {"@id": "node/4869790763", "amenity": "bench", "backrest": "yes"}, "geometry": {"type": "Point", "coordinates": [-4.0921541, 57.5742222]}, "id": "node/4869790763"}, {"type": "Feature", "properties": {"@id": "node/4869790764", "amenity": "bench", "backrest": "yes"}, "geometry": {"type": "Point", "coordinates": [-4.0923405, 57.5742266]}, "id": "node/4869790764"}, {"type": "Feature", "properties": {"@id": "node/4869790765", "amenity": "bench", "backrest": "yes"}, "geometry": {"type": "Point", "coordinates": [-4.0921769, 57.5741554]}, "id": "node/4869790765"}, {"type": "Feature", "properties": {"@id": "node/4869790804", "amenity": "bench", "backrest": "yes", "check_date": "2024-09-05"}, "geometry": {"type": "Point", "coordinates": [-4.0939981, 57.5735215]}, "id": "node/4869790804"}, {"type": "Feature", "properties": {"@id": "node/4869790805", "amenity": "bench", "backrest": "yes", "check_date": "2024-09-05"}, "geometry": {"type": "Point", "coordinates": [-4.0942637, 57.5735085]}, "id": "node/4869790805"}, {"type": "Feature", "properties": {"@id": "node/4869790806", "amenity": "bench", "backrest": "yes", "check_date": "2024-09-05"}, "geometry": {"type": "Point", "coordinates": [-4.094096, 57.5734381]}, "id": "node/4869790806"}, {"type": "Feature", "properties": {"@id": "node/4972058549", "amenity": "bench", "backrest": "yes", "check_date": "2023-07-29", "material": "wood"}, "geometry": {"type": "Point", "coordinates": [-4.4007674, 58.025727]}, "id": "node/4972058549"}, {"type": "Feature", "properties": {"@id": "node/4972058550", "amenity": "bench", "backrest": "yes", "check_date": "2023-07-29", "material": "wood"}, "geometry": {"type": "Point", "coordinates": [-4.401108, 58.0254813]}, "id": "node/4972058550"}, {"type": "Feature", "properties": {"@id": "node/4972058551", "amenity": "bench", "backrest": "yes", "check_date": "2023-07-29", "material": "wood"}, "geometry": {"type": "Point", "coordinates": [-4.4012046, 58.0253009]}, "id": "node/4972058551"}, {"type": "Feature", "properties": {"@id": "node/4972058553", "amenity": "bench", "backrest": "yes", "check_date": "2023-07-29", "material": "wood"}, "geometry": {"type": "Point", "coordinates": [-4.4013175, 58.0251018]}, "id": "node/4972058553"}, {"type": "Feature", "properties": {"@id": "node/4972058554", "amenity": "bench", "backrest": "yes", "material": "wood"}, "geometry": {"type": "Point", "coordinates": [-4.4014703, 58.0252608]}, "id": "node/4972058554"}, {"type": "Feature", "properties": {"@id": "node/5104037673", "amenity": "bench", "backrest": "yes", "seats": "2"}, "geometry": {"type": "Point", "coordinates": [-4.0393236, 57.5639156]}, "id": "node/5104037673"}, {"type": "Feature", "properties": {"@id": "node/5104037674", "amenity": "bench", "backrest": "yes", "material": "wood", "seats": "2"}, "geometry": {"type": "Point", "coordinates": [-4.0380774, 57.5682347]}, "id": "node/5104037674"}, {"type": "Feature", "properties": {"@id": "node/5259997022", "amenity": "bench", "backrest": "no", "bench": "yes", "description": "Curvey wooden bench. The bench is carved from a tree trunk with a view overlooking the river Ness.", "material": "wood", "seats": "4"}, "geometry": {"type": "Point", "coordinates": [-4.2328119, 57.4629728]}, "id": "node/5259997022"}, {"type": "Feature", "properties": {"@id": "node/5356663328", "amenity": "bench", "description": "memorial bench", "name": "Memorial Bench"}, "geometry": {"type": "Point", "coordinates": [-4.2269941, 57.4699552]}, "id": "node/5356663328"}, {"type": "Feature", "properties": {"@id": "node/5356665729", "amenity": "bench", "description": "Memorial Bench", "name": "Memorial Bench"}, "geometry": {"type": "Point", "coordinates": [-4.2270177, 57.4697191]}, "id": "node/5356665729"}, {"type": "Feature", "properties": {"@id": "node/5581198223", "amenity": "bench"}, "geometry": {"type": "Point", "coordinates": [-4.3447293, 57.5510159]}, "id": "node/5581198223"}, {"type": "Feature", "properties": {"@id": "node/5581198224", "amenity": "bench"}, "geometry": {"type": "Point", "coordinates": [-4.3579111, 57.5446882]}, "id": "node/5581198224"}, {"type": "Feature", "properties": {"@id": "node/5605162671", "amenity": "bench", "backrest": "yes", "direction": "NE", "material": "metal"}, "geometry": {"type": "Point", "coordinates": [-4.035089, 57.6834491]}, "id": "node/5605162671"}, {"type": "Feature", "properties": {"@id": "node/5605163579", "amenity": "bench", "backrest": "yes"}, "geometry": {"type": "Point", "coordinates": [-4.0008366, 57.6780945]}, "id": "node/5605163579"}, {"type": "Feature", "properties": {"@id": "node/5633356506", "amenity": "bench"}, "geometry": {"type": "Point", "coordinates": [-4.0704882, 57.9246757]}, "id": "node/5633356506"}, {"type": "Feature", "properties": {"@id": "node/5641188880", "amenity": "bench", "backrest": "yes"}, "geometry": {"type": "Point", "coordinates": [-3.6547083, 58.1173388]}, "id": "node/5641188880"}, {"type": "Feature", "properties": {"@id": "node/5641189561", "amenity": "bench"}, "geometry": {"type": "Point", "coordinates": [-3.6562666, 58.1196919]}, "id": "node/5641189561"}, {"type": "Feature", "properties": {"@id": "node/5730752607", "amenity": "bench"}, "geometry": {"type": "Point", "coordinates": [-3.6651528, 57.6609629]}, "id": "node/5730752607"}, {"type": "Feature", "properties": {"@id": "node/5760753720", "amenity": "bench"}, "geometry": {"type": "Point", "coordinates": [-3.9260246, 57.5246307]}, "id": "node/5760753720"}, {"type": "Feature", "properties": {"@id": "node/6154112851", "amenity": "bench"}, "geometry": {"type": "Point", "coordinates": [-3.9838149, 57.9725857]}, "id": "node/6154112851"}, {"type": "Feature", "properties": {"@id": "node/6154621581", "amenity": "bench", "backrest": "yes"}, "geometry": {"type": "Point", "coordinates": [-3.5185179, 58.5955333]}, "id": "node/6154621581"}, {"type": "Feature", "properties": {"@id": "node/6154622092", "amenity": "bench", "backrest": "yes"}, "geometry": {"type": "Point", "coordinates": [-3.5184616, 58.5955752]}, "id": "node/6154622092"}, {"type": "Feature", "properties": {"@id": "node/6189856279", "amenity": "bench"}, "geometry": {"type": "Point", "coordinates": [-3.6507661, 57.5684615]}, "id": "node/6189856279"}, {"type": "Feature", "properties": {"@id": "node/6200187800", "amenity": "bench", "backrest": "yes"}, "geometry": {"type": "Point", "coordinates": [-3.6126633, 57.6101505]}, "id": "node/6200187800"}, {"type": "Feature", "properties": {"@id": "node/6200187802", "amenity": "bench"}, "geometry": {"type": "Point", "coordinates": [-3.6132721, 57.6098499]}, "id": "node/6200187802"}, {"type": "Feature", "properties": {"@id": "node/6200187804", "amenity": "bench", "backrest": "yes"}, "geometry": {"type": "Point", "coordinates": [-3.6126137, 57.6101182]}, "id": "node/6200187804"}, {"type": "Feature", "properties": {"@id": "node/6202292719", "amenity": "bench", "material": "wood"}, "geometry": {"type": "Point", "coordinates": [-4.1785207, 57.729997]}, "id": "node/6202292719"}, {"type": "Feature", "properties": {"@id": "node/6202292720", "amenity": "bench", "material": "wood"}, "geometry": {"type": "Point", "coordinates": [-4.1798898, 57.7314497]}, "id": "node/6202292720"}, {"type": "Feature", "properties": {"@id": "node/6202292721", "amenity": "bench", "material": "wood"}, "geometry": {"type": "Point", "coordinates": [-4.1776608, 57.7339083]}, "id": "node/6202292721"}, {"type": "Feature", "properties": {"@id": "node/6202292722", "amenity": "bench", "material": "wood"}, "geometry": {"type": "Point", "coordinates": [-4.1727073, 57.7352793]}, "id": "node/6202292722"}, {"type": "Feature", "properties": {"@id": "node/6202292723", "amenity": "bench", "material": "wood"}, "geometry": {"type": "Point", "coordinates": [-4.1681663, 57.7354157]}, "id": "node/6202292723"}, {"type": "Feature", "properties": {"@id": "node/6202292724", "amenity": "bench", "material": "wood"}, "geometry": {"type": "Point", "coordinates": [-4.1660151, 57.7342445]}, "id": "node/6202292724"}, {"type": "Feature", "properties": {"@id": "node/6202292725", "amenity": "bench"}, "geometry": {"type": "Point", "coordinates": [-4.1646901, 57.734107]}, "id": "node/6202292725"}, {"type": "Feature", "properties": {"@id": "node/6202292726", "amenity": "bench"}, "geometry": {"type": "Point", "coordinates": [-4.1631344, 57.7347342]}, "id": "node/6202292726"}, {"type": "Feature", "properties": {"@id": "node/6202292727", "amenity": "bench"}, "geometry": {"type": "Point", "coordinates": [-4.1625014, 57.7355732]}, "id": "node/6202292727"}, {"type": "Feature", "properties": {"@id": "node/6202292730", "amenity": "bench"}, "geometry": {"type": "Point", "coordinates": [-4.1762787, 57.735201]}, "id": "node/6202292730"}, {"type": "Feature", "properties": {"@id": "node/6211459817", "amenity": "bench", "backrest": "yes", "material": "wood"}, "geometry": {"type": "Point", "coordinates": [-4.2719733, 57.4664555]}, "id": "node/6211459817"}, {"type": "Feature", "properties": {"@id": "node/6551376661", "amenity": "bench"}, "geometry": {"type": "Point", "coordinates": [-4.0088462, 57.6942272]}, "id": "node/6551376661"}, {"type": "Feature", "properties": {"@id": "node/6708468294", "amenity": "bench", "backrest": "yes", "material": "wood", "seats": "3"}, "geometry": {"type": "Point", "coordinates": [-4.5276339, 57.5837466]}, "id": "node/6708468294"}, {"type": "Feature", "properties": {"@id": "node/6708468310", "amenity": "bench", "seats": "3"}, "geometry": {"type": "Point", "coordinates": [-4.5150258, 57.5938399]}, "id": "node/6708468310"}, {"type": "Feature", "properties": {"@id": "node/6716405130", "amenity": "bench", "backrest": "no", "description": "Stone circle", "material": "stone", "structure": "yes"}, "geometry": {"type": "Point", "coordinates": [-4.1727333, 57.6889396]}, "id": "node/6716405130"}, {"type": "Feature", "properties": {"@id": "node/6718635191", "amenity": "bench", "backrest": "yes", "colour": "brown", "material": "wood", "seats": "6"}, "geometry": {"type": "Point", "coordinates": [-4.1592116, 57.6891962]}, "id": "node/6718635191"}, {"type": "Feature", "properties": {"@id": "node/6718635223", "amenity": "bench", "backrest": "yes", "seats": "2"}, "geometry": {"type": "Point", "coordinates": [-4.1550233, 57.6919414]}, "id": "node/6718635223"}, {"type": "Feature", "properties": {"@id": "node/6732221091", "amenity": "bench"}, "geometry": {"type": "Point", "coordinates": [-4.2933976, 58.4920962]}, "id": "node/6732221091"}, {"type": "Feature", "properties": {"@id": "node/6750187958", "amenity": "bench", "backrest": "yes", "material": "wood", "seats": "2"}, "geometry": {"type": "Point", "coordinates": [-3.9774398, 57.9721119]}, "id": "node/6750187958"}, {"type": "Feature", "properties": {"@id": "node/6750187959", "amenity": "bench", "backrest": "yes", "material": "wood", "seats": "2"}, "geometry": {"type": "Point", "coordinates": [-3.9780437, 57.9718864]}, "id": "node/6750187959"}, {"type": "Feature", "properties": {"@id": "node/6756912248", "amenity": "bench", "backrest": "yes", "material": "wood", "seats": "2"}, "geometry": {"type": "Point", "coordinates": [-4.1819117, 57.6904359]}, "id": "node/6756912248"}, {"type": "Feature", "properties": {"@id": "node/6756912249", "amenity": "bench", "material": "wood", "seats": "2"}, "geometry": {"type": "Point", "coordinates": [-4.1814096, 57.690311]}, "id": "node/6756912249"}, {"type": "Feature", "properties": {"@id": "node/6756912251", "amenity": "bench", "backrest": "yes", "material": "wood", "seats": "2"}, "geometry": {"type": "Point", "coordinates": [-4.1816335, 57.6903491]}, "id": "node/6756912251"}, {"type": "Feature", "properties": {"@id": "node/6756912252", "amenity": "bench", "material": "wood", "seats": "2"}, "geometry": {"type": "Point", "coordinates": [-4.1809066, 57.6901485]}, "id": "node/6756912252"}, {"type": "Feature", "properties": {"@id": "node/6756912253", "amenity": "bench", "backrest": "yes", "material": "metal", "seats": "3"}, "geometry": {"type": "Point", "coordinates": [-4.1813099, 57.6902452]}, "id": "node/6756912253"}, {"type": "Feature", "properties": {"@id": "node/6822229965", "amenity": "bench", "backrest": "yes", "material": "wood"}, "geometry": {"type": "Point", "coordinates": [-4.0275689, 57.8798198]}, "id": "node/6822229965"}, {"type": "Feature", "properties": {"@id": "node/6822229966", "amenity": "bench", "backrest": "yes", "material": "wood"}, "geometry": {"type": "Point", "coordinates": [-4.0275673, 57.8798379]}, "id": "node/6822229966"}, {"type": "Feature", "properties": {"@id": "node/6822229967", "amenity": "bench", "backrest": "no", "material": "wood"}, "geometry": {"type": "Point", "coordinates": [-4.0275641, 57.8798738]}, "id": "node/6822229967"}, {"type": "Feature", "properties": {"@id": "node/6822307625", "amenity": "bench", "backrest": "yes", "colour": "brown", "material": "wood"}, "geometry": {"type": "Point", "coordinates": [-4.0302503, 57.8800172]}, "id": "node/6822307625"}, {"type": "Feature", "properties": {"@id": "node/6822307626", "amenity": "bench", "backrest": "yes", "colour": "brown", "material": "wood"}, "geometry": {"type": "Point", "coordinates": [-4.0300889, 57.879996]}, "id": "node/6822307626"}, {"type": "Feature", "properties": {"@id": "node/6822307627", "amenity": "bench", "backrest": "yes", "colour": "brown", "material": "wood"}, "geometry": {"type": "Point", "coordinates": [-4.02942, 57.8799328]}, "id": "node/6822307627"}, {"type": "Feature", "properties": {"@id": "node/6822307628", "amenity": "bench", "backrest": "yes", "colour": "brown", "material": "wood"}, "geometry": {"type": "Point", "coordinates": [-4.0299316, 57.8799815]}, "id": "node/6822307628"}, {"type": "Feature", "properties": {"@id": "node/6822307629", "amenity": "bench", "backrest": "yes", "colour": "brown", "material": "wood"}, "geometry": {"type": "Point", "coordinates": [-4.0297692, 57.8799628]}, "id": "node/6822307629"}, {"type": "Feature", "properties": {"@id": "node/6825817746", "amenity": "bench", "backrest": "yes", "colour": "black", "material": "metal"}, "geometry": {"type": "Point", "coordinates": [-4.0571107, 57.8133406]}, "id": "node/6825817746"}, {"type": "Feature", "properties": {"@id": "node/6851306314", "amenity": "bench", "backrest": "yes", "material": "metal", "seats": "3"}, "geometry": {"type": "Point", "coordinates": [-4.1783924, 57.6884718]}, "id": "node/6851306314"}, {"type": "Feature", "properties": {"@id": "node/6851306315", "amenity": "bench", "backrest": "yes", "material": "wood", "seats": "3"}, "geometry": {"type": "Point", "coordinates": [-4.1822167, 57.6896323]}, "id": "node/6851306315"}, {"type": "Feature", "properties": {"@id": "node/6851306317", "amenity": "bench", "backrest": "yes", "material": "metal", "seats": "3"}, "geometry": {"type": "Point", "coordinates": [-4.1801905, 57.6891552]}, "id": "node/6851306317"}, {"type": "Feature", "properties": {"@id": "node/6862887686", "amenity": "bench"}, "geometry": {"type": "Point", "coordinates": [-3.8700671, 57.5891561]}, "id": "node/6862887686"}, {"type": "Feature", "properties": {"@id": "node/7017945514", "amenity": "bench", "backrest": "yes", "material": "wood", "seats": "3"}, "geometry": {"type": "Point", "coordinates": [-4.1790743, 57.69779]}, "id": "node/7017945514"}, {"type": "Feature", "properties": {"@id": "node/7017945515", "amenity": "bench", "backrest": "yes", "material": "wood", "seats": "3"}, "geometry": {"type": "Point", "coordinates": [-4.1792038, 57.6977624]}, "id": "node/7017945515"}, {"type": "Feature", "properties": {"@id": "node/7028654256", "amenity": "bench", "backrest": "yes", "material": "stone", "seats": "2"}, "geometry": {"type": "Point", "coordinates": [-4.1601396, 57.6891544]}, "id": "node/7028654256"}, {"type": "Feature", "properties": {"@id": "node/7047766224", "amenity": "bench"}, "geometry": {"type": "Point", "coordinates": [-3.6026654, 57.655912]}, "id": "node/7047766224"}, {"type": "Feature", "properties": {"@id": "node/7078480064", "amenity": "bench"}, "geometry": {"type": "Point", "coordinates": [-3.5936666, 57.607627]}, "id": "node/7078480064"}, {"type": "Feature", "properties": {"@id": "node/7114198190", "amenity": "bench"}, "geometry": {"type": "Point", "coordinates": [-3.5825408, 57.60863]}, "id": "node/7114198190"}, {"type": "Feature", "properties": {"@id": "node/7114198191", "amenity": "bench"}, "geometry": {"type": "Point", "coordinates": [-3.5935888, 57.6094949]}, "id": "node/7114198191"}, {"type": "Feature", "properties": {"@id": "node/7114490983", "amenity": "bench"}, "geometry": {"type": "Point", "coordinates": [-3.5968007, 57.6051174]}, "id": "node/7114490983"}, {"type": "Feature", "properties": {"@id": "node/7114490984", "amenity": "bench"}, "geometry": {"type": "Point", "coordinates": [-3.588624, 57.6097981]}, "id": "node/7114490984"}, {"type": "Feature", "properties": {"@id": "node/7126973130", "amenity": "bench", "backrest": "yes", "colour": "grey", "material": "plastic", "seats": "3"}, "geometry": {"type": "Point", "coordinates": [-3.7775798, 57.862265]}, "id": "node/7126973130"}, {"type": "Feature", "properties": {"@id": "node/7173361795", "amenity": "bench", "backrest": "yes", "colour": "black", "direction": "320", "lit": "yes", "material": "metal", "source": "local knowledge"}, "geometry": {"type": "Point", "coordinates": [-4.0388815, 57.678681]}, "id": "node/7173361795"}, {"type": "Feature", "properties": {"@id": "node/7322708536", "amenity": "bench", "backrest": "yes"}, "geometry": {"type": "Point", "coordinates": [-4.4035064, 58.4705327]}, "id": "node/7322708536"}, {"type": "Feature", "properties": {"@id": "node/7501607691", "amenity": "bench", "backrest": "yes", "material": "wood"}, "geometry": {"type": "Point", "coordinates": [-4.5088476, 57.4021207]}, "id": "node/7501607691"}, {"type": "Feature", "properties": {"@id": "node/7976642209", "amenity": "bench", "backrest": "yes", "direction": "NE", "material": "metal"}, "geometry": {"type": "Point", "coordinates": [-4.0342565, 57.6831268]}, "id": "node/7976642209"}, {"type": "Feature", "properties": {"@id": "node/7976642210", "amenity": "bench", "backrest": "yes", "direction": "NE", "material": "metal"}, "geometry": {"type": "Point", "coordinates": [-4.0339315, 57.682944]}, "id": "node/7976642210"}, {"type": "Feature", "properties": {"@id": "node/8105485640", "amenity": "bench", "backrest": "yes", "material": "wood"}, "geometry": {"type": "Point", "coordinates": [-4.190625, 57.5565173]}, "id": "node/8105485640"}, {"type": "Feature", "properties": {"@id": "node/8168090032", "amenity": "bench", "backrest": "yes", "colour": "brown", "material": "wood", "seats": "3"}, "geometry": {"type": "Point", "coordinates": [-4.0389939, 57.6788354]}, "id": "node/8168090032"}, {"type": "Feature", "properties": {"@id": "node/8168090033", "amenity": "bench", "backrest": "yes", "colour": "brown", "material": "plastic", "seats": "3"}, "geometry": {"type": "Point", "coordinates": [-4.038824, 57.6790468]}, "id": "node/8168090033"}, {"type": "Feature", "properties": {"@id": "node/8168178461", "amenity": "bench", "backrest": "yes", "colour": "black", "material": "metal", "seats": "3"}, "geometry": {"type": "Point", "coordinates": [-4.0386221, 57.6792979]}, "id": "node/8168178461"}, {"type": "Feature", "properties": {"@id": "node/8288791813", "amenity": "bench", "armrest": "yes", "backrest": "yes", "colour": "brown", "direction": "164", "material": "wood", "not:tourism:artwork": "yes", "seats:separated": "no", "survey:date": "2025-01-20", "two_sided": "no"}, "geometry": {"type": "Point", "coordinates": [-4.2176406, 57.476165]}, "id": "node/8288791813"}, {"type": "Feature", "properties": {"@id": "node/8288825021", "amenity": "bench", "backrest": "no"}, "geometry": {"type": "Point", "coordinates": [-4.2200008, 57.4784827]}, "id": "node/8288825021"}, {"type": "Feature", "properties": {"@id": "node/8578659683", "amenity": "bench", "backrest": "yes", "material": "wood", "seats": "4"}, "geometry": {"type": "Point", "coordinates": [-3.5972744, 57.6018856]}, "id": "node/8578659683"}, {"type": "Feature", "properties": {"@id": "node/8971865290", "amenity": "bench"}, "geometry": {"type": "Point", "coordinates": [-4.1502743, 57.6989199]}, "id": "node/8971865290"}, {"type": "Feature", "properties": {"@id": "node/8971876228", "amenity": "bench"}, "geometry": {"type": "Point", "coordinates": [-4.1516193, 57.6993752]}, "id": "node/8971876228"}, {"type": "Feature", "properties": {"@id": "node/8971881747", "amenity": "bench"}, "geometry": {"type": "Point", "coordinates": [-4.1480932, 57.6979781]}, "id": "node/8971881747"}, {"type": "Feature", "properties": {"@id": "node/8971885490", "amenity": "bench"}, "geometry": {"type": "Point", "coordinates": [-4.1512755, 57.6987951]}, "id": "node/8971885490"}, {"type": "Feature", "properties": {"@id": "node/8971941358", "amenity": "bench"}, "geometry": {"type": "Point", "coordinates": [-4.1507608, 57.6978985]}, "id": "node/8971941358"}, {"type": "Feature", "properties": {"@id": "node/8971941359", "amenity": "bench"}, "geometry": {"type": "Point", "coordinates": [-4.1485873, 57.6978248]}, "id": "node/8971941359"}, {"type": "Feature", "properties": {"@id": "node/8971941360", "amenity": "bench"}, "geometry": {"type": "Point", "coordinates": [-4.1496551, 57.6970594]}, "id": "node/8971941360"}, {"type": "Feature", "properties": {"@id": "node/8988039067", "amenity": "bench"}, "geometry": {"type": "Point", "coordinates": [-4.5636675, 57.5839728]}, "id": "node/8988039067"}, {"type": "Feature", "properties": {"@id": "node/8988039068", "amenity": "bench"}, "geometry": {"type": "Point", "coordinates": [-4.5570012, 57.5831608]}, "id": "node/8988039068"}, {"type": "Feature", "properties": {"@id": "node/9041943358", "amenity": "bench", "backrest": "yes"}, "geometry": {"type": "Point", "coordinates": [-4.4292354, 57.5955297]}, "id": "node/9041943358"}, {"type": "Feature", "properties": {"@id": "node/9041943359", "amenity": "bench", "backrest": "yes"}, "geometry": {"type": "Point", "coordinates": [-4.429104, 57.5955282]}, "id": "node/9041943359"}, {"type": "Feature", "properties": {"@id": "node/9041943360", "amenity": "bench", "backrest": "yes"}, "geometry": {"type": "Point", "coordinates": [-4.4307911, 57.5956051]}, "id": "node/9041943360"}, {"type": "Feature", "properties": {"@id": "node/9041943361", "amenity": "bench", "backrest": "yes"}, "geometry": {"type": "Point", "coordinates": [-4.430889, 57.5956059]}, "id": "node/9041943361"}, {"type": "Feature", "properties": {"@id": "node/9041943362", "amenity": "bench"}, "geometry": {"type": "Point", "coordinates": [-4.4309762, 57.5956145]}, "id": "node/9041943362"}, {"type": "Feature", "properties": {"@id": "node/9156373466", "amenity": "bench"}, "geometry": {"type": "Point", "coordinates": [-4.4808457, 57.6147768]}, "id": "node/9156373466"}, {"type": "Feature", "properties": {"@id": "node/9194660126", "amenity": "bench", "backrest": "yes"}, "geometry": {"type": "Point", "coordinates": [-4.1854861, 57.4591378]}, "id": "node/9194660126"}, {"type": "Feature", "properties": {"@id": "node/9194660128", "amenity": "bench", "backrest": "yes"}, "geometry": {"type": "Point", "coordinates": [-4.186292, 57.4590875]}, "id": "node/9194660128"}, {"type": "Feature", "properties": {"@id": "node/9194660129", "amenity": "bench", "backrest": "yes"}, "geometry": {"type": "Point", "coordinates": [-4.1865374, 57.4598616]}, "id": "node/9194660129"}, {"type": "Feature", "properties": {"@id": "node/9194660130", "amenity": "bench", "backrest": "yes"}, "geometry": {"type": "Point", "coordinates": [-4.1858025, 57.4600087]}, "id": "node/9194660130"}, {"type": "Feature", "properties": {"@id": "node/9194660131", "amenity": "bench", "backrest": "yes"}, "geometry": {"type": "Point", "coordinates": [-4.1873501, 57.4597548]}, "id": "node/9194660131"}, {"type": "Feature", "properties": {"@id": "node/9194660132", "amenity": "bench", "backrest": "yes"}, "geometry": {"type": "Point", "coordinates": [-4.1866662, 57.4603968]}, "id": "node/9194660132"}, {"type": "Feature", "properties": {"@id": "node/9222334029", "amenity": "bench"}, "geometry": {"type": "Point", "coordinates": [-4.3028869, 58.5409183]}, "id": "node/9222334029"}, {"type": "Feature", "properties": {"@id": "node/9363732517", "amenity": "bench", "backrest": "yes", "material": "wood", "seats": "3", "survey:date": "2021-12-24"}, "geometry": {"type": "Point", "coordinates": [-4.2479705, 57.4694568]}, "id": "node/9363732517"}, {"type": "Feature", "properties": {"@id": "node/9397788857", "amenity": "bench"}, "geometry": {"type": "Point", "coordinates": [-3.6658419, 57.6611389]}, "id": "node/9397788857"}, {"type": "Feature", "properties": {"@id": "node/9420860230", "amenity": "bench"}, "geometry": {"type": "Point", "coordinates": [-4.1829169, 57.4583137]}, "id": "node/9420860230"}, {"type": "Feature", "properties": {"@id": "node/9678654158", "amenity": "bench"}, "geometry": {"type": "Point", "coordinates": [-4.5379433, 57.5882516]}, "id": "node/9678654158"}, {"type": "Feature", "properties": {"@id": "node/9678654159", "amenity": "bench"}, "geometry": {"type": "Point", "coordinates": [-4.5379716, 57.5882164]}, "id": "node/9678654159"}, {"type": "Feature", "properties": {"@id": "node/9678654160", "amenity": "bench"}, "geometry": {"type": "Point", "coordinates": [-4.5379895, 57.5881909]}, "id": "node/9678654160"}, {"type": "Feature", "properties": {"@id": "node/9678654161", "amenity": "bench"}, "geometry": {"type": "Point", "coordinates": [-4.5381221, 57.5882204]}, "id": "node/9678654161"}, {"type": "Feature", "properties": {"@id": "node/9789000546", "amenity": "bench"}, "geometry": {"type": "Point", "coordinates": [-4.3479612, 57.4362478]}, "id": "node/9789000546"}, {"type": "Feature", "properties": {"@id": "node/9805583832", "amenity": "bench"}, "geometry": {"type": "Point", "coordinates": [-4.3231357, 57.6005037]}, "id": "node/9805583832"}, {"type": "Feature", "properties": {"@id": "node/9823165358", "amenity": "bench"}, "geometry": {"type": "Point", "coordinates": [-4.2773962, 57.5514367]}, "id": "node/9823165358"}, {"type": "Feature", "properties": {"@id": "node/9823171447", "amenity": "bench"}, "geometry": {"type": "Point", "coordinates": [-3.8464074, 58.0079755]}, "id": "node/9823171447"}, {"type": "Feature", "properties": {"@id": "node/9823174364", "amenity": "bench"}, "geometry": {"type": "Point", "coordinates": [-4.0087642, 57.9537077]}, "id": "node/9823174364"}, {"type": "Feature", "properties": {"@id": "node/9823177792", "amenity": "bench"}, "geometry": {"type": "Point", "coordinates": [-3.8463325, 58.0082254]}, "id": "node/9823177792"}, {"type": "Feature", "properties": {"@id": "node/9823179309", "amenity": "bench"}, "geometry": {"type": "Point", "coordinates": [-3.6388769, 58.1163318]}, "id": "node/9823179309"}, {"type": "Feature", "properties": {"@id": "node/9828562533", "amenity": "bench"}, "geometry": {"type": "Point", "coordinates": [-4.4579028, 57.5167433]}, "id": "node/9828562533"}, {"type": "Feature", "properties": {"@id": "node/9899683584", "amenity": "bench", "backrest": "yes"}, "geometry": {"type": "Point", "coordinates": [-3.5248644, 58.5966316]}, "id": "node/9899683584"}, {"type": "Feature", "properties": {"@id": "node/9931923287", "amenity": "bench", "backrest": "yes"}, "geometry": {"type": "Point", "coordinates": [-3.7831158, 57.450268]}, "id": "node/9931923287"}, {"type": "Feature", "properties": {"@id": "node/9938573852", "amenity": "bench"}, "geometry": {"type": "Point", "coordinates": [-3.6711317, 58.3959226]}, "id": "node/9938573852"}, {"type": "Feature", "properties": {"@id": "node/9986669273", "amenity": "bench"}, "geometry": {"type": "Point", "coordinates": [-3.8636549, 57.5878827]}, "id": "node/9986669273"}, {"type": "Feature", "properties": {"@id": "node/9986669280", "amenity": "bench"}, "geometry": {"type": "Point", "coordinates": [-3.8638371, 57.5877947]}, "id": "node/9986669280"}, {"type": "Feature", "properties": {"@id": "node/10135259065", "amenity": "bench", "backrest": "yes"}, "geometry": {"type": "Point", "coordinates": [-4.2284403, 57.474337]}, "id": "node/10135259065"}, {"type": "Feature", "properties": {"@id": "node/10135302529", "amenity": "bench", "backrest": "no"}, "geometry": {"type": "Point", "coordinates": [-4.2278929, 57.4798012]}, "id": "node/10135302529"}, {"type": "Feature", "properties": {"@id": "node/10135302530", "amenity": "bench", "backrest": "no"}, "geometry": {"type": "Point", "coordinates": [-4.2280599, 57.4799555]}, "id": "node/10135302530"}, {"type": "Feature", "properties": {"@id": "node/10601689066", "amenity": "bench", "backrest": "yes", "colour": "blue"}, "geometry": {"type": "Point", "coordinates": [-4.3465922, 57.8916432]}, "id": "node/10601689066"}, {"type": "Feature", "properties": {"@id": "node/10601689067", "amenity": "bench", "backrest": "yes", "colour": "blue"}, "geometry": {"type": "Point", "coordinates": [-4.3467238, 57.8916583]}, "id": "node/10601689067"}, {"type": "Feature", "properties": {"@id": "node/10604808192", "amenity": "bench", "material": "wood"}, "geometry": {"type": "Point", "coordinates": [-4.4352864, 57.5908323]}, "id": "node/10604808192"}, {"type": "Feature", "properties": {"@id": "node/10604808193", "amenity": "bench", "material": "metal"}, "geometry": {"type": "Point", "coordinates": [-4.4288045, 57.5924215]}, "id": "node/10604808193"}, {"type": "Feature", "properties": {"@id": "node/10604808194", "amenity": "bench", "material": "metal"}, "geometry": {"type": "Point", "coordinates": [-4.4288635, 57.5924224]}, "id": "node/10604808194"}, {"type": "Feature", "properties": {"@id": "node/10604808195", "amenity": "bench", "material": "wood"}, "geometry": {"type": "Point", "coordinates": [-4.4278047, 57.592151]}, "id": "node/10604808195"}, {"type": "Feature", "properties": {"@id": "node/10604808196", "amenity": "bench", "material": "wood"}, "geometry": {"type": "Point", "coordinates": [-4.4278218, 57.5921679]}, "id": "node/10604808196"}, {"type": "Feature", "properties": {"@id": "node/10604808197", "amenity": "bench"}, "geometry": {"type": "Point", "coordinates": [-4.4288059, 57.5931736]}, "id": "node/10604808197"}, {"type": "Feature", "properties": {"@id": "node/10604808198", "amenity": "bench"}, "geometry": {"type": "Point", "coordinates": [-4.4269726, 57.5929231]}, "id": "node/10604808198"}, {"type": "Feature", "properties": {"@id": "node/10658236696", "amenity": "bench", "backrest": "yes", "material": "metal", "memorial": "war_memorial"}, "geometry": {"type": "Point", "coordinates": [-4.363115, 57.8812297]}, "id": "node/10658236696"}, {"type": "Feature", "properties": {"@id": "node/10658236697", "amenity": "bench", "backrest": "yes", "material": "metal", "memorial": "war_memorial"}, "geometry": {"type": "Point", "coordinates": [-4.3631401, 57.8812107]}, "id": "node/10658236697"}, {"type": "Feature", "properties": {"@id": "node/10658255726", "amenity": "bench", "backrest": "yes", "material": "wood"}, "geometry": {"type": "Point", "coordinates": [-4.3628847, 57.881772]}, "id": "node/10658255726"}, {"type": "Feature", "properties": {"@id": "node/10694494818", "amenity": "bench", "backrest": "no", "material": "wood"}, "geometry": {"type": "Point", "coordinates": [-4.2777035, 57.6956847]}, "id": "node/10694494818"}, {"type": "Feature", "properties": {"@id": "node/10936896005", "amenity": "bench", "backrest": "yes"}, "geometry": {"type": "Point", "coordinates": [-4.2277997, 57.4680072]}, "id": "node/10936896005"}, {"type": "Feature", "properties": {"@id": "node/10936896105", "amenity": "bench", "backrest": "yes"}, "geometry": {"type": "Point", "coordinates": [-4.2278555, 57.4669636]}, "id": "node/10936896105"}, {"type": "Feature", "properties": {"@id": "node/10936896106", "amenity": "bench", "backrest": "yes"}, "geometry": {"type": "Point", "coordinates": [-4.2277329, 57.4664033]}, "id": "node/10936896106"}, {"type": "Feature", "properties": {"@id": "node/10936900905", "amenity": "bench", "backrest": "no"}, "geometry": {"type": "Point", "coordinates": [-4.2290761, 57.465429]}, "id": "node/10936900905"}, {"type": "Feature", "properties": {"@id": "node/10936900906", "amenity": "bench"}, "geometry": {"type": "Point", "coordinates": [-4.2300012, 57.4646097]}, "id": "node/10936900906"}, {"type": "Feature", "properties": {"@id": "node/10936902910", "amenity": "bench"}, "geometry": {"type": "Point", "coordinates": [-4.2309027, 57.4635084]}, "id": "node/10936902910"}, {"type": "Feature", "properties": {"@id": "node/10936902911", "amenity": "bench"}, "geometry": {"type": "Point", "coordinates": [-4.2308851, 57.4634016]}, "id": "node/10936902911"}, {"type": "Feature", "properties": {"@id": "node/10936909506", "amenity": "bench", "covered": "no", "leisure": "picnic_table", "material": "wood"}, "geometry": {"type": "Point", "coordinates": [-4.2331707, 57.462682]}, "id": "node/10936909506"}, {"type": "Feature", "properties": {"@id": "node/10936909508", "amenity": "bench", "backrest": "no"}, "geometry": {"type": "Point", "coordinates": [-4.2292061, 57.4675322]}, "id": "node/10936909508"}, {"type": "Feature", "properties": {"@id": "node/10936909606", "amenity": "bench", "backrest": "no"}, "geometry": {"type": "Point", "coordinates": [-4.2292067, 57.4673321]}, "id": "node/10936909606"}, {"type": "Feature", "properties": {"@id": "node/10936911706", "amenity": "bench"}, "geometry": {"type": "Point", "coordinates": [-4.2311614, 57.4651141]}, "id": "node/10936911706"}, {"type": "Feature", "properties": {"@id": "node/10936947205", "amenity": "bench", "backrest": "yes"}, "geometry": {"type": "Point", "coordinates": [-4.2291938, 57.4672947]}, "id": "node/10936947205"}, {"type": "Feature", "properties": {"@id": "node/11032822696", "amenity": "bench", "backrest": "yes", "direction": "E", "inscription": "In fond memory of Bill & Barbara Archer from all your boys, Erik, Hamish, Robin Laurence & Ronnie and Families", "material": "wood"}, "geometry": {"type": "Point", "coordinates": [-4.2295516, 57.4688071]}, "id": "node/11032822696"}, {"type": "Feature", "properties": {"@id": "node/11032891295", "amenity": "bench", "backrest": "yes", "direction": "E", "inscription": "IN LOVING MEMORY OF RAMON NICHOL WHO LOVED INVERNESS AND THE HIGHLANDS\n31.10.1966 -- 07.12.2018\nFROM ALL THE FAMILY", "material": "wood"}, "geometry": {"type": "Point", "coordinates": [-4.2294726, 57.4684151]}, "id": "node/11032891295"}, {"type": "Feature", "properties": {"@id": "node/11117680463", "amenity": "bench", "backrest": "yes", "direction": "NE"}, "geometry": {"type": "Point", "coordinates": [-4.035484, 57.6828389]}, "id": "node/11117680463"}, {"type": "Feature", "properties": {"@id": "node/11117680464", "amenity": "bench", "backrest": "yes", "direction": "NE"}, "geometry": {"type": "Point", "coordinates": [-4.0356275, 57.6829078]}, "id": "node/11117680464"}, {"type": "Feature", "properties": {"@id": "node/11117680465", "amenity": "bench", "backrest": "yes", "direction": "NE"}, "geometry": {"type": "Point", "coordinates": [-4.0358636, 57.6830261]}, "id": "node/11117680465"}, {"type": "Feature", "properties": {"@id": "node/11135519347", "amenity": "bench", "backrest": "no", "material": "wood"}, "geometry": {"type": "Point", "coordinates": [-4.0912713, 57.4825914]}, "id": "node/11135519347"}, {"type": "Feature", "properties": {"@id": "node/11137243604", "amenity": "bench", "backrest": "no", "material": "wood"}, "geometry": {"type": "Point", "coordinates": [-4.0868805, 57.4802415]}, "id": "node/11137243604"}, {"type": "Feature", "properties": {"@id": "node/11142838085", "amenity": "bench", "backrest": "yes", "colour": "brown", "material": "plastic"}, "geometry": {"type": "Point", "coordinates": [-4.2424567, 57.4667667]}, "id": "node/11142838085"}, {"type": "Feature", "properties": {"@id": "node/11146676455", "amenity": "bench", "backrest": "no", "material": "wood"}, "geometry": {"type": "Point", "coordinates": [-4.2528905, 57.4882833]}, "id": "node/11146676455"}, {"type": "Feature", "properties": {"@id": "node/11146676457", "amenity": "bench", "backrest": "no", "material": "wood"}, "geometry": {"type": "Point", "coordinates": [-4.2504309, 57.4868345]}, "id": "node/11146676457"}, {"type": "Feature", "properties": {"@id": "node/11146676479", "amenity": "bench"}, "geometry": {"type": "Point", "coordinates": [-4.2471707, 57.4847923]}, "id": "node/11146676479"}, {"type": "Feature", "properties": {"@id": "node/11146698007", "amenity": "bench", "backrest": "yes", "direction": "50", "material": "wood"}, "geometry": {"type": "Point", "coordinates": [-4.2419699, 57.4944327]}, "id": "node/11146698007"}, {"type": "Feature", "properties": {"@id": "node/11147919390", "amenity": "bench", "backrest": "yes", "direction": "200", "material": "wood"}, "geometry": {"type": "Point", "coordinates": [-4.1228744, 57.5797355]}, "id": "node/11147919390"}, {"type": "Feature", "properties": {"@id": "node/11147919393", "amenity": "bench", "backrest": "yes", "direction": "200"}, "geometry": {"type": "Point", "coordinates": [-4.124241, 57.5800641]}, "id": "node/11147919393"}, {"type": "Feature", "properties": {"@id": "node/11147919395", "amenity": "bench", "backrest": "yes", "colour": "grey", "direction": "210", "material": "wood", "seats": "3"}, "geometry": {"type": "Point", "coordinates": [-4.1250537, 57.5802416]}, "id": "node/11147919395"}, {"type": "Feature", "properties": {"@id": "node/11149426802", "amenity": "bench", "backrest": "yes", "colour": "brown", "direction": "210", "material": "wood"}, "geometry": {"type": "Point", "coordinates": [-4.1293198, 57.5797851]}, "id": "node/11149426802"}, {"type": "Feature", "properties": {"@id": "node/11151272970", "amenity": "bench", "backrest": "yes", "direction": "300", "material": "stone"}, "geometry": {"type": "Point", "coordinates": [-4.1306803, 57.581474]}, "id": "node/11151272970"}, {"type": "Feature", "properties": {"@id": "node/11154570318", "amenity": "bench", "backrest": "yes", "colour": "brown", "direction": "185", "material": "wood"}, "geometry": {"type": "Point", "coordinates": [-4.0247257, 57.6783541]}, "id": "node/11154570318"}, {"type": "Feature", "properties": {"@id": "node/11154570319", "amenity": "bench", "backrest": "yes", "colour": "brown", "direction": "185", "material": "wood"}, "geometry": {"type": "Point", "coordinates": [-4.024886, 57.6783577]}, "id": "node/11154570319"}, {"type": "Feature", "properties": {"@id": "node/11154570320", "amenity": "bench", "backrest": "yes", "colour": "white", "direction": "185"}, "geometry": {"type": "Point", "coordinates": [-4.0251428, 57.6783655]}, "id": "node/11154570320"}, {"type": "Feature", "properties": {"@id": "node/11154570321", "amenity": "bench", "backrest": "yes", "colour": "white", "direction": "185"}, "geometry": {"type": "Point", "coordinates": [-4.0251998, 57.6783677]}, "id": "node/11154570321"}, {"type": "Feature", "properties": {"@id": "node/11154570322", "amenity": "bench", "backrest": "yes", "colour": "white", "direction": "185"}, "geometry": {"type": "Point", "coordinates": [-4.0252568, 57.6783698]}, "id": "node/11154570322"}, {"type": "Feature", "properties": {"@id": "node/11154570329", "amenity": "bench", "backrest": "yes", "material": "metal"}, "geometry": {"type": "Point", "coordinates": [-4.0279484, 57.6797336]}, "id": "node/11154570329"}, {"type": "Feature", "properties": {"@id": "node/11154570330", "amenity": "bench", "backrest": "yes", "material": "metal"}, "geometry": {"type": "Point", "coordinates": [-4.0278974, 57.6797243]}, "id": "node/11154570330"}, {"type": "Feature", "properties": {"@id": "node/11159736440", "amenity": "bench", "backrest": "no", "material": "wood"}, "geometry": {"type": "Point", "coordinates": [-4.1308768, 57.579417]}, "id": "node/11159736440"}, {"type": "Feature", "properties": {"@id": "node/11159736448", "amenity": "bench", "backrest": "yes", "material": "wood"}, "geometry": {"type": "Point", "coordinates": [-4.1309117, 57.5793149]}, "id": "node/11159736448"}, {"type": "Feature", "properties": {"@id": "node/11159736449", "amenity": "bench", "backrest": "yes", "colour": "green"}, "geometry": {"type": "Point", "coordinates": [-4.1313797, 57.5793681]}, "id": "node/11159736449"}, {"type": "Feature", "properties": {"@id": "node/11159736452", "amenity": "bench", "backrest": "yes", "colour": "green"}, "geometry": {"type": "Point", "coordinates": [-4.1319416, 57.5794213]}, "id": "node/11159736452"}, {"type": "Feature", "properties": {"@id": "node/11168886568", "amenity": "bench", "backrest": "yes", "colour": "brown", "material": "plastic"}, "geometry": {"type": "Point", "coordinates": [-4.2402788, 57.4669852]}, "id": "node/11168886568"}, {"type": "Feature", "properties": {"@id": "node/11168886569", "amenity": "bench", "backrest": "yes", "colour": "brown", "material": "plastic"}, "geometry": {"type": "Point", "coordinates": [-4.2405175, 57.4669174]}, "id": "node/11168886569"}, {"type": "Feature", "properties": {"@id": "node/11168886570", "amenity": "bench", "backrest": "yes", "colour": "brown", "material": "plastic"}, "geometry": {"type": "Point", "coordinates": [-4.2404652, 57.4670155]}, "id": "node/11168886570"}, {"type": "Feature", "properties": {"@id": "node/11173368789", "amenity": "bench", "backrest": "yes"}, "geometry": {"type": "Point", "coordinates": [-4.2279017, 57.4685647]}, "id": "node/11173368789"}, {"type": "Feature", "properties": {"@id": "node/11173368790", "amenity": "bench", "backrest": "yes"}, "geometry": {"type": "Point", "coordinates": [-4.2278977, 57.4683195]}, "id": "node/11173368790"}, {"type": "Feature", "properties": {"@id": "node/11173368792", "amenity": "bench", "backrest": "yes", "colour": "brown", "direction": "270"}, "geometry": {"type": "Point", "coordinates": [-4.2278085, 57.4677515]}, "id": "node/11173368792"}, {"type": "Feature", "properties": {"@id": "node/11173368794", "amenity": "bench", "backrest": "yes", "colour": "brown", "direction": "260"}, "geometry": {"type": "Point", "coordinates": [-4.2277864, 57.4673754]}, "id": "node/11173368794"}, {"type": "Feature", "properties": {"@id": "node/11173368796", "amenity": "bench", "backrest": "yes"}, "geometry": {"type": "Point", "coordinates": [-4.2285079, 57.465938]}, "id": "node/11173368796"}, {"type": "Feature", "properties": {"@id": "node/11180613603", "amenity": "bench"}, "geometry": {"type": "Point", "coordinates": [-4.1543817, 57.5731496]}, "id": "node/11180613603"}, {"type": "Feature", "properties": {"@id": "node/11215363867", "amenity": "bench", "backrest": "yes"}, "geometry": {"type": "Point", "coordinates": [-3.9262985, 57.5234548]}, "id": "node/11215363867"}, {"type": "Feature", "properties": {"@id": "node/11215363868", "amenity": "bench", "backrest": "yes"}, "geometry": {"type": "Point", "coordinates": [-3.9263762, 57.5240266]}, "id": "node/11215363868"}, {"type": "Feature", "properties": {"@id": "node/11215363869", "amenity": "bench", "backrest": "yes"}, "geometry": {"type": "Point", "coordinates": [-3.925594, 57.5239178]}, "id": "node/11215363869"}, {"type": "Feature", "properties": {"@id": "node/11234620093", "amenity": "bench", "backrest": "yes", "material": "wood"}, "geometry": {"type": "Point", "coordinates": [-4.1783792, 57.4547443]}, "id": "node/11234620093"}, {"type": "Feature", "properties": {"@id": "node/11234620094", "amenity": "bench", "backrest": "yes", "material": "wood"}, "geometry": {"type": "Point", "coordinates": [-4.1784027, 57.4546923]}, "id": "node/11234620094"}, {"type": "Feature", "properties": {"@id": "node/11278869239", "amenity": "bench"}, "geometry": {"type": "Point", "coordinates": [-4.227521, 57.4780148]}, "id": "node/11278869239"}, {"type": "Feature", "properties": {"@id": "node/11278869240", "amenity": "bench"}, "geometry": {"type": "Point", "coordinates": [-4.2276395, 57.4779657]}, "id": "node/11278869240"}, {"type": "Feature", "properties": {"@id": "node/11278963437", "amenity": "bench", "backrest": "yes", "seats": "3"}, "geometry": {"type": "Point", "coordinates": [-4.2233133, 57.4786541]}, "id": "node/11278963437"}, {"type": "Feature", "properties": {"@id": "node/11278963438", "amenity": "bench", "backrest": "yes", "seats": "3"}, "geometry": {"type": "Point", "coordinates": [-4.2232471, 57.4786723]}, "id": "node/11278963438"}, {"type": "Feature", "properties": {"@id": "node/11278963441", "amenity": "bench", "backrest": "yes", "seats": "3"}, "geometry": {"type": "Point", "coordinates": [-4.2232526, 57.478568]}, "id": "node/11278963441"}, {"type": "Feature", "properties": {"@id": "node/11278963442", "amenity": "bench", "backrest": "yes", "seats": "3"}, "geometry": {"type": "Point", "coordinates": [-4.2231288, 57.478516]}, "id": "node/11278963442"}, {"type": "Feature", "properties": {"@id": "node/11278963443", "amenity": "bench", "backrest": "yes", "seats": "3"}, "geometry": {"type": "Point", "coordinates": [-4.2232045, 57.4785083]}, "id": "node/11278963443"}, {"type": "Feature", "properties": {"@id": "node/11278963446", "amenity": "bench", "backrest": "yes", "seats": "3"}, "geometry": {"type": "Point", "coordinates": [-4.2230376, 57.4784092]}, "id": "node/11278963446"}, {"type": "Feature", "properties": {"@id": "node/11278963447", "amenity": "bench", "backrest": "yes", "seats": "3"}, "geometry": {"type": "Point", "coordinates": [-4.2231187, 57.4783959]}, "id": "node/11278963447"}, {"type": "Feature", "properties": {"@id": "node/11278963449", "amenity": "bench", "backrest": "yes", "seats": "3"}, "geometry": {"type": "Point", "coordinates": [-4.2229847, 57.4783213]}, "id": "node/11278963449"}, {"type": "Feature", "properties": {"@id": "node/11278980349", "amenity": "bench"}, "geometry": {"type": "Point", "coordinates": [-4.2187085, 57.4732695]}, "id": "node/11278980349"}, {"type": "Feature", "properties": {"@id": "node/11280878167", "amenity": "bench", "backrest": "yes"}, "geometry": {"type": "Point", "coordinates": [-4.2268562, 57.4738898]}, "id": "node/11280878167"}, {"type": "Feature", "properties": {"@id": "node/11280880249", "amenity": "bench", "backrest": "yes"}, "geometry": {"type": "Point", "coordinates": [-4.2262318, 57.4747561]}, "id": "node/11280880249"}, {"type": "Feature", "properties": {"@id": "node/11280880251", "amenity": "bench", "backrest": "yes"}, "geometry": {"type": "Point", "coordinates": [-4.2261494, 57.475016]}, "id": "node/11280880251"}, {"type": "Feature", "properties": {"@id": "node/11280880253", "amenity": "bench", "backrest": "yes"}, "geometry": {"type": "Point", "coordinates": [-4.22649, 57.4744831]}, "id": "node/11280880253"}, {"type": "Feature", "properties": {"@id": "node/11280894612", "amenity": "bench"}, "geometry": {"type": "Point", "coordinates": [-4.2290642, 57.4732911]}, "id": "node/11280894612"}, {"type": "Feature", "properties": {"@id": "node/11280894614", "amenity": "bench"}, "geometry": {"type": "Point", "coordinates": [-4.2290057, 57.4734387]}, "id": "node/11280894614"}, {"type": "Feature", "properties": {"@id": "node/11280894615", "amenity": "bench"}, "geometry": {"type": "Point", "coordinates": [-4.2289324, 57.4735807]}, "id": "node/11280894615"}, {"type": "Feature", "properties": {"@id": "node/11280894618", "amenity": "bench"}, "geometry": {"type": "Point", "coordinates": [-4.228772, 57.4738424]}, "id": "node/11280894618"}, {"type": "Feature", "properties": {"@id": "node/11280894619", "amenity": "bench"}, "geometry": {"type": "Point", "coordinates": [-4.2287321, 57.4739094]}, "id": "node/11280894619"}, {"type": "Feature", "properties": {"@id": "node/11280913469", "amenity": "bench", "backrest": "yes"}, "geometry": {"type": "Point", "coordinates": [-4.2274161, 57.4732498]}, "id": "node/11280913469"}, {"type": "Feature", "properties": {"@id": "node/11280913470", "amenity": "bench", "backrest": "yes"}, "geometry": {"type": "Point", "coordinates": [-4.2278929, 57.4726225]}, "id": "node/11280913470"}, {"type": "Feature", "properties": {"@id": "node/11280913471", "amenity": "bench", "backrest": "yes"}, "geometry": {"type": "Point", "coordinates": [-4.2281164, 57.4719985]}, "id": "node/11280913471"}, {"type": "Feature", "properties": {"@id": "node/11280921920", "amenity": "bench"}, "geometry": {"type": "Point", "coordinates": [-4.2289787, 57.4792942]}, "id": "node/11280921920"}, {"type": "Feature", "properties": {"@id": "node/11280921921", "amenity": "bench"}, "geometry": {"type": "Point", "coordinates": [-4.2282735, 57.4786463]}, "id": "node/11280921921"}, {"type": "Feature", "properties": {"@id": "node/11280921922", "amenity": "bench"}, "geometry": {"type": "Point", "coordinates": [-4.2274394, 57.4779208]}, "id": "node/11280921922"}, {"type": "Feature", "properties": {"@id": "node/11280921923", "amenity": "bench"}, "geometry": {"type": "Point", "coordinates": [-4.2273058, 57.4778862]}, "id": "node/11280921923"}, {"type": "Feature", "properties": {"@id": "node/11280921924", "amenity": "bench"}, "geometry": {"type": "Point", "coordinates": [-4.2272508, 57.4778136]}, "id": "node/11280921924"}, {"type": "Feature", "properties": {"@id": "node/11280921925", "amenity": "bench"}, "geometry": {"type": "Point", "coordinates": [-4.2272914, 57.4777529]}, "id": "node/11280921925"}, {"type": "Feature", "properties": {"@id": "node/11280926572", "amenity": "bench", "backrest": "no"}, "geometry": {"type": "Point", "coordinates": [-4.2286342, 57.4772259]}, "id": "node/11280926572"}, {"type": "Feature", "properties": {"@id": "node/11280926573", "amenity": "bench", "backrest": "no"}, "geometry": {"type": "Point", "coordinates": [-4.2286798, 57.4772726]}, "id": "node/11280926573"}, {"type": "Feature", "properties": {"@id": "node/11280926577", "amenity": "bench"}, "geometry": {"type": "Point", "coordinates": [-4.229759, 57.4782162]}, "id": "node/11280926577"}, {"type": "Feature", "properties": {"@id": "node/11280926578", "amenity": "bench"}, "geometry": {"type": "Point", "coordinates": [-4.2297936, 57.4782433]}, "id": "node/11280926578"}, {"type": "Feature", "properties": {"@id": "node/11280926581", "amenity": "bench"}, "geometry": {"type": "Point", "coordinates": [-4.2301325, 57.4784664]}, "id": "node/11280926581"}, {"type": "Feature", "properties": {"@id": "node/11280926582", "amenity": "bench"}, "geometry": {"type": "Point", "coordinates": [-4.2301852, 57.4784967]}, "id": "node/11280926582"}, {"type": "Feature", "properties": {"@id": "node/11285576050", "amenity": "bench"}, "geometry": {"type": "Point", "coordinates": [-4.2248468, 57.4751028]}, "id": "node/11285576050"}, {"type": "Feature", "properties": {"@id": "node/11285576051", "amenity": "bench"}, "geometry": {"type": "Point", "coordinates": [-4.2248424, 57.4750341]}, "id": "node/11285576051"}, {"type": "Feature", "properties": {"@id": "node/11285584457", "amenity": "bench"}, "geometry": {"type": "Point", "coordinates": [-4.2250969, 57.4753798]}, "id": "node/11285584457"}, {"type": "Feature", "properties": {"@id": "node/11285588264", "amenity": "bench", "backrest": "yes", "colour": "brown", "direction": "270", "material": "wood", "seats": "3", "survey:date": "2023-12-16"}, "geometry": {"type": "Point", "coordinates": [-4.2247374, 57.4746437]}, "id": "node/11285588264"}, {"type": "Feature", "properties": {"@id": "node/11285588265", "amenity": "bench", "backrest": "yes", "colour": "brown", "direction": "270", "material": "wood", "seats": "3", "survey:date": "2023-12-16"}, "geometry": {"type": "Point", "coordinates": [-4.2247425, 57.474597]}, "id": "node/11285588265"}, {"type": "Feature", "properties": {"@id": "node/11285621285", "amenity": "bench", "backrest": "yes"}, "geometry": {"type": "Point", "coordinates": [-4.2239278, 57.4779486]}, "id": "node/11285621285"}, {"type": "Feature", "properties": {"@id": "node/11285621287", "amenity": "bench", "backrest": "yes"}, "geometry": {"type": "Point", "coordinates": [-4.2244632, 57.4777287]}, "id": "node/11285621287"}, {"type": "Feature", "properties": {"@id": "node/11285621288", "amenity": "bench", "backrest": "yes"}, "geometry": {"type": "Point", "coordinates": [-4.2245162, 57.4777089]}, "id": "node/11285621288"}, {"type": "Feature", "properties": {"@id": "node/11285668383", "amenity": "bench"}, "geometry": {"type": "Point", "coordinates": [-4.2718127, 57.4667913]}, "id": "node/11285668383"}, {"type": "Feature", "properties": {"@id": "node/11299488640", "amenity": "bench", "seats": "2"}, "geometry": {"type": "Point", "coordinates": [-4.2110912, 57.4733239]}, "id": "node/11299488640"}, {"type": "Feature", "properties": {"@id": "node/11299488641", "amenity": "bench", "seats": "3"}, "geometry": {"type": "Point", "coordinates": [-4.210541, 57.4739236]}, "id": "node/11299488641"}, {"type": "Feature", "properties": {"@id": "node/11372352993", "amenity": "bench", "material": "wood"}, "geometry": {"type": "Point", "coordinates": [-4.4134562, 57.9578467]}, "id": "node/11372352993"}, {"type": "Feature", "properties": {"@id": "node/11409245110", "amenity": "bench"}, "geometry": {"type": "Point", "coordinates": [-4.2183277, 57.4750124]}, "id": "node/11409245110"}, {"type": "Feature", "properties": {"@id": "node/11409245111", "amenity": "bench"}, "geometry": {"type": "Point", "coordinates": [-4.2183367, 57.4750672]}, "id": "node/11409245111"}, {"type": "Feature", "properties": {"@id": "node/11450755070", "amenity": "bench", "backrest": "no"}, "geometry": {"type": "Point", "coordinates": [-3.867339, 57.5852243]}, "id": "node/11450755070"}, {"type": "Feature", "properties": {"@id": "node/11450755071", "amenity": "bench", "backrest": "no"}, "geometry": {"type": "Point", "coordinates": [-3.867396, 57.5852451]}, "id": "node/11450755071"}, {"type": "Feature", "properties": {"@id": "node/11450755072", "amenity": "bench", "backrest": "yes"}, "geometry": {"type": "Point", "coordinates": [-3.8675194, 57.585193]}, "id": "node/11450755072"}, {"type": "Feature", "properties": {"@id": "node/11450755073", "amenity": "bench", "backrest": "yes"}, "geometry": {"type": "Point", "coordinates": [-3.8674698, 57.5851707]}, "id": "node/11450755073"}, {"type": "Feature", "properties": {"@id": "node/11497047969", "amenity": "bench", "backrest": "yes", "colour": "brown", "material": "wood", "seats": "3"}, "geometry": {"type": "Point", "coordinates": [-4.4280924, 58.5427247]}, "id": "node/11497047969"}, {"type": "Feature", "properties": {"@id": "node/11515110717", "amenity": "bench", "backrest": "yes"}, "geometry": {"type": "Point", "coordinates": [-4.1517618, 57.6939301]}, "id": "node/11515110717"}, {"type": "Feature", "properties": {"@id": "node/11712046449", "amenity": "bench"}, "geometry": {"type": "Point", "coordinates": [-4.2366415, 57.4607442]}, "id": "node/11712046449"}, {"type": "Feature", "properties": {"@id": "node/11712046454", "amenity": "bench", "backrest": "no", "material": "wood", "seats": "3"}, "geometry": {"type": "Point", "coordinates": [-4.2381455, 57.4600359]}, "id": "node/11712046454"}, {"type": "Feature", "properties": {"@id": "node/11948187775", "amenity": "bench"}, "geometry": {"type": "Point", "coordinates": [-3.5879491, 58.3961974]}, "id": "node/11948187775"}, {"type": "Feature", "properties": {"@id": "node/11951612068", "amenity": "bench"}, "geometry": {"type": "Point", "coordinates": [-4.2484972, 57.4527175]}, "id": "node/11951612068"}, {"type": "Feature", "properties": {"@id": "node/11951639266", "amenity": "bench"}, "geometry": {"type": "Point", "coordinates": [-4.2484473, 57.4527039]}, "id": "node/11951639266"}, {"type": "Feature", "properties": {"@id": "node/11951640244", "amenity": "bench"}, "geometry": {"type": "Point", "coordinates": [-4.2484583, 57.4526845]}, "id": "node/11951640244"}, {"type": "Feature", "properties": {"@id": "node/11951657799", "amenity": "bench"}, "geometry": {"type": "Point", "coordinates": [-4.2484509, 57.4527211]}, "id": "node/11951657799"}, {"type": "Feature", "properties": {"@id": "node/11951658069", "amenity": "bench"}, "geometry": {"type": "Point", "coordinates": [-4.2485145, 57.4527014]}, "id": "node/11951658069"}, {"type": "Feature", "properties": {"@id": "node/11956024818", "amenity": "bench"}, "geometry": {"type": "Point", "coordinates": [-4.2455832, 57.4637761]}, "id": "node/11956024818"}, {"type": "Feature", "properties": {"@id": "node/11956024819", "amenity": "bench"}, "geometry": {"type": "Point", "coordinates": [-4.2447789, 57.4642502]}, "id": "node/11956024819"}, {"type": "Feature", "properties": {"@id": "node/11956024820", "amenity": "bench"}, "geometry": {"type": "Point", "coordinates": [-4.2443946, 57.4637453]}, "id": "node/11956024820"}, {"type": "Feature", "properties": {"@id": "node/11956024821", "amenity": "bench"}, "geometry": {"type": "Point", "coordinates": [-4.2461115, 57.4639254]}, "id": "node/11956024821"}, {"type": "Feature", "properties": {"@id": "node/11956024822", "amenity": "bench"}, "geometry": {"type": "Point", "coordinates": [-4.2461005, 57.4641392]}, "id": "node/11956024822"}, {"type": "Feature", "properties": {"@id": "node/11973891926", "amenity": "bench"}, "geometry": {"type": "Point", "coordinates": [-4.2456058, 57.4661646]}, "id": "node/11973891926"}, {"type": "Feature", "properties": {"@id": "node/11983636800", "amenity": "bench", "backrest": "no"}, "geometry": {"type": "Point", "coordinates": [-4.2146592, 57.5182213]}, "id": "node/11983636800"}, {"type": "Feature", "properties": {"@id": "node/11998020796", "amenity": "bench"}, "geometry": {"type": "Point", "coordinates": [-3.5152921, 58.5976515]}, "id": "node/11998020796"}, {"type": "Feature", "properties": {"@id": "node/12038378078", "amenity": "bench", "backrest": "yes"}, "geometry": {"type": "Point", "coordinates": [-3.5202841, 58.5969104]}, "id": "node/12038378078"}, {"type": "Feature", "properties": {"@id": "node/12038378079", "amenity": "bench", "backrest": "yes"}, "geometry": {"type": "Point", "coordinates": [-3.521148, 58.5967764]}, "id": "node/12038378079"}, {"type": "Feature", "properties": {"@id": "node/12051926367", "amenity": "bench"}, "geometry": {"type": "Point", "coordinates": [-3.527525, 58.5981185]}, "id": "node/12051926367"}, {"type": "Feature", "properties": {"@id": "node/12051926368", "amenity": "bench"}, "geometry": {"type": "Point", "coordinates": [-3.5273821, 58.5983767]}, "id": "node/12051926368"}, {"type": "Feature", "properties": {"@id": "node/12052001069", "amenity": "bench"}, "geometry": {"type": "Point", "coordinates": [-3.5279416, 58.5982713]}, "id": "node/12052001069"}, {"type": "Feature", "properties": {"@id": "node/12052001070", "amenity": "bench"}, "geometry": {"type": "Point", "coordinates": [-3.5272687, 58.5980697]}, "id": "node/12052001070"}, {"type": "Feature", "properties": {"@id": "node/12052001071", "amenity": "bench"}, "geometry": {"type": "Point", "coordinates": [-3.5271072, 58.5979573]}, "id": "node/12052001071"}, {"type": "Feature", "properties": {"@id": "node/12052001072", "amenity": "bench"}, "geometry": {"type": "Point", "coordinates": [-3.5263039, 58.5973952]}, "id": "node/12052001072"}, {"type": "Feature", "properties": {"@id": "node/12052001073", "amenity": "bench"}, "geometry": {"type": "Point", "coordinates": [-3.5257387, 58.5971436]}, "id": "node/12052001073"}, {"type": "Feature", "properties": {"@id": "node/12085534727", "amenity": "bench"}, "geometry": {"type": "Point", "coordinates": [-4.1750803, 57.4663415]}, "id": "node/12085534727"}, {"type": "Feature", "properties": {"@id": "node/12089523200", "amenity": "bench"}, "geometry": {"type": "Point", "coordinates": [-4.1690688, 57.4699901]}, "id": "node/12089523200"}, {"type": "Feature", "properties": {"@id": "node/12089523201", "amenity": "bench"}, "geometry": {"type": "Point", "coordinates": [-4.1683325, 57.4701286]}, "id": "node/12089523201"}, {"type": "Feature", "properties": {"@id": "node/12115475401", "amenity": "bench"}, "geometry": {"type": "Point", "coordinates": [-4.2341816, 57.462851]}, "id": "node/12115475401"}, {"type": "Feature", "properties": {"@id": "node/12115475501", "amenity": "bench"}, "geometry": {"type": "Point", "coordinates": [-4.2344618, 57.4626412]}, "id": "node/12115475501"}, {"type": "Feature", "properties": {"@id": "node/12115475701", "amenity": "bench"}, "geometry": {"type": "Point", "coordinates": [-4.2341458, 57.4628785]}, "id": "node/12115475701"}, {"type": "Feature", "properties": {"@id": "node/12116554967", "amenity": "bench", "backrest": "no"}, "geometry": {"type": "Point", "coordinates": [-4.2286156, 57.4770562]}, "id": "node/12116554967"}, {"type": "Feature", "properties": {"@id": "node/12135384291", "amenity": "bench", "backrest": "yes"}, "geometry": {"type": "Point", "coordinates": [-4.0399868, 57.9310701]}, "id": "node/12135384291"}, {"type": "Feature", "properties": {"@id": "node/12135410227", "amenity": "bench", "backrest": "yes"}, "geometry": {"type": "Point", "coordinates": [-4.0403574, 57.9312085]}, "id": "node/12135410227"}, {"type": "Feature", "properties": {"@id": "node/12135484964", "amenity": "bench", "backrest": "yes"}, "geometry": {"type": "Point", "coordinates": [-3.9447689, 57.9814728]}, "id": "node/12135484964"}, {"type": "Feature", "properties": {"@id": "node/12146785864", "amenity": "bench", "backrest": "yes"}, "geometry": {"type": "Point", "coordinates": [-3.7053324, 57.5991066]}, "id": "node/12146785864"}, {"type": "Feature", "properties": {"@id": "node/12146808995", "amenity": "bench", "backrest": "yes"}, "geometry": {"type": "Point", "coordinates": [-3.7052798, 57.5990734]}, "id": "node/12146808995"}, {"type": "Feature", "properties": {"@id": "node/12146834045", "amenity": "bench", "backrest": "yes"}, "geometry": {"type": "Point", "coordinates": [-3.7053752, 57.5990933]}, "id": "node/12146834045"}, {"type": "Feature", "properties": {"@id": "node/12146834711", "amenity": "bench", "backrest": "yes"}, "geometry": {"type": "Point", "coordinates": [-3.7053021, 57.5990568]}, "id": "node/12146834711"}, {"type": "Feature", "properties": {"@id": "node/12152385246", "amenity": "bench"}, "geometry": {"type": "Point", "coordinates": [-4.2519745, 57.4622825]}, "id": "node/12152385246"}, {"type": "Feature", "properties": {"@id": "node/12152385247", "amenity": "bench"}, "geometry": {"type": "Point", "coordinates": [-4.2513549, 57.46254]}, "id": "node/12152385247"}, {"type": "Feature", "properties": {"@id": "node/12152385248", "amenity": "bench"}, "geometry": {"type": "Point", "coordinates": [-4.2561373, 57.4615194]}, "id": "node/12152385248"}, {"type": "Feature", "properties": {"@id": "node/12152385249", "amenity": "bench"}, "geometry": {"type": "Point", "coordinates": [-4.2548284, 57.4618829]}, "id": "node/12152385249"}, {"type": "Feature", "properties": {"@id": "node/12152385250", "amenity": "bench"}, "geometry": {"type": "Point", "coordinates": [-4.2511316, 57.4629934]}, "id": "node/12152385250"}, {"type": "Feature", "properties": {"@id": "node/12153828706", "amenity": "bench", "backrest": "yes"}, "geometry": {"type": "Point", "coordinates": [-4.0437918, 57.8161513]}, "id": "node/12153828706"}, {"type": "Feature", "properties": {"@id": "node/12153900670", "amenity": "bench", "backrest": "yes"}, "geometry": {"type": "Point", "coordinates": [-4.0151081, 57.8792017]}, "id": "node/12153900670"}, {"type": "Feature", "properties": {"@id": "node/12153965514", "amenity": "bench", "backrest": "yes"}, "geometry": {"type": "Point", "coordinates": [-4.0294826, 57.8782621]}, "id": "node/12153965514"}, {"type": "Feature", "properties": {"@id": "node/12153969880", "amenity": "bench", "backrest": "yes"}, "geometry": {"type": "Point", "coordinates": [-4.0294778, 57.8782319]}, "id": "node/12153969880"}, {"type": "Feature", "properties": {"@id": "node/12153971476", "amenity": "bench"}, "geometry": {"type": "Point", "coordinates": [-4.0372368, 57.8815344]}, "id": "node/12153971476"}, {"type": "Feature", "properties": {"@id": "node/12153976450", "amenity": "bench", "backrest": "yes"}, "geometry": {"type": "Point", "coordinates": [-4.028773, 57.878458]}, "id": "node/12153976450"}, {"type": "Feature", "properties": {"@id": "node/12153983624", "amenity": "bench", "backrest": "yes"}, "geometry": {"type": "Point", "coordinates": [-4.0151868, 57.879153]}, "id": "node/12153983624"}, {"type": "Feature", "properties": {"@id": "node/12157644087", "amenity": "bench", "backrest": "yes"}, "geometry": {"type": "Point", "coordinates": [-4.1686136, 57.5670938]}, "id": "node/12157644087"}, {"type": "Feature", "properties": {"@id": "node/12165585741", "amenity": "bench", "backrest": "no", "colour": "brown", "material": "wood"}, "geometry": {"type": "Point", "coordinates": [-4.2107465, 57.4798988]}, "id": "node/12165585741"}, {"type": "Feature", "properties": {"@id": "node/12165587511", "amenity": "bench", "backrest": "no", "colour": "brown", "material": "wood"}, "geometry": {"type": "Point", "coordinates": [-4.2107467, 57.4798535]}, "id": "node/12165587511"}, {"type": "Feature", "properties": {"@id": "node/12165588538", "amenity": "bench", "backrest": "no", "colour": "brown", "material": "wood"}, "geometry": {"type": "Point", "coordinates": [-4.2107445, 57.4798027]}, "id": "node/12165588538"}, {"type": "Feature", "properties": {"@id": "node/12165857562", "amenity": "bench", "backrest": "no"}, "geometry": {"type": "Point", "coordinates": [-4.2321756, 57.4809726]}, "id": "node/12165857562"}, {"type": "Feature", "properties": {"@id": "node/12165860988", "amenity": "bench", "backrest": "yes"}, "geometry": {"type": "Point", "coordinates": [-4.2324277, 57.4825562]}, "id": "node/12165860988"}, {"type": "Feature", "properties": {"@id": "node/12165869837", "amenity": "bench", "backrest": "no"}, "geometry": {"type": "Point", "coordinates": [-4.2322255, 57.4810144]}, "id": "node/12165869837"}, {"type": "Feature", "properties": {"@id": "node/12166266626", "amenity": "bench", "backrest": "no", "colour": "brown", "material": "wood"}, "geometry": {"type": "Point", "coordinates": [-4.210754, 57.4797234]}, "id": "node/12166266626"}, {"type": "Feature", "properties": {"@id": "node/12168059186", "amenity": "bench", "backrest": "yes"}, "geometry": {"type": "Point", "coordinates": [-3.6074339, 57.6018366]}, "id": "node/12168059186"}, {"type": "Feature", "properties": {"@id": "node/12168083649", "amenity": "bench", "backrest": "yes"}, "geometry": {"type": "Point", "coordinates": [-3.6080119, 57.6021375]}, "id": "node/12168083649"}, {"type": "Feature", "properties": {"@id": "node/12168085354", "amenity": "bench", "backrest": "yes"}, "geometry": {"type": "Point", "coordinates": [-3.6088511, 57.6017404]}, "id": "node/12168085354"}, {"type": "Feature", "properties": {"@id": "node/12168087419", "amenity": "bench", "backrest": "yes"}, "geometry": {"type": "Point", "coordinates": [-3.6086612, 57.6026497]}, "id": "node/12168087419"}, {"type": "Feature", "properties": {"@id": "node/12168091776", "amenity": "bench", "backrest": "yes"}, "geometry": {"type": "Point", "coordinates": [-3.6077016, 57.6029157]}, "id": "node/12168091776"}, {"type": "Feature", "properties": {"@id": "node/12168095126", "amenity": "bench", "backrest": "yes"}, "geometry": {"type": "Point", "coordinates": [-3.6076508, 57.6019674]}, "id": "node/12168095126"}, {"type": "Feature", "properties": {"@id": "node/12168098050", "amenity": "bench", "backrest": "yes"}, "geometry": {"type": "Point", "coordinates": [-3.6060599, 57.6035035]}, "id": "node/12168098050"}, {"type": "Feature", "properties": {"@id": "node/12168098810", "amenity": "bench", "backrest": "yes"}, "geometry": {"type": "Point", "coordinates": [-3.6081535, 57.6021827]}, "id": "node/12168098810"}, {"type": "Feature", "properties": {"@id": "node/12168099779", "amenity": "bench", "backrest": "no"}, "geometry": {"type": "Point", "coordinates": [-3.6052672, 57.6042686]}, "id": "node/12168099779"}, {"type": "Feature", "properties": {"@id": "node/12168133050", "amenity": "bench", "backrest": "yes"}, "geometry": {"type": "Point", "coordinates": [-3.6012496, 57.6109994]}, "id": "node/12168133050"}, {"type": "Feature", "properties": {"@id": "node/12168159949", "amenity": "bench", "backrest": "no"}, "geometry": {"type": "Point", "coordinates": [-3.6008011, 57.6112013]}, "id": "node/12168159949"}, {"type": "Feature", "properties": {"@id": "node/12168164629", "amenity": "bench", "backrest": "yes"}, "geometry": {"type": "Point", "coordinates": [-3.6045794, 57.6093534]}, "id": "node/12168164629"}, {"type": "Feature", "properties": {"@id": "node/12168830677", "amenity": "bench", "backrest": "yes"}, "geometry": {"type": "Point", "coordinates": [-3.610883, 57.6064002]}, "id": "node/12168830677"}, {"type": "Feature", "properties": {"@id": "node/12168830678", "amenity": "bench", "backrest": "yes"}, "geometry": {"type": "Point", "coordinates": [-3.6108488, 57.6064087]}, "id": "node/12168830678"}, {"type": "Feature", "properties": {"@id": "node/12170237382", "amenity": "bench", "backrest": "yes"}, "geometry": {"type": "Point", "coordinates": [-4.2289059, 57.4745133]}, "id": "node/12170237382"}, {"type": "Feature", "properties": {"@id": "node/12170278997", "amenity": "bench", "backrest": "yes"}, "geometry": {"type": "Point", "coordinates": [-4.2213947, 57.4784737]}, "id": "node/12170278997"}, {"type": "Feature", "properties": {"@id": "node/12173739850", "amenity": "bench"}, "geometry": {"type": "Point", "coordinates": [-4.2226231, 57.4844656]}, "id": "node/12173739850"}, {"type": "Feature", "properties": {"@id": "node/12173739851", "amenity": "bench"}, "geometry": {"type": "Point", "coordinates": [-4.2221866, 57.4843872]}, "id": "node/12173739851"}, {"type": "Feature", "properties": {"@id": "node/12173739852", "amenity": "bench"}, "geometry": {"type": "Point", "coordinates": [-4.2221772, 57.484423]}, "id": "node/12173739852"}, {"type": "Feature", "properties": {"@id": "node/12173739853", "amenity": "bench"}, "geometry": {"type": "Point", "coordinates": [-4.2221668, 57.4844583]}, "id": "node/12173739853"}, {"type": "Feature", "properties": {"@id": "node/12173739854", "amenity": "bench"}, "geometry": {"type": "Point", "coordinates": [-4.2221561, 57.4844931]}, "id": "node/12173739854"}, {"type": "Feature", "properties": {"@id": "node/12173739855", "amenity": "bench"}, "geometry": {"type": "Point", "coordinates": [-4.2221457, 57.484529]}, "id": "node/12173739855"}, {"type": "Feature", "properties": {"@id": "node/12173739856", "amenity": "bench"}, "geometry": {"type": "Point", "coordinates": [-4.2231944, 57.4846279]}, "id": "node/12173739856"}, {"type": "Feature", "properties": {"@id": "node/12173739862", "amenity": "bench"}, "geometry": {"type": "Point", "coordinates": [-4.22266, 57.4844365]}, "id": "node/12173739862"}, {"type": "Feature", "properties": {"@id": "node/12173739863", "amenity": "bench"}, "geometry": {"type": "Point", "coordinates": [-4.2225856, 57.4844964]}, "id": "node/12173739863"}, {"type": "Feature", "properties": {"@id": "node/12173739864", "amenity": "bench"}, "geometry": {"type": "Point", "coordinates": [-4.222549, 57.4845266]}, "id": "node/12173739864"}, {"type": "Feature", "properties": {"@id": "node/12173739865", "amenity": "bench"}, "geometry": {"type": "Point", "coordinates": [-4.2225108, 57.4845569]}, "id": "node/12173739865"}, {"type": "Feature", "properties": {"@id": "node/12175518170", "amenity": "bench"}, "geometry": {"type": "Point", "coordinates": [-4.2494955, 57.486801]}, "id": "node/12175518170"}, {"type": "Feature", "properties": {"@id": "node/12175518171", "amenity": "bench"}, "geometry": {"type": "Point", "coordinates": [-4.2494338, 57.4868258]}, "id": "node/12175518171"}, {"type": "Feature", "properties": {"@id": "node/12182956457", "amenity": "bench"}, "geometry": {"type": "Point", "coordinates": [-4.2414271, 57.4628524]}, "id": "node/12182956457"}, {"type": "Feature", "properties": {"@id": "node/12184880660", "amenity": "bench"}, "geometry": {"type": "Point", "coordinates": [-4.242391, 57.4624401]}, "id": "node/12184880660"}, {"type": "Feature", "properties": {"@id": "node/12184880661", "amenity": "bench"}, "geometry": {"type": "Point", "coordinates": [-4.2423883, 57.4624538]}, "id": "node/12184880661"}, {"type": "Feature", "properties": {"@id": "node/12414195577", "amenity": "bench"}, "geometry": {"type": "Point", "coordinates": [-4.1819588, 57.4561043]}, "id": "node/12414195577"}, {"type": "Feature", "properties": {"@id": "node/12414213209", "amenity": "bench"}, "geometry": {"type": "Point", "coordinates": [-4.1821257, 57.4575143]}, "id": "node/12414213209"}, {"type": "Feature", "properties": {"@id": "node/12415921033", "amenity": "bench", "armrest": "no", "backrest": "no"}, "geometry": {"type": "Point", "coordinates": [-4.4083593, 57.9600619]}, "id": "node/12415921033"}, {"type": "Feature", "properties": {"@id": "node/12415921034", "amenity": "bench", "armrest": "no", "backrest": "no"}, "geometry": {"type": "Point", "coordinates": [-4.4084949, 57.9600249]}, "id": "node/12415921034"}, {"type": "Feature", "properties": {"@id": "node/12423015479", "amenity": "bench"}, "geometry": {"type": "Point", "coordinates": [-4.4668037, 57.5979946]}, "id": "node/12423015479"}, {"type": "Feature", "properties": {"@id": "node/12685856645", "amenity": "bench", "backrest": "yes", "material": "brick"}, "geometry": {"type": "Point", "coordinates": [-4.4018797, 58.0241226]}, "id": "node/12685856645"}, {"type": "Feature", "properties": {"@id": "node/12685856647", "amenity": "bench", "armrest": "yes", "backrest": "yes", "material": "wood"}, "geometry": {"type": "Point", "coordinates": [-4.4015084, 58.0245246]}, "id": "node/12685856647"}, {"type": "Feature", "properties": {"@id": "node/12685856648", "amenity": "bench", "armrest": "yes", "backrest": "yes", "material": "wood"}, "geometry": {"type": "Point", "coordinates": [-4.4014785, 58.0245496]}, "id": "node/12685856648"}, {"type": "Feature", "properties": {"@id": "node/12687253598", "amenity": "bench", "armrest": "no", "backrest": "no", "material": "wood"}, "geometry": {"type": "Point", "coordinates": [-4.399637, 58.023544]}, "id": "node/12687253598"}, {"type": "Feature", "properties": {"@id": "node/12687257753", "amenity": "bench", "armrest": "no", "backrest": "no", "material": "wood"}, "geometry": {"type": "Point", "coordinates": [-4.3995472, 58.0236898]}, "id": "node/12687257753"}, {"type": "Feature", "properties": {"@id": "node/12687257754", "amenity": "bench", "armrest": "no", "backrest": "no", "material": "wood"}, "geometry": {"type": "Point", "coordinates": [-4.3995937, 58.0236983]}, "id": "node/12687257754"}, {"type": "Feature", "properties": {"@id": "node/12688160436", "amenity": "bench"}, "geometry": {"type": "Point", "coordinates": [-4.3962476, 58.0224796]}, "id": "node/12688160436"}, {"type": "Feature", "properties": {"@id": "node/12688160437", "amenity": "bench"}, "geometry": {"type": "Point", "coordinates": [-4.3962084, 58.022509]}, "id": "node/12688160437"}, {"type": "Feature", "properties": {"@id": "node/12788207398", "amenity": "bench", "armrest": "no", "backrest": "no", "material": "wood"}, "geometry": {"type": "Point", "coordinates": [-4.2475699, 57.4932237]}, "id": "node/12788207398"}, {"type": "Feature", "properties": {"@id": "node/12788221602", "amenity": "bench", "armrest": "no", "backrest": "yes", "material": "wood"}, "geometry": {"type": "Point", "coordinates": [-4.2598961, 57.4897316]}, "id": "node/12788221602"}, {"type": "Feature", "properties": {"@id": "node/12788221603", "amenity": "bench", "armrest": "no", "backrest": "yes", "material": "wood"}, "geometry": {"type": "Point", "coordinates": [-4.2614479, 57.4900311]}, "id": "node/12788221603"}, {"type": "Feature", "properties": {"@id": "node/12788221605", "amenity": "bench", "armrest": "no", "backrest": "yes", "material": "wood"}, "geometry": {"type": "Point", "coordinates": [-4.2504637, 57.4908334]}, "id": "node/12788221605"}, {"type": "Feature", "properties": {"@id": "node/12788221606", "amenity": "bench", "armrest": "no", "backrest": "no", "material": "wood"}, "geometry": {"type": "Point", "coordinates": [-4.2501001, 57.4911148]}, "id": "node/12788221606"}, {"type": "Feature", "properties": {"@id": "node/12788221608", "amenity": "bench", "armrest": "no", "backrest": "yes", "material": "wood"}, "geometry": {"type": "Point", "coordinates": [-4.249095, 57.4919391]}, "id": "node/12788221608"}, {"type": "Feature", "properties": {"@id": "node/12788221609", "amenity": "bench", "armrest": "no", "backrest": "no", "material": "wood"}, "geometry": {"type": "Point", "coordinates": [-4.2484396, 57.4924901]}, "id": "node/12788221609"}, {"type": "Feature", "properties": {"@id": "node/12788221612", "amenity": "bench", "armrest": "no", "backrest": "yes", "material": "wood"}, "geometry": {"type": "Point", "coordinates": [-4.245863, 57.4945579]}, "id": "node/12788221612"}, {"type": "Feature", "properties": {"@id": "node/12788221613", "amenity": "bench", "armrest": "no", "backrest": "no", "material": "wood"}, "geometry": {"type": "Point", "coordinates": [-4.2460815, 57.4947159]}, "id": "node/12788221613"}, {"type": "Feature", "properties": {"@id": "node/12788221616", "amenity": "bench", "armrest": "no", "backrest": "yes", "material": "wood"}, "geometry": {"type": "Point", "coordinates": [-4.2462354, 57.494947]}, "id": "node/12788221616"}, {"type": "Feature", "properties": {"@id": "node/12788221618", "amenity": "bench", "armrest": "no", "backrest": "yes", "material": "wood"}, "geometry": {"type": "Point", "coordinates": [-4.2462131, 57.495161]}, "id": "node/12788221618"}, {"type": "Feature", "properties": {"@id": "node/12788221619", "amenity": "bench", "armrest": "no", "backrest": "no", "material": "wood"}, "geometry": {"type": "Point", "coordinates": [-4.246107, 57.4951587]}, "id": "node/12788221619"}, {"type": "Feature", "properties": {"@id": "node/12788221621", "amenity": "bench", "armrest": "no", "backrest": "yes", "material": "wood"}, "geometry": {"type": "Point", "coordinates": [-4.2438666, 57.4948902]}, "id": "node/12788221621"}, {"type": "Feature", "properties": {"@id": "node/12788221622", "amenity": "bench", "armrest": "no", "backrest": "yes", "material": "wood"}, "geometry": {"type": "Point", "coordinates": [-4.2434647, 57.4948398]}, "id": "node/12788221622"}, {"type": "Feature", "properties": {"@id": "node/12788221623", "amenity": "bench", "armrest": "no", "backrest": "no", "material": "wood"}, "geometry": {"type": "Point", "coordinates": [-4.2386675, 57.4936605]}, "id": "node/12788221623"}, {"type": "Feature", "properties": {"@id": "node/12788221634", "amenity": "bench", "armrest": "no", "backrest": "no", "material": "wood", "seats": "3"}, "geometry": {"type": "Point", "coordinates": [-4.2373874, 57.4954624]}, "id": "node/12788221634"}, {"type": "Feature", "properties": {"@id": "node/12788221635", "amenity": "bench", "armrest": "no", "backrest": "no", "material": "wood"}, "geometry": {"type": "Point", "coordinates": [-4.2380736, 57.4943566]}, "id": "node/12788221635"}, {"type": "Feature", "properties": {"@id": "node/12788221636", "amenity": "bench", "armrest": "no", "backrest": "no", "material": "wood"}, "geometry": {"type": "Point", "coordinates": [-4.238435, 57.4939333]}, "id": "node/12788221636"}, {"type": "Feature", "properties": {"@id": "node/12788221637", "amenity": "bench", "armrest": "no", "backrest": "yes", "material": "wood"}, "geometry": {"type": "Point", "coordinates": [-4.2433679, 57.4948226]}, "id": "node/12788221637"}, {"type": "Feature", "properties": {"@id": "node/12795875237", "amenity": "bench", "armrest": "no", "backrest": "no", "material": "wood"}, "geometry": {"type": "Point", "coordinates": [-4.2274089, 57.5139224]}, "id": "node/12795875237"}, {"type": "Feature", "properties": {"@id": "node/12795875238", "amenity": "bench", "armrest": "no", "backrest": "yes", "material": "wood"}, "geometry": {"type": "Point", "coordinates": [-4.2379613, 57.5092285]}, "id": "node/12795875238"}]}