{"type": "FeatureCollection", "features": [{"type": "Feature", "properties": {"@id": "node/423206735", "amenity": "bench"}, "geometry": {"type": "Point", "coordinates": [-1.2751184, 60.198316]}, "id": "node/423206735"}, {"type": "Feature", "properties": {"@id": "node/423236757", "amenity": "bench", "backrest": "yes"}, "geometry": {"type": "Point", "coordinates": [-1.1382296, 60.1459558]}, "id": "node/423236757"}, {"type": "Feature", "properties": {"@id": "node/423236758", "amenity": "bench", "backrest": "yes"}, "geometry": {"type": "Point", "coordinates": [-1.1362355, 60.1467802]}, "id": "node/423236758"}, {"type": "Feature", "properties": {"@id": "node/423236759", "amenity": "bench"}, "geometry": {"type": "Point", "coordinates": [-1.134236, 60.1473962]}, "id": "node/423236759"}, {"type": "Feature", "properties": {"@id": "node/423236760", "amenity": "bench"}, "geometry": {"type": "Point", "coordinates": [-1.1476008, 60.150317]}, "id": "node/423236760"}, {"type": "Feature", "properties": {"@id": "node/423236761", "amenity": "bench"}, "geometry": {"type": "Point", "coordinates": [-1.1456606, 60.1499599]}, "id": "node/423236761"}, {"type": "Feature", "properties": {"@id": "node/2412925921", "amenity": "bench", "backrest": "no"}, "geometry": {"type": "Point", "coordinates": [-1.1416717, 60.1534287]}, "id": "node/2412925921"}, {"type": "Feature", "properties": {"@id": "node/2412925922", "amenity": "bench", "backrest": "no"}, "geometry": {"type": "Point", "coordinates": [-1.1409576, 60.1533559]}, "id": "node/2412925922"}, {"type": "Feature", "properties": {"@id": "node/2412925926", "amenity": "bench", "backrest": "no"}, "geometry": {"type": "Point", "coordinates": [-1.1412128, 60.153381]}, "id": "node/2412925926"}, {"type": "Feature", "properties": {"@id": "node/2412925927", "amenity": "bench", "backrest": "no"}, "geometry": {"type": "Point", "coordinates": [-1.1415001, 60.1534088]}, "id": "node/2412925927"}, {"type": "Feature", "properties": {"@id": "node/2412925928", "amenity": "bench", "backrest": "no"}, "geometry": {"type": "Point", "coordinates": [-1.1413365, 60.1533954]}, "id": "node/2412925928"}, {"type": "Feature", "properties": {"@id": "node/2412925930", "amenity": "bench", "backrest": "no"}, "geometry": {"type": "Point", "coordinates": [-1.1411155, 60.1533735]}, "id": "node/2412925930"}, {"type": "Feature", "properties": {"@id": "node/2412925931", "amenity": "bench", "backrest": "no"}, "geometry": {"type": "Point", "coordinates": [-1.1418246, 60.1534462]}, "id": "node/2412925931"}, {"type": "Feature", "properties": {"@id": "node/2412925932", "amenity": "bench"}, "geometry": {"type": "Point", "coordinates": [-1.1406174, 60.1533273]}, "id": "node/2412925932"}, {"type": "Feature", "properties": {"@id": "node/2412925933", "amenity": "bench", "backrest": "no"}, "geometry": {"type": "Point", "coordinates": [-1.1420097, 60.1534595]}, "id": "node/2412925933"}, {"type": "Feature", "properties": {"@id": "node/4851989770", "amenity": "bench"}, "geometry": {"type": "Point", "coordinates": [-0.9946426, 60.366698]}, "id": "node/4851989770"}, {"type": "Feature", "properties": {"@id": "node/6605101585", "amenity": "bench", "backrest": "no", "seats": "2"}, "geometry": {"type": "Point", "coordinates": [-1.0736103, 60.7311507]}, "id": "node/6605101585"}, {"type": "Feature", "properties": {"@id": "node/6609141386", "amenity": "bench", "backrest": "yes"}, "geometry": {"type": "Point", "coordinates": [-1.1050937, 60.15059]}, "id": "node/6609141386"}, {"type": "Feature", "properties": {"@id": "node/6609181585", "amenity": "bench"}, "geometry": {"type": "Point", "coordinates": [-1.0785563, 60.1508548]}, "id": "node/6609181585"}, {"type": "Feature", "properties": {"@id": "node/6609227189", "amenity": "bench"}, "geometry": {"type": "Point", "coordinates": [-1.0551693, 60.149096]}, "id": "node/6609227189"}, {"type": "Feature", "properties": {"@id": "node/6609935285", "amenity": "bench", "backrest": "yes", "start_date": "2007"}, "geometry": {"type": "Point", "coordinates": [-1.1139192, 60.1508433]}, "id": "node/6609935285"}, {"type": "Feature", "properties": {"@id": "node/6609965385", "amenity": "bench"}, "geometry": {"type": "Point", "coordinates": [-1.1146414, 60.1515435]}, "id": "node/6609965385"}, {"type": "Feature", "properties": {"@id": "node/6609999685", "amenity": "bench"}, "geometry": {"type": "Point", "coordinates": [-1.1210022, 60.1563015]}, "id": "node/6609999685"}, {"type": "Feature", "properties": {"@id": "node/6609999785", "amenity": "bench"}, "geometry": {"type": "Point", "coordinates": [-1.1210435, 60.1562668]}, "id": "node/6609999785"}, {"type": "Feature", "properties": {"@id": "node/6610220786", "amenity": "bench", "backrest": "yes"}, "geometry": {"type": "Point", "coordinates": [-1.1381508, 60.1458299]}, "id": "node/6610220786"}, {"type": "Feature", "properties": {"@id": "node/6622091286", "amenity": "bench", "backrest": "no"}, "geometry": {"type": "Point", "coordinates": [-1.0746047, 60.7308039]}, "id": "node/6622091286"}, {"type": "Feature", "properties": {"@id": "node/6624777912", "amenity": "bench", "backrest": "yes", "seats": "3"}, "geometry": {"type": "Point", "coordinates": [-1.1336427, 60.1476543]}, "id": "node/6624777912"}, {"type": "Feature", "properties": {"@id": "node/6624777913", "amenity": "bench", "backrest": "yes", "seats": "3"}, "geometry": {"type": "Point", "coordinates": [-1.1338667, 60.1475288]}, "id": "node/6624777913"}, {"type": "Feature", "properties": {"@id": "node/6624777914", "amenity": "bench", "backrest": "yes", "seats": "3"}, "geometry": {"type": "Point", "coordinates": [-1.1341376, 60.1473786]}, "id": "node/6624777914"}, {"type": "Feature", "properties": {"@id": "node/6624777915", "amenity": "bench", "backrest": "yes", "seats": "3"}, "geometry": {"type": "Point", "coordinates": [-1.1342476, 60.1473626]}, "id": "node/6624777915"}, {"type": "Feature", "properties": {"@id": "node/6624777916", "amenity": "bench", "backrest": "yes", "seats": "3"}, "geometry": {"type": "Point", "coordinates": [-1.1368044, 60.1463772]}, "id": "node/6624777916"}, {"type": "Feature", "properties": {"@id": "node/6624777917", "amenity": "bench", "backrest": "yes", "seats": "3"}, "geometry": {"type": "Point", "coordinates": [-1.1362585, 60.1466576]}, "id": "node/6624777917"}, {"type": "Feature", "properties": {"@id": "node/7673853801", "amenity": "bench", "backrest": "yes"}, "geometry": {"type": "Point", "coordinates": [-1.144751, 60.1499645]}, "id": "node/7673853801"}, {"type": "Feature", "properties": {"@id": "node/7676894023", "amenity": "bench", "backrest": "yes"}, "geometry": {"type": "Point", "coordinates": [-1.1432321, 60.1487431]}, "id": "node/7676894023"}, {"type": "Feature", "properties": {"@id": "node/11917805807", "amenity": "bench"}, "geometry": {"type": "Point", "coordinates": [-1.1184971, 60.1232074]}, "id": "node/11917805807"}, {"type": "Feature", "properties": {"@id": "node/11918025586", "amenity": "bench", "survey:date": "2024-06-14"}, "geometry": {"type": "Point", "coordinates": [-1.081009, 60.1504805]}, "id": "node/11918025586"}, {"type": "Feature", "properties": {"@id": "node/11919220797", "amenity": "bench"}, "geometry": {"type": "Point", "coordinates": [-1.1327733, 60.1649778]}, "id": "node/11919220797"}, {"type": "Feature", "properties": {"@id": "node/11919226264", "amenity": "bench"}, "geometry": {"type": "Point", "coordinates": [-1.1070259, 60.1696406]}, "id": "node/11919226264"}, {"type": "Feature", "properties": {"@id": "node/12160244101", "amenity": "bench", "outdoor_seating": "no"}, "geometry": {"type": "Point", "coordinates": [-1.1382601, 60.145859]}, "id": "node/12160244101"}]}