{"type": "FeatureCollection", "features": [{"type": "Feature", "properties": {"@id": "node/843623705", "amenity": "bench", "backrest": "no", "material": "wood"}, "geometry": {"type": "Point", "coordinates": [-5.111103, 51.838532]}, "id": "node/843623705"}, {"type": "Feature", "properties": {"@id": "node/1419603561", "amenity": "bench"}, "geometry": {"type": "Point", "coordinates": [-5.2707114, 51.8769594]}, "id": "node/1419603561"}, {"type": "Feature", "properties": {"@id": "node/1419603562", "amenity": "bench"}, "geometry": {"type": "Point", "coordinates": [-5.2706417, 51.8774363]}, "id": "node/1419603562"}, {"type": "Feature", "properties": {"@id": "node/1485714129", "amenity": "bench"}, "geometry": {"type": "Point", "coordinates": [-4.6297468, 52.1384333]}, "id": "node/1485714129"}, {"type": "Feature", "properties": {"@id": "node/1510012239", "amenity": "bench"}, "geometry": {"type": "Point", "coordinates": [-4.7880853, 51.9117362]}, "id": "node/1510012239"}, {"type": "Feature", "properties": {"@id": "node/2153667264", "amenity": "bench", "backrest": "yes"}, "geometry": {"type": "Point", "coordinates": [-5.2617308, 51.8779199]}, "id": "node/2153667264"}, {"type": "Feature", "properties": {"@id": "node/2429959481", "amenity": "bench", "backrest": "no", "colour": "black", "material": "plastic", "seats": "4"}, "geometry": {"type": "Point", "coordinates": [-4.7607518, 51.7112704]}, "id": "node/2429959481"}, {"type": "Feature", "properties": {"@id": "node/2738191688", "amenity": "bench", "backrest": "yes", "colour": "gray", "material": "stone", "seats": "4"}, "geometry": {"type": "Point", "coordinates": [-4.9231044, 51.6143772]}, "id": "node/2738191688"}, {"type": "Feature", "properties": {"@id": "node/3073080864", "amenity": "bench", "backrest": "yes", "material": "wood", "name": "Maddy's Bench for resting, chatting, laughing and remembering", "seats": "3"}, "geometry": {"type": "Point", "coordinates": [-4.8562121, 51.7164221]}, "id": "node/3073080864"}, {"type": "Feature", "properties": {"@id": "node/3111004833", "amenity": "bench"}, "geometry": {"type": "Point", "coordinates": [-4.8949582, 52.0238113]}, "id": "node/3111004833"}, {"type": "Feature", "properties": {"@id": "node/3195575101", "amenity": "bench", "backrest": "yes", "material": "wood"}, "geometry": {"type": "Point", "coordinates": [-4.7433545, 51.798136]}, "id": "node/3195575101"}, {"type": "Feature", "properties": {"@id": "node/3195576593", "amenity": "bench", "backrest": "yes"}, "geometry": {"type": "Point", "coordinates": [-4.7430605, 51.7981023]}, "id": "node/3195576593"}, {"type": "Feature", "properties": {"@id": "node/3195576594", "amenity": "bench", "backrest": "yes"}, "geometry": {"type": "Point", "coordinates": [-4.743506, 51.7982567]}, "id": "node/3195576594"}, {"type": "Feature", "properties": {"@id": "node/3195576595", "amenity": "bench", "backrest": "yes", "colour": "blue", "material": "metal"}, "geometry": {"type": "Point", "coordinates": [-4.7440792, 51.7991647]}, "id": "node/3195576595"}, {"type": "Feature", "properties": {"@id": "node/3195576596", "amenity": "bench", "backrest": "yes", "material": "wood"}, "geometry": {"type": "Point", "coordinates": [-4.7439816, 51.7997043]}, "id": "node/3195576596"}, {"type": "Feature", "properties": {"@id": "node/3678481757", "amenity": "bench"}, "geometry": {"type": "Point", "coordinates": [-4.7370313, 51.7450606]}, "id": "node/3678481757"}, {"type": "Feature", "properties": {"@id": "node/3678481770", "amenity": "bench"}, "geometry": {"type": "Point", "coordinates": [-4.7366987, 51.7451087]}, "id": "node/3678481770"}, {"type": "Feature", "properties": {"@id": "node/3706620189", "amenity": "bench", "material": "wood"}, "geometry": {"type": "Point", "coordinates": [-4.7444096, 51.7959228]}, "id": "node/3706620189"}, {"type": "Feature", "properties": {"@id": "node/3706620190", "amenity": "bench", "material": "wood"}, "geometry": {"type": "Point", "coordinates": [-4.7449171, 51.7962851]}, "id": "node/3706620190"}, {"type": "Feature", "properties": {"@id": "node/4343295143", "amenity": "bench"}, "geometry": {"type": "Point", "coordinates": [-4.7297298, 51.7438326]}, "id": "node/4343295143"}, {"type": "Feature", "properties": {"@id": "node/4343295171", "amenity": "bench"}, "geometry": {"type": "Point", "coordinates": [-4.7297063, 51.7438335]}, "id": "node/4343295171"}, {"type": "Feature", "properties": {"@id": "node/4493272330", "amenity": "bench"}, "geometry": {"type": "Point", "coordinates": [-4.9006938, 51.6248024]}, "id": "node/4493272330"}, {"type": "Feature", "properties": {"@id": "node/4493306279", "amenity": "bench"}, "geometry": {"type": "Point", "coordinates": [-4.8714873, 51.6460495]}, "id": "node/4493306279"}, {"type": "Feature", "properties": {"@id": "node/4493306718", "amenity": "bench"}, "geometry": {"type": "Point", "coordinates": [-4.8705217, 51.646682]}, "id": "node/4493306718"}, {"type": "Feature", "properties": {"@id": "node/4493331312", "amenity": "bench"}, "geometry": {"type": "Point", "coordinates": [-4.8600744, 51.6481236]}, "id": "node/4493331312"}, {"type": "Feature", "properties": {"@id": "node/4499347538", "amenity": "bench"}, "geometry": {"type": "Point", "coordinates": [-4.7711512, 51.6432885]}, "id": "node/4499347538"}, {"type": "Feature", "properties": {"@id": "node/4499362854", "amenity": "bench"}, "geometry": {"type": "Point", "coordinates": [-4.7618976, 51.647659]}, "id": "node/4499362854"}, {"type": "Feature", "properties": {"@id": "node/4502431677", "amenity": "bench", "backrest": "no"}, "geometry": {"type": "Point", "coordinates": [-4.7003894, 51.6837912]}, "id": "node/4502431677"}, {"type": "Feature", "properties": {"@id": "node/4502433306", "amenity": "bench", "backrest": "no"}, "geometry": {"type": "Point", "coordinates": [-4.7000941, 51.6854229]}, "id": "node/4502433306"}, {"type": "Feature", "properties": {"@id": "node/4502433307", "amenity": "bench", "backrest": "no"}, "geometry": {"type": "Point", "coordinates": [-4.6998324, 51.6845182]}, "id": "node/4502433307"}, {"type": "Feature", "properties": {"@id": "node/4512378961", "amenity": "bench"}, "geometry": {"type": "Point", "coordinates": [-4.8324757, 51.7002193]}, "id": "node/4512378961"}, {"type": "Feature", "properties": {"@id": "node/4512378967", "amenity": "bench"}, "geometry": {"type": "Point", "coordinates": [-4.8332383, 51.7000898]}, "id": "node/4512378967"}, {"type": "Feature", "properties": {"@id": "node/4512378974", "amenity": "bench"}, "geometry": {"type": "Point", "coordinates": [-4.8321615, 51.7002312]}, "id": "node/4512378974"}, {"type": "Feature", "properties": {"@id": "node/4512378983", "amenity": "bench"}, "geometry": {"type": "Point", "coordinates": [-4.8323189, 51.7002041]}, "id": "node/4512378983"}, {"type": "Feature", "properties": {"@id": "node/4693256389", "amenity": "bench", "backrest": "yes", "check_date": "2024-06-07"}, "geometry": {"type": "Point", "coordinates": [-4.6982854, 51.7114273]}, "id": "node/4693256389"}, {"type": "Feature", "properties": {"@id": "node/4693256441", "amenity": "bench", "backrest": "yes"}, "geometry": {"type": "Point", "coordinates": [-4.6931782, 51.7166132]}, "id": "node/4693256441"}, {"type": "Feature", "properties": {"@id": "node/4693256444", "amenity": "bench", "backrest": "yes"}, "geometry": {"type": "Point", "coordinates": [-4.6924003, 51.7167424]}, "id": "node/4693256444"}, {"type": "Feature", "properties": {"@id": "node/4693256445", "amenity": "bench", "backrest": "yes"}, "geometry": {"type": "Point", "coordinates": [-4.6918766, 51.7167507]}, "id": "node/4693256445"}, {"type": "Feature", "properties": {"@id": "node/4693256447", "amenity": "bench", "backrest": "no"}, "geometry": {"type": "Point", "coordinates": [-4.6905576, 51.7178738]}, "id": "node/4693256447"}, {"type": "Feature", "properties": {"@id": "node/4693256448", "amenity": "bench", "backrest": "no"}, "geometry": {"type": "Point", "coordinates": [-4.6900494, 51.7189431]}, "id": "node/4693256448"}, {"type": "Feature", "properties": {"@id": "node/4693256449", "amenity": "bench", "backrest": "yes", "material": "wood"}, "geometry": {"type": "Point", "coordinates": [-4.6882872, 51.7205296]}, "id": "node/4693256449"}, {"type": "Feature", "properties": {"@id": "node/4693256450", "amenity": "bench", "backrest": "yes", "material": "wood"}, "geometry": {"type": "Point", "coordinates": [-4.6882496, 51.720552]}, "id": "node/4693256450"}, {"type": "Feature", "properties": {"@id": "node/4693256451", "amenity": "bench", "backrest": "yes", "material": "wood"}, "geometry": {"type": "Point", "coordinates": [-4.6882094, 51.7205728]}, "id": "node/4693256451"}, {"type": "Feature", "properties": {"@id": "node/4693256452", "amenity": "bench", "backrest": "yes", "material": "wood"}, "geometry": {"type": "Point", "coordinates": [-4.6881678, 51.7205919]}, "id": "node/4693256452"}, {"type": "Feature", "properties": {"@id": "node/4693256488", "amenity": "bench", "backrest": "yes"}, "geometry": {"type": "Point", "coordinates": [-4.686771, 51.7224904]}, "id": "node/4693256488"}, {"type": "Feature", "properties": {"@id": "node/4693256489", "amenity": "bench", "backrest": "yes"}, "geometry": {"type": "Point", "coordinates": [-4.6867972, 51.7224717]}, "id": "node/4693256489"}, {"type": "Feature", "properties": {"@id": "node/4693256493", "amenity": "bench", "backrest": "yes"}, "geometry": {"type": "Point", "coordinates": [-4.686997, 51.7222755]}, "id": "node/4693256493"}, {"type": "Feature", "properties": {"@id": "node/4693256494", "amenity": "bench", "backrest": "yes"}, "geometry": {"type": "Point", "coordinates": [-4.6869767, 51.7223005]}, "id": "node/4693256494"}, {"type": "Feature", "properties": {"@id": "node/4693256495", "amenity": "bench", "backrest": "no"}, "geometry": {"type": "Point", "coordinates": [-4.6876428, 51.7219139]}, "id": "node/4693256495"}, {"type": "Feature", "properties": {"@id": "node/4693256496", "amenity": "bench", "backrest": "no"}, "geometry": {"type": "Point", "coordinates": [-4.6878339, 51.7210428]}, "id": "node/4693256496"}, {"type": "Feature", "properties": {"@id": "node/4693317960", "amenity": "bench", "backrest": "yes", "check_date": "2024-08-24"}, "geometry": {"type": "Point", "coordinates": [-4.7006724, 51.6832939]}, "id": "node/4693317960"}, {"type": "Feature", "properties": {"@id": "node/4693317961", "amenity": "bench", "backrest": "yes"}, "geometry": {"type": "Point", "coordinates": [-4.7007878, 51.6825281]}, "id": "node/4693317961"}, {"type": "Feature", "properties": {"@id": "node/4693318831", "amenity": "bench", "backrest": "no"}, "geometry": {"type": "Point", "coordinates": [-4.6855602, 51.6968197]}, "id": "node/4693318831"}, {"type": "Feature", "properties": {"@id": "node/4693318940", "amenity": "bench", "backrest": "no", "check_date": "2024-08-24"}, "geometry": {"type": "Point", "coordinates": [-4.6912364, 51.7019684]}, "id": "node/4693318940"}, {"type": "Feature", "properties": {"@id": "node/4693361045", "amenity": "bench", "backrest": "yes"}, "geometry": {"type": "Point", "coordinates": [-4.7017011, 51.7120217]}, "id": "node/4693361045"}, {"type": "Feature", "properties": {"@id": "node/4693361053", "amenity": "bench", "backrest": "yes"}, "geometry": {"type": "Point", "coordinates": [-4.7120745, 51.7143564]}, "id": "node/4693361053"}, {"type": "Feature", "properties": {"@id": "node/4693452032", "amenity": "bench", "backrest": "yes", "seats": "4"}, "geometry": {"type": "Point", "coordinates": [-4.9194874, 51.6763801]}, "id": "node/4693452032"}, {"type": "Feature", "properties": {"@id": "node/4693553433", "amenity": "bench", "backrest": "no"}, "geometry": {"type": "Point", "coordinates": [-4.9247201, 51.6221728]}, "id": "node/4693553433"}, {"type": "Feature", "properties": {"@id": "node/4693553435", "amenity": "bench", "backrest": "no"}, "geometry": {"type": "Point", "coordinates": [-4.9365124, 51.6153275]}, "id": "node/4693553435"}, {"type": "Feature", "properties": {"@id": "node/4693553436", "amenity": "bench", "backrest": "no"}, "geometry": {"type": "Point", "coordinates": [-4.932749, 51.6140259]}, "id": "node/4693553436"}, {"type": "Feature", "properties": {"@id": "node/4693553438", "amenity": "bench", "backrest": "no"}, "geometry": {"type": "Point", "coordinates": [-4.9294462, 51.6128647]}, "id": "node/4693553438"}, {"type": "Feature", "properties": {"@id": "node/4693553439", "amenity": "bench", "backrest": "no"}, "geometry": {"type": "Point", "coordinates": [-4.9261001, 51.6131187]}, "id": "node/4693553439"}, {"type": "Feature", "properties": {"@id": "node/4693553440", "amenity": "bench", "backrest": "no"}, "geometry": {"type": "Point", "coordinates": [-4.9261853, 51.614642]}, "id": "node/4693553440"}, {"type": "Feature", "properties": {"@id": "node/4693553447", "amenity": "bench", "backrest": "no"}, "geometry": {"type": "Point", "coordinates": [-4.9290509, 51.6140679]}, "id": "node/4693553447"}, {"type": "Feature", "properties": {"@id": "node/4956915011", "amenity": "bench", "backrest": "yes"}, "geometry": {"type": "Point", "coordinates": [-5.2835289, 51.8705266]}, "id": "node/4956915011"}, {"type": "Feature", "properties": {"@id": "node/5038807505", "amenity": "bench", "backrest": "yes", "material": "wood"}, "geometry": {"type": "Point", "coordinates": [-4.8370203, 52.0207137]}, "id": "node/5038807505"}, {"type": "Feature", "properties": {"@id": "node/5038923911", "amenity": "bench", "backrest": "yes"}, "geometry": {"type": "Point", "coordinates": [-4.8468786, 52.0218411]}, "id": "node/5038923911"}, {"type": "Feature", "properties": {"@id": "node/5039251890", "amenity": "bench", "backrest": "yes", "material": "wood"}, "geometry": {"type": "Point", "coordinates": [-4.8261095, 52.0194907]}, "id": "node/5039251890"}, {"type": "Feature", "properties": {"@id": "node/5039275725", "amenity": "bench", "backrest": "yes", "material": "wood"}, "geometry": {"type": "Point", "coordinates": [-4.8261484, 52.0195119]}, "id": "node/5039275725"}, {"type": "Feature", "properties": {"@id": "node/5039275730", "amenity": "bench", "backrest": "yes", "material": "metal;wood"}, "geometry": {"type": "Point", "coordinates": [-4.8262524, 52.0195416]}, "id": "node/5039275730"}, {"type": "Feature", "properties": {"@id": "node/5042886933", "amenity": "bench"}, "geometry": {"type": "Point", "coordinates": [-5.1268769, 51.9596367]}, "id": "node/5042886933"}, {"type": "Feature", "properties": {"@id": "node/5103636227", "amenity": "bench", "backrest": "yes"}, "geometry": {"type": "Point", "coordinates": [-4.6572487, 52.0831707]}, "id": "node/5103636227"}, {"type": "Feature", "properties": {"@id": "node/5108516666", "amenity": "bench", "backrest": "yes"}, "geometry": {"type": "Point", "coordinates": [-4.6567488, 52.0853309]}, "id": "node/5108516666"}, {"type": "Feature", "properties": {"@id": "node/5108516669", "amenity": "bench", "backrest": "yes"}, "geometry": {"type": "Point", "coordinates": [-4.6586591, 52.0856066]}, "id": "node/5108516669"}, {"type": "Feature", "properties": {"@id": "node/5108516672", "amenity": "bench", "backrest": "yes"}, "geometry": {"type": "Point", "coordinates": [-4.6596947, 52.0850198]}, "id": "node/5108516672"}, {"type": "Feature", "properties": {"@id": "node/5108516673", "amenity": "bench", "backrest": "yes"}, "geometry": {"type": "Point", "coordinates": [-4.6597914, 52.0849353]}, "id": "node/5108516673"}, {"type": "Feature", "properties": {"@id": "node/5109662488", "amenity": "bench", "backrest": "yes", "direction": "340"}, "geometry": {"type": "Point", "coordinates": [-4.6613476, 52.0819707]}, "id": "node/5109662488"}, {"type": "Feature", "properties": {"@id": "node/5109662489", "amenity": "bench", "backrest": "yes", "direction": "100"}, "geometry": {"type": "Point", "coordinates": [-4.6613388, 52.081964]}, "id": "node/5109662489"}, {"type": "Feature", "properties": {"@id": "node/5109662490", "amenity": "bench", "backrest": "yes", "direction": "40"}, "geometry": {"type": "Point", "coordinates": [-4.6613409, 52.0819699]}, "id": "node/5109662490"}, {"type": "Feature", "properties": {"@id": "node/5109662491", "amenity": "bench", "backrest": "yes", "direction": "160"}, "geometry": {"type": "Point", "coordinates": [-4.6613429, 52.0819599]}, "id": "node/5109662491"}, {"type": "Feature", "properties": {"@id": "node/5109662492", "amenity": "bench", "backrest": "yes", "direction": "220"}, "geometry": {"type": "Point", "coordinates": [-4.6613494, 52.0819605]}, "id": "node/5109662492"}, {"type": "Feature", "properties": {"@id": "node/5109662493", "amenity": "bench", "backrest": "yes", "direction": "280"}, "geometry": {"type": "Point", "coordinates": [-4.6613521, 52.0819662]}, "id": "node/5109662493"}, {"type": "Feature", "properties": {"@id": "node/5111106754", "amenity": "bench", "backrest": "yes", "direction": "240"}, "geometry": {"type": "Point", "coordinates": [-4.6581757, 52.0839233]}, "id": "node/5111106754"}, {"type": "Feature", "properties": {"@id": "node/5133960152", "amenity": "bench", "backrest": "yes"}, "geometry": {"type": "Point", "coordinates": [-4.6490634, 52.0890721]}, "id": "node/5133960152"}, {"type": "Feature", "properties": {"@id": "node/5133960159", "amenity": "bench", "backrest": "yes"}, "geometry": {"type": "Point", "coordinates": [-4.6544261, 52.091112]}, "id": "node/5133960159"}, {"type": "Feature", "properties": {"@id": "node/5140143782", "amenity": "bench", "backrest": "yes"}, "geometry": {"type": "Point", "coordinates": [-4.6540638, 52.0861241]}, "id": "node/5140143782"}, {"type": "Feature", "properties": {"@id": "node/5140143784", "amenity": "bench", "backrest": "yes"}, "geometry": {"type": "Point", "coordinates": [-4.6495645, 52.0908234]}, "id": "node/5140143784"}, {"type": "Feature", "properties": {"@id": "node/5141820102", "amenity": "bench", "backrest": "yes"}, "geometry": {"type": "Point", "coordinates": [-4.6516561, 52.0854309]}, "id": "node/5141820102"}, {"type": "Feature", "properties": {"@id": "node/5167525881", "amenity": "bench", "backrest": "yes"}, "geometry": {"type": "Point", "coordinates": [-4.6588991, 52.0848172]}, "id": "node/5167525881"}, {"type": "Feature", "properties": {"@id": "node/5241706922", "amenity": "bench", "currency:GBP": "yes", "operator": "4CG"}, "geometry": {"type": "Point", "coordinates": [-4.6596338, 52.0829087]}, "id": "node/5241706922"}, {"type": "Feature", "properties": {"@id": "node/5294146190", "amenity": "bench", "backrest": "yes"}, "geometry": {"type": "Point", "coordinates": [-4.6533671, 52.0864758]}, "id": "node/5294146190"}, {"type": "Feature", "properties": {"@id": "node/5349295737", "amenity": "bench", "backrest": "yes"}, "geometry": {"type": "Point", "coordinates": [-4.6606323, 52.0851918]}, "id": "node/5349295737"}, {"type": "Feature", "properties": {"@id": "node/5349295738", "amenity": "bench", "backrest": "yes"}, "geometry": {"type": "Point", "coordinates": [-4.6606169, 52.0852362]}, "id": "node/5349295738"}, {"type": "Feature", "properties": {"@id": "node/5349295739", "amenity": "bench", "backrest": "yes"}, "geometry": {"type": "Point", "coordinates": [-4.6605053, 52.085274]}, "id": "node/5349295739"}, {"type": "Feature", "properties": {"@id": "node/5361693735", "amenity": "bench", "backrest": "yes"}, "geometry": {"type": "Point", "coordinates": [-4.6598128, 52.0828926]}, "id": "node/5361693735"}, {"type": "Feature", "properties": {"@id": "node/5361693736", "amenity": "bench", "backrest": "yes"}, "geometry": {"type": "Point", "coordinates": [-4.659702, 52.0829809]}, "id": "node/5361693736"}, {"type": "Feature", "properties": {"@id": "node/5361693737", "amenity": "bench", "backrest": "yes"}, "geometry": {"type": "Point", "coordinates": [-4.6596621, 52.0829819]}, "id": "node/5361693737"}, {"type": "Feature", "properties": {"@id": "node/5361693738", "amenity": "bench", "backrest": "yes"}, "geometry": {"type": "Point", "coordinates": [-4.6596809, 52.0829879]}, "id": "node/5361693738"}, {"type": "Feature", "properties": {"@id": "node/5390401747", "amenity": "bench", "backrest": "yes"}, "geometry": {"type": "Point", "coordinates": [-4.6611531, 52.0819139]}, "id": "node/5390401747"}, {"type": "Feature", "properties": {"@id": "node/5390401750", "amenity": "bench", "backrest": "yes"}, "geometry": {"type": "Point", "coordinates": [-4.6611785, 52.0819152]}, "id": "node/5390401750"}, {"type": "Feature", "properties": {"@id": "node/5397030829", "amenity": "bench", "backrest": "yes"}, "geometry": {"type": "Point", "coordinates": [-4.6606473, 52.0820852]}, "id": "node/5397030829"}, {"type": "Feature", "properties": {"@id": "node/5397030830", "amenity": "bench", "backrest": "yes"}, "geometry": {"type": "Point", "coordinates": [-4.6607137, 52.0817129]}, "id": "node/5397030830"}, {"type": "Feature", "properties": {"@id": "node/5397030831", "amenity": "bench", "backrest": "yes"}, "geometry": {"type": "Point", "coordinates": [-4.6608271, 52.0816603]}, "id": "node/5397030831"}, {"type": "Feature", "properties": {"@id": "node/5410937970", "amenity": "bench", "backrest": "yes"}, "geometry": {"type": "Point", "coordinates": [-4.652014, 52.0868452]}, "id": "node/5410937970"}, {"type": "Feature", "properties": {"@id": "node/5557047421", "amenity": "bench", "backrest": "yes"}, "geometry": {"type": "Point", "coordinates": [-4.66031, 52.0800975]}, "id": "node/5557047421"}, {"type": "Feature", "properties": {"@id": "node/5697634403", "amenity": "bench", "backrest": "yes"}, "geometry": {"type": "Point", "coordinates": [-4.6788788, 52.0817102]}, "id": "node/5697634403"}, {"type": "Feature", "properties": {"@id": "node/5697634404", "amenity": "bench", "backrest": "no"}, "geometry": {"type": "Point", "coordinates": [-4.6789057, 52.0817092]}, "id": "node/5697634404"}, {"type": "Feature", "properties": {"@id": "node/5776916684", "amenity": "bench", "backrest": "yes"}, "geometry": {"type": "Point", "coordinates": [-4.6776822, 52.0819555]}, "id": "node/5776916684"}, {"type": "Feature", "properties": {"@id": "node/5776916685", "amenity": "bench", "backrest": "yes"}, "geometry": {"type": "Point", "coordinates": [-4.6777787, 52.082082]}, "id": "node/5776916685"}, {"type": "Feature", "properties": {"@id": "node/5780020602", "amenity": "bench", "backrest": "no"}, "geometry": {"type": "Point", "coordinates": [-4.6825763, 52.081928]}, "id": "node/5780020602"}, {"type": "Feature", "properties": {"@id": "node/5780020603", "amenity": "bench", "backrest": "no"}, "geometry": {"type": "Point", "coordinates": [-4.6825979, 52.0819417]}, "id": "node/5780020603"}, {"type": "Feature", "properties": {"@id": "node/5793999987", "amenity": "bench", "backrest": "yes"}, "geometry": {"type": "Point", "coordinates": [-4.6843491, 52.0803414]}, "id": "node/5793999987"}, {"type": "Feature", "properties": {"@id": "node/5817536383", "amenity": "bench", "backrest": "yes", "material": "wood"}, "geometry": {"type": "Point", "coordinates": [-4.7444737, 51.7958907]}, "id": "node/5817536383"}, {"type": "Feature", "properties": {"@id": "node/5829026461", "amenity": "bench"}, "geometry": {"type": "Point", "coordinates": [-4.9948847, 52.0080469]}, "id": "node/5829026461"}, {"type": "Feature", "properties": {"@id": "node/6019507457", "amenity": "bench", "backrest": "yes", "material": "wood"}, "geometry": {"type": "Point", "coordinates": [-4.7433767, 51.7980538]}, "id": "node/6019507457"}, {"type": "Feature", "properties": {"@id": "node/6019512622", "amenity": "bench", "material": "wood"}, "geometry": {"type": "Point", "coordinates": [-4.7404565, 51.7992074]}, "id": "node/6019512622"}, {"type": "Feature", "properties": {"@id": "node/6019512623", "amenity": "bench", "material": "wood"}, "geometry": {"type": "Point", "coordinates": [-4.7441854, 51.8013513]}, "id": "node/6019512623"}, {"type": "Feature", "properties": {"@id": "node/6026850124", "amenity": "bench", "material": "wood"}, "geometry": {"type": "Point", "coordinates": [-4.7405174, 51.7991711]}, "id": "node/6026850124"}, {"type": "Feature", "properties": {"@id": "node/6026851590", "amenity": "bench", "colour": "blue", "material": "metal"}, "geometry": {"type": "Point", "coordinates": [-4.7392555, 51.7996893]}, "id": "node/6026851590"}, {"type": "Feature", "properties": {"@id": "node/6033869547", "amenity": "bench", "material": "wood"}, "geometry": {"type": "Point", "coordinates": [-4.7389564, 51.799754]}, "id": "node/6033869547"}, {"type": "Feature", "properties": {"@id": "node/6033869548", "amenity": "bench", "material": "wood"}, "geometry": {"type": "Point", "coordinates": [-4.7390597, 51.7998601]}, "id": "node/6033869548"}, {"type": "Feature", "properties": {"@id": "node/6063506167", "amenity": "bench", "backrest": "yes"}, "geometry": {"type": "Point", "coordinates": [-4.6487043, 52.0891954]}, "id": "node/6063506167"}, {"type": "Feature", "properties": {"@id": "node/6299345452", "amenity": "bench", "backrest": "yes"}, "geometry": {"type": "Point", "coordinates": [-4.6343111, 52.0557752]}, "id": "node/6299345452"}, {"type": "Feature", "properties": {"@id": "node/6299345453", "amenity": "bench", "backrest": "yes"}, "geometry": {"type": "Point", "coordinates": [-4.6342412, 52.0557535]}, "id": "node/6299345453"}, {"type": "Feature", "properties": {"@id": "node/6299345454", "amenity": "bench", "backrest": "yes"}, "geometry": {"type": "Point", "coordinates": [-4.6341166, 52.0557123]}, "id": "node/6299345454"}, {"type": "Feature", "properties": {"@id": "node/6424280886", "amenity": "bench", "backrest": "yes"}, "geometry": {"type": "Point", "coordinates": [-4.6111024, 52.1016541]}, "id": "node/6424280886"}, {"type": "Feature", "properties": {"@id": "node/6456669240", "amenity": "bench", "backrest": "yes", "material": "wood"}, "geometry": {"type": "Point", "coordinates": [-4.6615976, 52.0843232]}, "id": "node/6456669240"}, {"type": "Feature", "properties": {"@id": "node/6465503877", "amenity": "bench", "backrest": "yes", "material": "wood", "seats": "6"}, "geometry": {"type": "Point", "coordinates": [-4.664384, 51.8796405]}, "id": "node/6465503877"}, {"type": "Feature", "properties": {"@id": "node/6517812664", "amenity": "bench"}, "geometry": {"type": "Point", "coordinates": [-4.8948414, 52.0237606]}, "id": "node/6517812664"}, {"type": "Feature", "properties": {"@id": "node/6517812665", "amenity": "bench"}, "geometry": {"type": "Point", "coordinates": [-4.8947937, 52.0236914]}, "id": "node/6517812665"}, {"type": "Feature", "properties": {"@id": "node/6517812666", "amenity": "bench"}, "geometry": {"type": "Point", "coordinates": [-4.8947413, 52.0236212]}, "id": "node/6517812666"}, {"type": "Feature", "properties": {"@id": "node/6710127724", "amenity": "bench"}, "geometry": {"type": "Point", "coordinates": [-4.7428595, 51.7979851]}, "id": "node/6710127724"}, {"type": "Feature", "properties": {"@id": "node/6761992667", "amenity": "bench", "level": "0"}, "geometry": {"type": "Point", "coordinates": [-4.6463261, 52.089107]}, "id": "node/6761992667"}, {"type": "Feature", "properties": {"@id": "node/6761992668", "amenity": "bench", "level": "0"}, "geometry": {"type": "Point", "coordinates": [-4.6461483, 52.0890181]}, "id": "node/6761992668"}, {"type": "Feature", "properties": {"@id": "node/6761992669", "amenity": "bench", "level": "0"}, "geometry": {"type": "Point", "coordinates": [-4.6461163, 52.0890067]}, "id": "node/6761992669"}, {"type": "Feature", "properties": {"@id": "node/7064098391", "amenity": "bench", "backrest": "yes", "direction": "120", "material": "wood", "seats": "2"}, "geometry": {"type": "Point", "coordinates": [-4.6618984, 52.0885383]}, "id": "node/7064098391"}, {"type": "Feature", "properties": {"@id": "node/7064098392", "amenity": "bench", "backrest": "yes", "direction": "100", "material": "wood", "seats": "2"}, "geometry": {"type": "Point", "coordinates": [-4.6616496, 52.0887787]}, "id": "node/7064098392"}, {"type": "Feature", "properties": {"@id": "node/7196226332", "amenity": "bench"}, "geometry": {"type": "Point", "coordinates": [-4.6695705, 51.7406073]}, "id": "node/7196226332"}, {"type": "Feature", "properties": {"@id": "node/7418806300", "amenity": "bench", "backrest": "yes", "colour": "black", "material": "steel", "seats": "5"}, "geometry": {"type": "Point", "coordinates": [-4.9445129, 51.705591]}, "id": "node/7418806300"}, {"type": "Feature", "properties": {"@id": "node/7697548917", "amenity": "bench"}, "geometry": {"type": "Point", "coordinates": [-4.6139357, 51.8070551]}, "id": "node/7697548917"}, {"type": "Feature", "properties": {"@id": "node/7746848543", "amenity": "bench"}, "geometry": {"type": "Point", "coordinates": [-4.6076039, 51.8298003]}, "id": "node/7746848543"}, {"type": "Feature", "properties": {"@id": "node/7967456153", "amenity": "bench", "backrest": "yes"}, "geometry": {"type": "Point", "coordinates": [-4.9779985, 51.9947259]}, "id": "node/7967456153"}, {"type": "Feature", "properties": {"@id": "node/7967456154", "amenity": "bench", "backrest": "yes"}, "geometry": {"type": "Point", "coordinates": [-4.97795, 51.9946982]}, "id": "node/7967456154"}, {"type": "Feature", "properties": {"@id": "node/7995007532", "amenity": "bench", "backrest": "yes"}, "geometry": {"type": "Point", "coordinates": [-4.9955436, 51.9697009]}, "id": "node/7995007532"}, {"type": "Feature", "properties": {"@id": "node/8122243011", "amenity": "bench"}, "geometry": {"type": "Point", "coordinates": [-5.0342411, 51.8863672]}, "id": "node/8122243011"}, {"type": "Feature", "properties": {"@id": "node/8439678763", "amenity": "bench"}, "geometry": {"type": "Point", "coordinates": [-4.6957038, 51.672196]}, "id": "node/8439678763"}, {"type": "Feature", "properties": {"@id": "node/8439678764", "amenity": "bench"}, "geometry": {"type": "Point", "coordinates": [-4.6957062, 51.6722195]}, "id": "node/8439678764"}, {"type": "Feature", "properties": {"@id": "node/8439678765", "amenity": "bench", "backrest": "yes"}, "geometry": {"type": "Point", "coordinates": [-4.6957676, 51.6722195]}, "id": "node/8439678765"}, {"type": "Feature", "properties": {"@id": "node/8439678766", "amenity": "bench", "backrest": "yes"}, "geometry": {"type": "Point", "coordinates": [-4.6958279, 51.6722154]}, "id": "node/8439678766"}, {"type": "Feature", "properties": {"@id": "node/8439678767", "amenity": "bench", "backrest": "yes"}, "geometry": {"type": "Point", "coordinates": [-4.6959003, 51.6722102]}, "id": "node/8439678767"}, {"type": "Feature", "properties": {"@id": "node/8439678776", "amenity": "bench", "backrest": "yes"}, "geometry": {"type": "Point", "coordinates": [-4.6959743, 51.6721984]}, "id": "node/8439678776"}, {"type": "Feature", "properties": {"@id": "node/8439678876", "amenity": "bench"}, "geometry": {"type": "Point", "coordinates": [-4.6997238, 51.6701315]}, "id": "node/8439678876"}, {"type": "Feature", "properties": {"@id": "node/8439678877", "amenity": "bench"}, "geometry": {"type": "Point", "coordinates": [-4.6998631, 51.670279]}, "id": "node/8439678877"}, {"type": "Feature", "properties": {"@id": "node/8439678878", "amenity": "bench"}, "geometry": {"type": "Point", "coordinates": [-4.6999951, 51.6704225]}, "id": "node/8439678878"}, {"type": "Feature", "properties": {"@id": "node/8439678904", "amenity": "bench"}, "geometry": {"type": "Point", "coordinates": [-4.7000972, 51.6703088]}, "id": "node/8439678904"}, {"type": "Feature", "properties": {"@id": "node/8439734533", "amenity": "bench"}, "geometry": {"type": "Point", "coordinates": [-4.7030811, 51.6689693]}, "id": "node/8439734533"}, {"type": "Feature", "properties": {"@id": "node/8439734534", "amenity": "bench"}, "geometry": {"type": "Point", "coordinates": [-4.70304, 51.668918]}, "id": "node/8439734534"}, {"type": "Feature", "properties": {"@id": "node/8439734591", "amenity": "bench", "backrest": "yes"}, "geometry": {"type": "Point", "coordinates": [-4.7029358, 51.6687584]}, "id": "node/8439734591"}, {"type": "Feature", "properties": {"@id": "node/8439734592", "amenity": "bench"}, "geometry": {"type": "Point", "coordinates": [-4.7032921, 51.6690045]}, "id": "node/8439734592"}, {"type": "Feature", "properties": {"@id": "node/8439734613", "amenity": "bench"}, "geometry": {"type": "Point", "coordinates": [-4.7044204, 51.6692642]}, "id": "node/8439734613"}, {"type": "Feature", "properties": {"@id": "node/8439734614", "amenity": "bench"}, "geometry": {"type": "Point", "coordinates": [-4.7041154, 51.669075]}, "id": "node/8439734614"}, {"type": "Feature", "properties": {"@id": "node/8439734615", "amenity": "bench", "backrest": "yes"}, "geometry": {"type": "Point", "coordinates": [-4.7039791, 51.6689323]}, "id": "node/8439734615"}, {"type": "Feature", "properties": {"@id": "node/8439734617", "amenity": "bench", "backrest": "yes"}, "geometry": {"type": "Point", "coordinates": [-4.7039466, 51.6689056]}, "id": "node/8439734617"}, {"type": "Feature", "properties": {"@id": "node/8440995708", "amenity": "bench"}, "geometry": {"type": "Point", "coordinates": [-4.6995811, 51.6693182]}, "id": "node/8440995708"}, {"type": "Feature", "properties": {"@id": "node/8440995709", "amenity": "bench"}, "geometry": {"type": "Point", "coordinates": [-4.6995412, 51.6693438]}, "id": "node/8440995709"}, {"type": "Feature", "properties": {"@id": "node/8440995710", "amenity": "bench"}, "geometry": {"type": "Point", "coordinates": [-4.6995056, 51.6693681]}, "id": "node/8440995710"}, {"type": "Feature", "properties": {"@id": "node/8440995711", "amenity": "bench"}, "geometry": {"type": "Point", "coordinates": [-4.6994681, 51.6693929]}, "id": "node/8440995711"}, {"type": "Feature", "properties": {"@id": "node/8440995714", "amenity": "bench"}, "geometry": {"type": "Point", "coordinates": [-4.6995988, 51.6691467]}, "id": "node/8440995714"}, {"type": "Feature", "properties": {"@id": "node/8440995715", "amenity": "bench"}, "geometry": {"type": "Point", "coordinates": [-4.6995719, 51.6692033]}, "id": "node/8440995715"}, {"type": "Feature", "properties": {"@id": "node/8440995716", "amenity": "bench"}, "geometry": {"type": "Point", "coordinates": [-4.6996843, 51.6691691]}, "id": "node/8440995716"}, {"type": "Feature", "properties": {"@id": "node/8440995717", "amenity": "bench"}, "geometry": {"type": "Point", "coordinates": [-4.6997618, 51.6690955]}, "id": "node/8440995717"}, {"type": "Feature", "properties": {"@id": "node/8440995727", "amenity": "bench"}, "geometry": {"type": "Point", "coordinates": [-4.6998925, 51.6691184]}, "id": "node/8440995727"}, {"type": "Feature", "properties": {"@id": "node/8440995728", "amenity": "bench"}, "geometry": {"type": "Point", "coordinates": [-4.6997519, 51.6692175]}, "id": "node/8440995728"}, {"type": "Feature", "properties": {"@id": "node/8440995729", "amenity": "bench"}, "geometry": {"type": "Point", "coordinates": [-4.699717, 51.669243]}, "id": "node/8440995729"}, {"type": "Feature", "properties": {"@id": "node/8440995730", "amenity": "bench"}, "geometry": {"type": "Point", "coordinates": [-4.6996792, 51.6692637]}, "id": "node/8440995730"}, {"type": "Feature", "properties": {"@id": "node/8515107457", "amenity": "bench"}, "geometry": {"type": "Point", "coordinates": [-4.9003582, 51.9301815]}, "id": "node/8515107457"}, {"type": "Feature", "properties": {"@id": "node/8515107458", "amenity": "bench"}, "geometry": {"type": "Point", "coordinates": [-4.9003391, 51.9302652]}, "id": "node/8515107458"}, {"type": "Feature", "properties": {"@id": "node/8566263933", "amenity": "bench", "backrest": "yes", "direction": "345", "inscription": "Croeso i Drewyddel a Thre-boeth", "material": "wood"}, "geometry": {"type": "Point", "coordinates": [-4.7579513, 52.0647211]}, "id": "node/8566263933"}, {"type": "Feature", "properties": {"@id": "node/8579689718", "amenity": "bench", "backrest": "yes", "material": "wood"}, "geometry": {"type": "Point", "coordinates": [-4.7566695, 52.0704367]}, "id": "node/8579689718"}, {"type": "Feature", "properties": {"@id": "node/8579689735", "amenity": "bench", "backrest": "yes", "material": "wood"}, "geometry": {"type": "Point", "coordinates": [-4.7565248, 52.0705723]}, "id": "node/8579689735"}, {"type": "Feature", "properties": {"@id": "node/8697242018", "amenity": "bench", "direction": "255"}, "geometry": {"type": "Point", "coordinates": [-4.7464932, 52.0811516]}, "id": "node/8697242018"}, {"type": "Feature", "properties": {"@id": "node/8747454199", "amenity": "bench"}, "geometry": {"type": "Point", "coordinates": [-4.8704263, 51.7323386]}, "id": "node/8747454199"}, {"type": "Feature", "properties": {"@id": "node/8895891475", "amenity": "bench", "backrest": "yes"}, "geometry": {"type": "Point", "coordinates": [-5.2677615, 51.8814702]}, "id": "node/8895891475"}, {"type": "Feature", "properties": {"@id": "node/8895891476", "amenity": "bench", "backrest": "yes"}, "geometry": {"type": "Point", "coordinates": [-5.2677989, 51.8814471]}, "id": "node/8895891476"}, {"type": "Feature", "properties": {"@id": "node/8895898043", "amenity": "bench", "backrest": "yes"}, "geometry": {"type": "Point", "coordinates": [-5.2657049, 51.8811383]}, "id": "node/8895898043"}, {"type": "Feature", "properties": {"@id": "node/8895898044", "amenity": "bench", "backrest": "yes"}, "geometry": {"type": "Point", "coordinates": [-5.2657019, 51.881112]}, "id": "node/8895898044"}, {"type": "Feature", "properties": {"@id": "node/8895898045", "amenity": "bench", "backrest": "yes"}, "geometry": {"type": "Point", "coordinates": [-5.2657395, 51.8810497]}, "id": "node/8895898045"}, {"type": "Feature", "properties": {"@id": "node/8895898046", "amenity": "bench", "backrest": "yes"}, "geometry": {"type": "Point", "coordinates": [-5.2658366, 51.8811524]}, "id": "node/8895898046"}, {"type": "Feature", "properties": {"@id": "node/8895898047", "amenity": "bench", "backrest": "yes"}, "geometry": {"type": "Point", "coordinates": [-5.2658811, 51.8810668]}, "id": "node/8895898047"}, {"type": "Feature", "properties": {"@id": "node/8895898048", "amenity": "bench", "backrest": "yes"}, "geometry": {"type": "Point", "coordinates": [-5.2657663, 51.8810375]}, "id": "node/8895898048"}, {"type": "Feature", "properties": {"@id": "node/8895900581", "amenity": "bench", "backrest": "yes"}, "geometry": {"type": "Point", "coordinates": [-5.2645135, 51.8809614]}, "id": "node/8895900581"}, {"type": "Feature", "properties": {"@id": "node/8895900582", "amenity": "bench", "backrest": "yes"}, "geometry": {"type": "Point", "coordinates": [-5.2644789, 51.8809461]}, "id": "node/8895900582"}, {"type": "Feature", "properties": {"@id": "node/8895900583", "amenity": "bench", "backrest": "yes"}, "geometry": {"type": "Point", "coordinates": [-5.2644452, 51.8809251]}, "id": "node/8895900583"}, {"type": "Feature", "properties": {"@id": "node/8895900584", "amenity": "bench", "backrest": "yes"}, "geometry": {"type": "Point", "coordinates": [-5.2644098, 51.8809024]}, "id": "node/8895900584"}, {"type": "Feature", "properties": {"@id": "node/8910008200", "amenity": "bench"}, "geometry": {"type": "Point", "coordinates": [-5.2563329, 51.8727634]}, "id": "node/8910008200"}, {"type": "Feature", "properties": {"@id": "node/9084000502", "amenity": "bench", "backrest": "yes"}, "geometry": {"type": "Point", "coordinates": [-4.9689425, 51.9960258]}, "id": "node/9084000502"}, {"type": "Feature", "properties": {"@id": "node/9084000503", "amenity": "bench", "backrest": "yes"}, "geometry": {"type": "Point", "coordinates": [-4.969609, 51.9969952]}, "id": "node/9084000503"}, {"type": "Feature", "properties": {"@id": "node/9084000504", "amenity": "bench", "backrest": "yes"}, "geometry": {"type": "Point", "coordinates": [-4.9710797, 51.9954673]}, "id": "node/9084000504"}, {"type": "Feature", "properties": {"@id": "node/9084000505", "amenity": "bench", "backrest": "yes"}, "geometry": {"type": "Point", "coordinates": [-4.9695153, 51.9969674]}, "id": "node/9084000505"}, {"type": "Feature", "properties": {"@id": "node/9084000506", "amenity": "bench", "backrest": "yes"}, "geometry": {"type": "Point", "coordinates": [-4.9721486, 51.9957666]}, "id": "node/9084000506"}, {"type": "Feature", "properties": {"@id": "node/9084000507", "amenity": "bench", "backrest": "yes"}, "geometry": {"type": "Point", "coordinates": [-4.9692386, 51.9968472]}, "id": "node/9084000507"}, {"type": "Feature", "properties": {"@id": "node/9084000508", "amenity": "bench", "backrest": "yes"}, "geometry": {"type": "Point", "coordinates": [-4.9690545, 51.9967882]}, "id": "node/9084000508"}, {"type": "Feature", "properties": {"@id": "node/9084000509", "amenity": "bench", "backrest": "yes"}, "geometry": {"type": "Point", "coordinates": [-4.9687785, 51.9965527]}, "id": "node/9084000509"}, {"type": "Feature", "properties": {"@id": "node/9084000510", "amenity": "bench", "backrest": "yes"}, "geometry": {"type": "Point", "coordinates": [-4.9687564, 51.996495]}, "id": "node/9084000510"}, {"type": "Feature", "properties": {"@id": "node/9084000511", "amenity": "bench", "backrest": "yes"}, "geometry": {"type": "Point", "coordinates": [-4.9687311, 51.996436]}, "id": "node/9084000511"}, {"type": "Feature", "properties": {"@id": "node/9084000512", "amenity": "bench", "backrest": "yes"}, "geometry": {"type": "Point", "coordinates": [-4.9687343, 51.9961564]}, "id": "node/9084000512"}, {"type": "Feature", "properties": {"@id": "node/9087982872", "amenity": "bench", "backrest": "no"}, "geometry": {"type": "Point", "coordinates": [-5.2064761, 51.9374392]}, "id": "node/9087982872"}, {"type": "Feature", "properties": {"@id": "node/9088549280", "amenity": "bench", "backrest": "no", "material": "wood"}, "geometry": {"type": "Point", "coordinates": [-4.6339486, 52.0567294]}, "id": "node/9088549280"}, {"type": "Feature", "properties": {"@id": "node/9091561921", "amenity": "bench", "backrest": "yes"}, "geometry": {"type": "Point", "coordinates": [-4.8330867, 51.7001032]}, "id": "node/9091561921"}, {"type": "Feature", "properties": {"@id": "node/9091588059", "amenity": "bench", "backrest": "yes"}, "geometry": {"type": "Point", "coordinates": [-4.8299045, 51.7000093]}, "id": "node/9091588059"}, {"type": "Feature", "properties": {"@id": "node/9091593824", "amenity": "bench", "backrest": "yes"}, "geometry": {"type": "Point", "coordinates": [-4.8345257, 51.7001743]}, "id": "node/9091593824"}, {"type": "Feature", "properties": {"@id": "node/9094027310", "amenity": "bench", "backrest": "no", "material": "wood"}, "geometry": {"type": "Point", "coordinates": [-5.2830072, 51.7383822]}, "id": "node/9094027310"}, {"type": "Feature", "properties": {"@id": "node/9094064820", "amenity": "bench", "backrest": "yes"}, "geometry": {"type": "Point", "coordinates": [-5.2834645, 51.7379256]}, "id": "node/9094064820"}, {"type": "Feature", "properties": {"@id": "node/9094177719", "amenity": "bench", "backrest": "yes"}, "geometry": {"type": "Point", "coordinates": [-5.2945736, 51.7386326]}, "id": "node/9094177719"}, {"type": "Feature", "properties": {"@id": "node/9101824794", "amenity": "bench", "backrest": "yes", "material": "wood"}, "geometry": {"type": "Point", "coordinates": [-4.9707363, 51.9044832]}, "id": "node/9101824794"}, {"type": "Feature", "properties": {"@id": "node/9175438164", "amenity": "bench"}, "geometry": {"type": "Point", "coordinates": [-4.6762199, 51.7347306]}, "id": "node/9175438164"}, {"type": "Feature", "properties": {"@id": "node/9216013157", "amenity": "bench"}, "geometry": {"type": "Point", "coordinates": [-4.6523193, 51.7576072]}, "id": "node/9216013157"}, {"type": "Feature", "properties": {"@id": "node/9385559814", "amenity": "bench"}, "geometry": {"type": "Point", "coordinates": [-4.8614413, 51.8856023]}, "id": "node/9385559814"}, {"type": "Feature", "properties": {"@id": "node/9536068414", "amenity": "bench"}, "geometry": {"type": "Point", "coordinates": [-4.816688, 51.8940575]}, "id": "node/9536068414"}, {"type": "Feature", "properties": {"@id": "node/9656447784", "amenity": "bench"}, "geometry": {"type": "Point", "coordinates": [-4.7980312, 51.6459269]}, "id": "node/9656447784"}, {"type": "Feature", "properties": {"@id": "node/9656691991", "amenity": "bench", "backrest": "no"}, "geometry": {"type": "Point", "coordinates": [-4.7756235, 51.6431016]}, "id": "node/9656691991"}, {"type": "Feature", "properties": {"@id": "node/9678531071", "amenity": "bench"}, "geometry": {"type": "Point", "coordinates": [-4.769926, 52.0170833]}, "id": "node/9678531071"}, {"type": "Feature", "properties": {"@id": "node/9678572799", "amenity": "bench"}, "geometry": {"type": "Point", "coordinates": [-4.8244278, 51.7255715]}, "id": "node/9678572799"}, {"type": "Feature", "properties": {"@id": "node/9688705598", "amenity": "bench", "backrest": "yes", "direction": "225"}, "geometry": {"type": "Point", "coordinates": [-4.7953404, 52.0250092]}, "id": "node/9688705598"}, {"type": "Feature", "properties": {"@id": "node/9875086717", "amenity": "bench", "backrest": "no"}, "geometry": {"type": "Point", "coordinates": [-5.0701346, 52.0294054]}, "id": "node/9875086717"}, {"type": "Feature", "properties": {"@id": "node/9887722835", "amenity": "bench", "backrest": "no"}, "geometry": {"type": "Point", "coordinates": [-4.6044912, 52.1327202]}, "id": "node/9887722835"}, {"type": "Feature", "properties": {"@id": "node/9889912110", "amenity": "bench", "backrest": "no"}, "geometry": {"type": "Point", "coordinates": [-4.9485585, 51.7218448]}, "id": "node/9889912110"}, {"type": "Feature", "properties": {"@id": "node/9889958554", "amenity": "bench"}, "geometry": {"type": "Point", "coordinates": [-4.946231, 51.7189317]}, "id": "node/9889958554"}, {"type": "Feature", "properties": {"@id": "node/9889959267", "amenity": "bench"}, "geometry": {"type": "Point", "coordinates": [-4.9444523, 51.7176099]}, "id": "node/9889959267"}, {"type": "Feature", "properties": {"@id": "node/9899671951", "amenity": "bench"}, "geometry": {"type": "Point", "coordinates": [-4.9650862, 51.7322774]}, "id": "node/9899671951"}, {"type": "Feature", "properties": {"@id": "node/9899716414", "amenity": "bench"}, "geometry": {"type": "Point", "coordinates": [-4.9610034, 51.7304613]}, "id": "node/9899716414"}, {"type": "Feature", "properties": {"@id": "node/9899716602", "amenity": "bench"}, "geometry": {"type": "Point", "coordinates": [-4.9485938, 51.7218331]}, "id": "node/9899716602"}, {"type": "Feature", "properties": {"@id": "node/9899727447", "amenity": "bench", "description": "joshua"}, "geometry": {"type": "Point", "coordinates": [-5.2000001, 51.7167961]}, "id": "node/9899727447"}, {"type": "Feature", "properties": {"@id": "node/9899729393", "amenity": "bench", "description": "David Park 1951 - 2016"}, "geometry": {"type": "Point", "coordinates": [-4.9429016, 51.7113016]}, "id": "node/9899729393"}, {"type": "Feature", "properties": {"@id": "node/9923433306", "amenity": "bench", "backrest": "yes", "direction": "150", "material": "wood", "seats": "2"}, "geometry": {"type": "Point", "coordinates": [-4.6620165, 52.0885567]}, "id": "node/9923433306"}, {"type": "Feature", "properties": {"@id": "node/9950591674", "amenity": "bench"}, "geometry": {"type": "Point", "coordinates": [-4.9032968, 52.0217301]}, "id": "node/9950591674"}, {"type": "Feature", "properties": {"@id": "node/9950612367", "amenity": "bench"}, "geometry": {"type": "Point", "coordinates": [-4.9013955, 52.0219954]}, "id": "node/9950612367"}, {"type": "Feature", "properties": {"@id": "node/9950619616", "amenity": "bench"}, "geometry": {"type": "Point", "coordinates": [-4.9004661, 52.0222123]}, "id": "node/9950619616"}, {"type": "Feature", "properties": {"@id": "node/9951189428", "amenity": "bench", "backrest": "yes"}, "geometry": {"type": "Point", "coordinates": [-4.8502797, 52.0218211]}, "id": "node/9951189428"}, {"type": "Feature", "properties": {"@id": "node/9951191022", "amenity": "bench", "backrest": "yes"}, "geometry": {"type": "Point", "coordinates": [-4.8501456, 52.0218118]}, "id": "node/9951191022"}, {"type": "Feature", "properties": {"@id": "node/9951191023", "amenity": "bench", "backrest": "yes"}, "geometry": {"type": "Point", "coordinates": [-4.8500222, 52.021794]}, "id": "node/9951191023"}, {"type": "Feature", "properties": {"@id": "node/9955397242", "amenity": "bench", "backrest": "no"}, "geometry": {"type": "Point", "coordinates": [-5.1869517, 51.9500383]}, "id": "node/9955397242"}, {"type": "Feature", "properties": {"@id": "node/10075543537", "amenity": "bench"}, "geometry": {"type": "Point", "coordinates": [-5.307233, 51.8762633]}, "id": "node/10075543537"}, {"type": "Feature", "properties": {"@id": "node/10542223894", "amenity": "bench"}, "geometry": {"type": "Point", "coordinates": [-5.0270694, 51.7101919]}, "id": "node/10542223894"}, {"type": "Feature", "properties": {"@id": "node/10542223895", "amenity": "bench"}, "geometry": {"type": "Point", "coordinates": [-5.0265146, 51.7102254]}, "id": "node/10542223895"}, {"type": "Feature", "properties": {"@id": "node/10542223896", "amenity": "bench"}, "geometry": {"type": "Point", "coordinates": [-5.0259453, 51.7102606]}, "id": "node/10542223896"}, {"type": "Feature", "properties": {"@id": "node/10542223897", "amenity": "bench"}, "geometry": {"type": "Point", "coordinates": [-5.0251507, 51.7103025]}, "id": "node/10542223897"}, {"type": "Feature", "properties": {"@id": "node/10542223898", "amenity": "bench"}, "geometry": {"type": "Point", "coordinates": [-5.0246074, 51.7103294]}, "id": "node/10542223898"}, {"type": "Feature", "properties": {"@id": "node/10542223899", "amenity": "bench"}, "geometry": {"type": "Point", "coordinates": [-5.0288221, 51.7101755]}, "id": "node/10542223899"}, {"type": "Feature", "properties": {"@id": "node/10588799627", "amenity": "bench"}, "geometry": {"type": "Point", "coordinates": [-4.969259, 51.8730934]}, "id": "node/10588799627"}, {"type": "Feature", "properties": {"@id": "node/10802631633", "amenity": "bench", "backrest": "no", "material": "wood", "seats": "4"}, "geometry": {"type": "Point", "coordinates": [-5.1075634, 51.7740431]}, "id": "node/10802631633"}, {"type": "Feature", "properties": {"@id": "node/10802631634", "amenity": "bench", "backrest": "no", "material": "wood", "seats": "4"}, "geometry": {"type": "Point", "coordinates": [-5.1075984, 51.774007]}, "id": "node/10802631634"}, {"type": "Feature", "properties": {"@id": "node/10802631635", "amenity": "bench", "backrest": "no", "material": "wood", "seats": "4"}, "geometry": {"type": "Point", "coordinates": [-5.1076262, 51.7739754]}, "id": "node/10802631635"}, {"type": "Feature", "properties": {"@id": "node/10802631636", "amenity": "bench", "backrest": "no", "material": "wood", "seats": "4"}, "geometry": {"type": "Point", "coordinates": [-5.1076559, 51.7739308]}, "id": "node/10802631636"}, {"type": "Feature", "properties": {"@id": "node/10802631637", "amenity": "bench", "backrest": "no", "material": "wood", "seats": "4"}, "geometry": {"type": "Point", "coordinates": [-5.1076533, 51.7738857]}, "id": "node/10802631637"}, {"type": "Feature", "properties": {"@id": "node/10802631642", "amenity": "bench", "backrest": "no", "material": "wood", "seats": "4"}, "geometry": {"type": "Point", "coordinates": [-5.1079318, 51.7737963]}, "id": "node/10802631642"}, {"type": "Feature", "properties": {"@id": "node/10802631643", "amenity": "bench", "backrest": "no", "material": "wood", "seats": "4"}, "geometry": {"type": "Point", "coordinates": [-5.1079785, 51.7737836]}, "id": "node/10802631643"}, {"type": "Feature", "properties": {"@id": "node/10802631644", "amenity": "bench", "backrest": "no", "material": "wood", "seats": "4"}, "geometry": {"type": "Point", "coordinates": [-5.1080313, 51.7737683]}, "id": "node/10802631644"}, {"type": "Feature", "properties": {"@id": "node/10802631645", "amenity": "bench", "backrest": "no", "material": "wood", "seats": "4"}, "geometry": {"type": "Point", "coordinates": [-5.1080812, 51.7737583]}, "id": "node/10802631645"}, {"type": "Feature", "properties": {"@id": "node/10802778435", "amenity": "bench", "backrest": "no", "material": "wood", "seats": "3"}, "geometry": {"type": "Point", "coordinates": [-5.1014014, 51.7834361]}, "id": "node/10802778435"}, {"type": "Feature", "properties": {"@id": "node/10802778436", "amenity": "bench", "backrest": "no", "material": "wood", "seats": "3"}, "geometry": {"type": "Point", "coordinates": [-5.1013671, 51.7834755]}, "id": "node/10802778436"}, {"type": "Feature", "properties": {"@id": "node/10802778437", "amenity": "bench", "backrest": "no", "material": "wood", "seats": "3"}, "geometry": {"type": "Point", "coordinates": [-5.1013169, 51.7835011]}, "id": "node/10802778437"}, {"type": "Feature", "properties": {"@id": "node/10802778438", "amenity": "bench", "backrest": "no", "material": "wood", "seats": "3"}, "geometry": {"type": "Point", "coordinates": [-5.1012539, 51.7835141]}, "id": "node/10802778438"}, {"type": "Feature", "properties": {"@id": "node/11006429333", "amenity": "bench"}, "geometry": {"type": "Point", "coordinates": [-5.0026269, 52.0027328]}, "id": "node/11006429333"}, {"type": "Feature", "properties": {"@id": "node/11076974044", "amenity": "bench"}, "geometry": {"type": "Point", "coordinates": [-4.9091935, 51.6753306]}, "id": "node/11076974044"}, {"type": "Feature", "properties": {"@id": "node/11077211426", "amenity": "bench"}, "geometry": {"type": "Point", "coordinates": [-5.1128251, 51.6903772]}, "id": "node/11077211426"}, {"type": "Feature", "properties": {"@id": "node/11079135563", "amenity": "bench", "backrest": "no"}, "geometry": {"type": "Point", "coordinates": [-4.9227978, 51.6114627]}, "id": "node/11079135563"}, {"type": "Feature", "properties": {"@id": "node/11079167109", "amenity": "bench", "backrest": "no"}, "geometry": {"type": "Point", "coordinates": [-4.9228763, 51.6115004]}, "id": "node/11079167109"}, {"type": "Feature", "properties": {"@id": "node/11079274639", "amenity": "bench"}, "geometry": {"type": "Point", "coordinates": [-4.9248754, 51.6075208]}, "id": "node/11079274639"}, {"type": "Feature", "properties": {"@id": "node/11093298345", "amenity": "bench"}, "geometry": {"type": "Point", "coordinates": [-4.6967591, 51.671961]}, "id": "node/11093298345"}, {"type": "Feature", "properties": {"@id": "node/11093298346", "amenity": "bench"}, "geometry": {"type": "Point", "coordinates": [-4.6970184, 51.671878]}, "id": "node/11093298346"}, {"type": "Feature", "properties": {"@id": "node/11093298347", "amenity": "bench"}, "geometry": {"type": "Point", "coordinates": [-4.6969734, 51.6718918]}, "id": "node/11093298347"}, {"type": "Feature", "properties": {"@id": "node/11093298383", "amenity": "bench"}, "geometry": {"type": "Point", "coordinates": [-4.6970657, 51.6719705]}, "id": "node/11093298383"}, {"type": "Feature", "properties": {"@id": "node/11093298384", "amenity": "bench"}, "geometry": {"type": "Point", "coordinates": [-4.6970834, 51.6719894]}, "id": "node/11093298384"}, {"type": "Feature", "properties": {"@id": "node/11093298385", "amenity": "bench"}, "geometry": {"type": "Point", "coordinates": [-4.6970536, 51.6720045]}, "id": "node/11093298385"}, {"type": "Feature", "properties": {"@id": "node/11093311343", "amenity": "bench"}, "geometry": {"type": "Point", "coordinates": [-4.6970993, 51.6720077]}, "id": "node/11093311343"}, {"type": "Feature", "properties": {"@id": "node/11103397575", "amenity": "bench", "backrest": "yes"}, "geometry": {"type": "Point", "coordinates": [-4.6988613, 51.6716533]}, "id": "node/11103397575"}, {"type": "Feature", "properties": {"@id": "node/11103397576", "amenity": "bench", "backrest": "yes"}, "geometry": {"type": "Point", "coordinates": [-4.698765, 51.6716381]}, "id": "node/11103397576"}, {"type": "Feature", "properties": {"@id": "node/11103397577", "amenity": "bench", "backrest": "yes"}, "geometry": {"type": "Point", "coordinates": [-4.6987165, 51.671628]}, "id": "node/11103397577"}, {"type": "Feature", "properties": {"@id": "node/11104730721", "amenity": "bench", "backrest": "yes"}, "geometry": {"type": "Point", "coordinates": [-5.0345006, 51.7120956]}, "id": "node/11104730721"}, {"type": "Feature", "properties": {"@id": "node/11104730722", "amenity": "bench", "backrest": "yes"}, "geometry": {"type": "Point", "coordinates": [-5.0342471, 51.7120657]}, "id": "node/11104730722"}, {"type": "Feature", "properties": {"@id": "node/11104730723", "amenity": "bench", "backrest": "yes"}, "geometry": {"type": "Point", "coordinates": [-5.0330039, 51.7119635]}, "id": "node/11104730723"}, {"type": "Feature", "properties": {"@id": "node/11104730724", "amenity": "bench", "backrest": "yes"}, "geometry": {"type": "Point", "coordinates": [-5.0324849, 51.7118471]}, "id": "node/11104730724"}, {"type": "Feature", "properties": {"@id": "node/11134690500", "amenity": "bench"}, "geometry": {"type": "Point", "coordinates": [-4.6974547, 51.6722043]}, "id": "node/11134690500"}, {"type": "Feature", "properties": {"@id": "node/11134690501", "amenity": "bench"}, "geometry": {"type": "Point", "coordinates": [-4.6974593, 51.6721766]}, "id": "node/11134690501"}, {"type": "Feature", "properties": {"@id": "node/11134690502", "amenity": "bench"}, "geometry": {"type": "Point", "coordinates": [-4.6974638, 51.672152]}, "id": "node/11134690502"}, {"type": "Feature", "properties": {"@id": "node/11134690503", "amenity": "bench"}, "geometry": {"type": "Point", "coordinates": [-4.6974715, 51.6720886]}, "id": "node/11134690503"}, {"type": "Feature", "properties": {"@id": "node/11134690504", "amenity": "bench"}, "geometry": {"type": "Point", "coordinates": [-4.6974669, 51.672122]}, "id": "node/11134690504"}, {"type": "Feature", "properties": {"@id": "node/11226648204", "amenity": "bench", "backrest": "yes", "material": "wood"}, "geometry": {"type": "Point", "coordinates": [-5.1863167, 51.7084401]}, "id": "node/11226648204"}, {"type": "Feature", "properties": {"@id": "node/11260937629", "amenity": "bench"}, "geometry": {"type": "Point", "coordinates": [-4.8413638, 52.0210974]}, "id": "node/11260937629"}, {"type": "Feature", "properties": {"@id": "node/11260937630", "amenity": "bench"}, "geometry": {"type": "Point", "coordinates": [-4.8412221, 52.0211789]}, "id": "node/11260937630"}, {"type": "Feature", "properties": {"@id": "node/11261015879", "amenity": "bench", "backrest": "no"}, "geometry": {"type": "Point", "coordinates": [-4.8680057, 52.0188889]}, "id": "node/11261015879"}, {"type": "Feature", "properties": {"@id": "node/11261021502", "amenity": "bench"}, "geometry": {"type": "Point", "coordinates": [-4.8946232, 52.0234508]}, "id": "node/11261021502"}, {"type": "Feature", "properties": {"@id": "node/11263092095", "amenity": "bench", "backrest": "yes"}, "geometry": {"type": "Point", "coordinates": [-4.9864313, 51.9990382]}, "id": "node/11263092095"}, {"type": "Feature", "properties": {"@id": "node/11263092096", "amenity": "bench", "backrest": "yes"}, "geometry": {"type": "Point", "coordinates": [-4.9854282, 51.9993569]}, "id": "node/11263092096"}, {"type": "Feature", "properties": {"@id": "node/11263092097", "amenity": "bench", "backrest": "yes"}, "geometry": {"type": "Point", "coordinates": [-4.9859392, 51.999219]}, "id": "node/11263092097"}, {"type": "Feature", "properties": {"@id": "node/11263092098", "amenity": "bench", "backrest": "yes"}, "geometry": {"type": "Point", "coordinates": [-4.9862785, 51.9991158]}, "id": "node/11263092098"}, {"type": "Feature", "properties": {"@id": "node/11263092099", "amenity": "bench", "backrest": "yes"}, "geometry": {"type": "Point", "coordinates": [-4.9850699, 51.9994495]}, "id": "node/11263092099"}, {"type": "Feature", "properties": {"@id": "node/11263092100", "amenity": "bench", "backrest": "yes"}, "geometry": {"type": "Point", "coordinates": [-4.9849542, 51.9994784]}, "id": "node/11263092100"}, {"type": "Feature", "properties": {"@id": "node/11283726895", "amenity": "bench"}, "geometry": {"type": "Point", "coordinates": [-4.6944658, 51.8107184]}, "id": "node/11283726895"}, {"type": "Feature", "properties": {"@id": "node/11369449287", "amenity": "bench", "backrest": "yes"}, "geometry": {"type": "Point", "coordinates": [-4.7472765, 51.8003995]}, "id": "node/11369449287"}, {"type": "Feature", "properties": {"@id": "node/11369828686", "amenity": "bench", "backrest": "yes"}, "geometry": {"type": "Point", "coordinates": [-4.7312333, 51.8013897]}, "id": "node/11369828686"}, {"type": "Feature", "properties": {"@id": "node/11509673357", "amenity": "bench", "backrest": "yes", "material": "plastic"}, "geometry": {"type": "Point", "coordinates": [-4.7444099, 51.8011816]}, "id": "node/11509673357"}, {"type": "Feature", "properties": {"@id": "node/11641502561", "amenity": "bench"}, "geometry": {"type": "Point", "coordinates": [-4.9215766, 51.6768506]}, "id": "node/11641502561"}, {"type": "Feature", "properties": {"@id": "node/11641502562", "amenity": "bench"}, "geometry": {"type": "Point", "coordinates": [-4.9216175, 51.6770714]}, "id": "node/11641502562"}, {"type": "Feature", "properties": {"@id": "node/11641502565", "amenity": "bench"}, "geometry": {"type": "Point", "coordinates": [-4.9213479, 51.6775546]}, "id": "node/11641502565"}, {"type": "Feature", "properties": {"@id": "node/11641502568", "amenity": "bench"}, "geometry": {"type": "Point", "coordinates": [-4.921018, 51.6775746]}, "id": "node/11641502568"}, {"type": "Feature", "properties": {"@id": "node/11716466151", "amenity": "bench", "backrest": "no", "material": "wood"}, "geometry": {"type": "Point", "coordinates": [-5.1110046, 51.8383687]}, "id": "node/11716466151"}, {"type": "Feature", "properties": {"@id": "node/11811865104", "amenity": "bench", "backrest": "yes", "material": "wood"}, "geometry": {"type": "Point", "coordinates": [-4.7433721, 51.7981314]}, "id": "node/11811865104"}, {"type": "Feature", "properties": {"@id": "node/11854177371", "amenity": "bench"}, "geometry": {"type": "Point", "coordinates": [-4.8363729, 51.9750729]}, "id": "node/11854177371"}, {"type": "Feature", "properties": {"@id": "node/11871668436", "amenity": "bench"}, "geometry": {"type": "Point", "coordinates": [-4.97014, 51.8075627]}, "id": "node/11871668436"}, {"type": "Feature", "properties": {"@id": "node/11874967315", "amenity": "bench", "backrest": "yes", "material": "metal"}, "geometry": {"type": "Point", "coordinates": [-4.9897769, 52.0125526]}, "id": "node/11874967315"}, {"type": "Feature", "properties": {"@id": "node/11874967316", "amenity": "bench", "backrest": "yes", "material": "metal"}, "geometry": {"type": "Point", "coordinates": [-4.9897786, 52.0125099]}, "id": "node/11874967316"}, {"type": "Feature", "properties": {"@id": "node/11874967317", "amenity": "bench", "backrest": "yes", "material": "metal"}, "geometry": {"type": "Point", "coordinates": [-4.9897864, 52.0124672]}, "id": "node/11874967317"}, {"type": "Feature", "properties": {"@id": "node/11968998669", "amenity": "bench"}, "geometry": {"type": "Point", "coordinates": [-4.9232205, 51.6770444]}, "id": "node/11968998669"}, {"type": "Feature", "properties": {"@id": "node/12090991063", "amenity": "bench", "backrest": "yes", "material": "wood"}, "geometry": {"type": "Point", "coordinates": [-4.7956647, 51.7978555]}, "id": "node/12090991063"}, {"type": "Feature", "properties": {"@id": "node/12091821800", "amenity": "bench", "backrest": "yes", "material": "wood"}, "geometry": {"type": "Point", "coordinates": [-4.7967601, 51.7967119]}, "id": "node/12091821800"}, {"type": "Feature", "properties": {"@id": "node/12091821830", "amenity": "bench", "backrest": "yes", "material": "wood"}, "geometry": {"type": "Point", "coordinates": [-4.797131, 51.8002432]}, "id": "node/12091821830"}, {"type": "Feature", "properties": {"@id": "node/12091821831", "amenity": "bench", "backrest": "yes", "material": "wood"}, "geometry": {"type": "Point", "coordinates": [-4.7961922, 51.7996505]}, "id": "node/12091821831"}, {"type": "Feature", "properties": {"@id": "node/12100424792", "amenity": "bench", "backrest": "yes"}, "geometry": {"type": "Point", "coordinates": [-4.8510461, 52.021822]}, "id": "node/12100424792"}, {"type": "Feature", "properties": {"@id": "node/12100459692", "amenity": "bench", "backrest": "no"}, "geometry": {"type": "Point", "coordinates": [-4.8519242, 52.0226528]}, "id": "node/12100459692"}, {"type": "Feature", "properties": {"@id": "node/12100489057", "amenity": "bench", "backrest": "yes"}, "geometry": {"type": "Point", "coordinates": [-4.8511576, 52.0221468]}, "id": "node/12100489057"}, {"type": "Feature", "properties": {"@id": "node/12100489494", "amenity": "bench", "backrest": "yes"}, "geometry": {"type": "Point", "coordinates": [-4.8511219, 52.022218]}, "id": "node/12100489494"}, {"type": "Feature", "properties": {"@id": "node/12100496053", "amenity": "bench", "backrest": "yes"}, "geometry": {"type": "Point", "coordinates": [-4.8480399, 52.0217946]}, "id": "node/12100496053"}, {"type": "Feature", "properties": {"@id": "node/12100500592", "amenity": "bench", "backrest": "yes"}, "geometry": {"type": "Point", "coordinates": [-4.8503491, 52.0217029]}, "id": "node/12100500592"}, {"type": "Feature", "properties": {"@id": "node/12115209334", "amenity": "bench"}, "geometry": {"type": "Point", "coordinates": [-4.9022029, 51.6244378]}, "id": "node/12115209334"}, {"type": "Feature", "properties": {"@id": "node/12117031432", "amenity": "bench", "backrest": "yes", "colour": "brown", "material": "wood"}, "geometry": {"type": "Point", "coordinates": [-4.7365377, 51.7694561]}, "id": "node/12117031432"}, {"type": "Feature", "properties": {"@id": "node/12117031434", "amenity": "bench", "backrest": "yes", "colour": "brown", "material": "wood"}, "geometry": {"type": "Point", "coordinates": [-4.7366236, 51.7696951]}, "id": "node/12117031434"}, {"type": "Feature", "properties": {"@id": "node/12122709461", "amenity": "bench"}, "geometry": {"type": "Point", "coordinates": [-4.9242863, 51.622542]}, "id": "node/12122709461"}, {"type": "Feature", "properties": {"@id": "node/12139940865", "amenity": "bench"}, "geometry": {"type": "Point", "coordinates": [-4.9203772, 51.8604379]}, "id": "node/12139940865"}, {"type": "Feature", "properties": {"@id": "node/12139944728", "amenity": "bench"}, "geometry": {"type": "Point", "coordinates": [-4.9203414, 51.8603127]}, "id": "node/12139944728"}, {"type": "Feature", "properties": {"@id": "node/12146754839", "amenity": "bench"}, "geometry": {"type": "Point", "coordinates": [-4.9228027, 51.6776799]}, "id": "node/12146754839"}, {"type": "Feature", "properties": {"@id": "node/12146765524", "amenity": "bench"}, "geometry": {"type": "Point", "coordinates": [-4.9187229, 51.6752894]}, "id": "node/12146765524"}, {"type": "Feature", "properties": {"@id": "node/12146766954", "amenity": "bench"}, "geometry": {"type": "Point", "coordinates": [-4.9186827, 51.6752907]}, "id": "node/12146766954"}, {"type": "Feature", "properties": {"@id": "node/12146771725", "amenity": "bench"}, "geometry": {"type": "Point", "coordinates": [-4.9187529, 51.6752879]}, "id": "node/12146771725"}, {"type": "Feature", "properties": {"@id": "node/12151224187", "amenity": "bench", "backrest": "yes"}, "geometry": {"type": "Point", "coordinates": [-5.2670636, 51.8813689]}, "id": "node/12151224187"}, {"type": "Feature", "properties": {"@id": "node/12151224188", "amenity": "bench", "backrest": "yes"}, "geometry": {"type": "Point", "coordinates": [-5.269556, 51.8818406]}, "id": "node/12151224188"}, {"type": "Feature", "properties": {"@id": "node/12151224189", "amenity": "bench", "backrest": "yes"}, "geometry": {"type": "Point", "coordinates": [-5.2695249, 51.8818517]}, "id": "node/12151224189"}, {"type": "Feature", "properties": {"@id": "node/12198615427", "amenity": "bench"}, "geometry": {"type": "Point", "coordinates": [-4.7021653, 51.668778]}, "id": "node/12198615427"}, {"type": "Feature", "properties": {"@id": "node/12198615428", "amenity": "bench"}, "geometry": {"type": "Point", "coordinates": [-4.7021068, 51.6687692]}, "id": "node/12198615428"}, {"type": "Feature", "properties": {"@id": "node/12198615620", "amenity": "bench"}, "geometry": {"type": "Point", "coordinates": [-4.705191, 51.6695808]}, "id": "node/12198615620"}, {"type": "Feature", "properties": {"@id": "node/12198615621", "amenity": "bench"}, "geometry": {"type": "Point", "coordinates": [-4.7051281, 51.6695712]}, "id": "node/12198615621"}, {"type": "Feature", "properties": {"@id": "node/12198615622", "amenity": "bench"}, "geometry": {"type": "Point", "coordinates": [-4.7050243, 51.669556]}, "id": "node/12198615622"}, {"type": "Feature", "properties": {"@id": "node/12198615623", "amenity": "bench"}, "geometry": {"type": "Point", "coordinates": [-4.7049475, 51.6695408]}, "id": "node/12198615623"}, {"type": "Feature", "properties": {"@id": "node/12198615624", "amenity": "bench"}, "geometry": {"type": "Point", "coordinates": [-4.7048764, 51.6695286]}, "id": "node/12198615624"}, {"type": "Feature", "properties": {"@id": "node/12198615683", "amenity": "bench"}, "geometry": {"type": "Point", "coordinates": [-4.7040224, 51.6689766]}, "id": "node/12198615683"}, {"type": "Feature", "properties": {"@id": "node/12199952456", "amenity": "bench"}, "geometry": {"type": "Point", "coordinates": [-4.7019259, 51.6687412]}, "id": "node/12199952456"}, {"type": "Feature", "properties": {"@id": "node/12199952457", "amenity": "bench"}, "geometry": {"type": "Point", "coordinates": [-4.7018488, 51.6687312]}, "id": "node/12199952457"}, {"type": "Feature", "properties": {"@id": "node/12199952529", "amenity": "bench"}, "geometry": {"type": "Point", "coordinates": [-4.7016678, 51.6687121]}, "id": "node/12199952529"}, {"type": "Feature", "properties": {"@id": "node/12199952530", "amenity": "bench"}, "geometry": {"type": "Point", "coordinates": [-4.7016047, 51.6687092]}, "id": "node/12199952530"}, {"type": "Feature", "properties": {"@id": "node/12202948230", "amenity": "bench"}, "geometry": {"type": "Point", "coordinates": [-4.7027919, 51.672845]}, "id": "node/12202948230"}, {"type": "Feature", "properties": {"@id": "node/12206696369", "amenity": "bench"}, "geometry": {"type": "Point", "coordinates": [-4.7008619, 51.6729577]}, "id": "node/12206696369"}, {"type": "Feature", "properties": {"@id": "node/12206696370", "amenity": "bench"}, "geometry": {"type": "Point", "coordinates": [-4.7008307, 51.672937]}, "id": "node/12206696370"}, {"type": "Feature", "properties": {"@id": "node/12206696371", "amenity": "bench"}, "geometry": {"type": "Point", "coordinates": [-4.7008004, 51.6729154]}, "id": "node/12206696371"}, {"type": "Feature", "properties": {"@id": "node/12206696373", "amenity": "bench"}, "geometry": {"type": "Point", "coordinates": [-4.700736, 51.6728744]}, "id": "node/12206696373"}, {"type": "Feature", "properties": {"@id": "node/12206696374", "amenity": "bench"}, "geometry": {"type": "Point", "coordinates": [-4.7007061, 51.6728512]}, "id": "node/12206696374"}, {"type": "Feature", "properties": {"@id": "node/12206696375", "amenity": "bench"}, "geometry": {"type": "Point", "coordinates": [-4.7006727, 51.6728262]}, "id": "node/12206696375"}, {"type": "Feature", "properties": {"@id": "node/12206696376", "amenity": "bench"}, "geometry": {"type": "Point", "coordinates": [-4.7006387, 51.6727998]}, "id": "node/12206696376"}, {"type": "Feature", "properties": {"@id": "node/12206865446", "amenity": "bench"}, "geometry": {"type": "Point", "coordinates": [-4.6995817, 51.6714379]}, "id": "node/12206865446"}, {"type": "Feature", "properties": {"@id": "node/12206865447", "amenity": "bench"}, "geometry": {"type": "Point", "coordinates": [-4.6996816, 51.671514]}, "id": "node/12206865447"}, {"type": "Feature", "properties": {"@id": "node/12206865448", "amenity": "bench"}, "geometry": {"type": "Point", "coordinates": [-4.6996816, 51.6714853]}, "id": "node/12206865448"}, {"type": "Feature", "properties": {"@id": "node/12206865462", "amenity": "bench"}, "geometry": {"type": "Point", "coordinates": [-4.6993547, 51.6716325]}, "id": "node/12206865462"}, {"type": "Feature", "properties": {"@id": "node/12206865463", "amenity": "bench"}, "geometry": {"type": "Point", "coordinates": [-4.6995105, 51.671639]}, "id": "node/12206865463"}, {"type": "Feature", "properties": {"@id": "node/12372601571", "amenity": "bench"}, "geometry": {"type": "Point", "coordinates": [-4.7432863, 51.8103594]}, "id": "node/12372601571"}, {"type": "Feature", "properties": {"@id": "node/12372608650", "amenity": "bench"}, "geometry": {"type": "Point", "coordinates": [-4.7271948, 51.7994724]}, "id": "node/12372608650"}, {"type": "Feature", "properties": {"@id": "node/12511976710", "amenity": "bench"}, "geometry": {"type": "Point", "coordinates": [-4.7232937, 51.6595055]}, "id": "node/12511976710"}, {"type": "Feature", "properties": {"@id": "node/12511976711", "amenity": "bench"}, "geometry": {"type": "Point", "coordinates": [-4.7232008, 51.6595195]}, "id": "node/12511976711"}, {"type": "Feature", "properties": {"@id": "node/12517381641", "amenity": "bench"}, "geometry": {"type": "Point", "coordinates": [-4.7233815, 51.6589416]}, "id": "node/12517381641"}, {"type": "Feature", "properties": {"@id": "node/12522813541", "amenity": "bench"}, "geometry": {"type": "Point", "coordinates": [-4.7241307, 51.6656466]}, "id": "node/12522813541"}, {"type": "Feature", "properties": {"@id": "node/12753245240", "amenity": "bench", "backrest": "yes"}, "geometry": {"type": "Point", "coordinates": [-4.7304712, 51.800792]}, "id": "node/12753245240"}, {"type": "Feature", "properties": {"@id": "node/12753251645", "amenity": "bench"}, "geometry": {"type": "Point", "coordinates": [-4.7384214, 51.7993373]}, "id": "node/12753251645"}, {"type": "Feature", "properties": {"@id": "node/12760212187", "amenity": "bench"}, "geometry": {"type": "Point", "coordinates": [-4.7127303, 51.7147647]}, "id": "node/12760212187"}, {"type": "Feature", "properties": {"@id": "node/12819254616", "amenity": "bench", "backrest": "yes"}, "geometry": {"type": "Point", "coordinates": [-4.693819, 51.6724681]}, "id": "node/12819254616"}, {"type": "Feature", "properties": {"@id": "node/12819254617", "amenity": "bench", "backrest": "yes"}, "geometry": {"type": "Point", "coordinates": [-4.6941632, 51.6723652]}, "id": "node/12819254617"}, {"type": "Feature", "properties": {"@id": "node/12819254621", "amenity": "bench", "material": "wood"}, "geometry": {"type": "Point", "coordinates": [-4.6939604, 51.6725508]}, "id": "node/12819254621"}, {"type": "Feature", "properties": {"@id": "node/12819254623", "amenity": "bench", "backrest": "yes"}, "geometry": {"type": "Point", "coordinates": [-4.6947912, 51.6721888]}, "id": "node/12819254623"}, {"type": "Feature", "properties": {"@id": "node/12819254624", "amenity": "bench", "backrest": "yes"}, "geometry": {"type": "Point", "coordinates": [-4.6947524, 51.6721776]}, "id": "node/12819254624"}, {"type": "Feature", "properties": {"@id": "node/12819254625", "amenity": "bench", "backrest": "yes"}, "geometry": {"type": "Point", "coordinates": [-4.6947229, 51.6721672]}, "id": "node/12819254625"}, {"type": "Feature", "properties": {"@id": "node/12819254626", "amenity": "bench", "backrest": "yes"}, "geometry": {"type": "Point", "coordinates": [-4.6946967, 51.6721543]}, "id": "node/12819254626"}, {"type": "Feature", "properties": {"@id": "node/12819254627", "amenity": "bench", "backrest": "yes"}, "geometry": {"type": "Point", "coordinates": [-4.6946799, 51.672141]}, "id": "node/12819254627"}, {"type": "Feature", "properties": {"@id": "node/12822885372", "amenity": "bench"}, "geometry": {"type": "Point", "coordinates": [-5.1094186, 51.8457263]}, "id": "node/12822885372"}]}