{"type": "FeatureCollection", "features": [{"type": "Feature", "properties": {"@id": "node/330047724", "amenity": "bench", "created_by": "JOSM"}, "geometry": {"type": "Point", "coordinates": [-4.6215985, 53.2677244]}, "id": "node/330047724"}, {"type": "Feature", "properties": {"@id": "node/330047725", "amenity": "bench", "created_by": "JOSM"}, "geometry": {"type": "Point", "coordinates": [-4.6186685, 53.2653978]}, "id": "node/330047725"}, {"type": "Feature", "properties": {"@id": "node/1782015136", "amenity": "bench", "backrest": "no"}, "geometry": {"type": "Point", "coordinates": [-4.6398997, 52.9041469]}, "id": "node/1782015136"}, {"type": "Feature", "properties": {"@id": "node/1782015255", "amenity": "bench"}, "geometry": {"type": "Point", "coordinates": [-4.6774825, 52.8745667]}, "id": "node/1782015255"}, {"type": "Feature", "properties": {"@id": "node/1782487175", "amenity": "bench"}, "geometry": {"type": "Point", "coordinates": [-4.7263899, 52.8344351]}, "id": "node/1782487175"}, {"type": "Feature", "properties": {"@id": "node/1828372529", "amenity": "bench", "backrest": "yes", "material": "wood", "seats": "3"}, "geometry": {"type": "Point", "coordinates": [-4.7218961, 52.8024045]}, "id": "node/1828372529"}, {"type": "Feature", "properties": {"@id": "node/2446499377", "amenity": "bench"}, "geometry": {"type": "Point", "coordinates": [-4.664351, 53.3169014]}, "id": "node/2446499377"}, {"type": "Feature", "properties": {"@id": "node/4206064819", "amenity": "bench", "backrest": "yes"}, "geometry": {"type": "Point", "coordinates": [-4.6149754, 53.2636483]}, "id": "node/4206064819"}, {"type": "Feature", "properties": {"@id": "node/4206064859", "amenity": "bench", "backrest": "yes"}, "geometry": {"type": "Point", "coordinates": [-4.6190478, 53.2731712]}, "id": "node/4206064859"}, {"type": "Feature", "properties": {"@id": "node/4206510492", "amenity": "bench"}, "geometry": {"type": "Point", "coordinates": [-4.6540344, 53.3215457]}, "id": "node/4206510492"}, {"type": "Feature", "properties": {"@id": "node/4206510498", "amenity": "bench"}, "geometry": {"type": "Point", "coordinates": [-4.6583231, 53.3199738]}, "id": "node/4206510498"}, {"type": "Feature", "properties": {"@id": "node/4206510500", "amenity": "bench"}, "geometry": {"type": "Point", "coordinates": [-4.6625878, 53.3187597]}, "id": "node/4206510500"}, {"type": "Feature", "properties": {"@id": "node/4206510501", "amenity": "bench"}, "geometry": {"type": "Point", "coordinates": [-4.6673502, 53.3184838]}, "id": "node/4206510501"}, {"type": "Feature", "properties": {"@id": "node/4206548010", "amenity": "bench", "backrest": "yes"}, "geometry": {"type": "Point", "coordinates": [-4.6929802, 53.3047716]}, "id": "node/4206548010"}, {"type": "Feature", "properties": {"@id": "node/4206587051", "amenity": "bench"}, "geometry": {"type": "Point", "coordinates": [-4.6367461, 53.2839927]}, "id": "node/4206587051"}, {"type": "Feature", "properties": {"@id": "node/4207163708", "amenity": "bench", "backrest": "yes"}, "geometry": {"type": "Point", "coordinates": [-4.6070684, 53.3023465]}, "id": "node/4207163708"}, {"type": "Feature", "properties": {"@id": "node/4401486788", "amenity": "bench"}, "geometry": {"type": "Point", "coordinates": [-4.6499748, 53.2872932]}, "id": "node/4401486788"}, {"type": "Feature", "properties": {"@id": "node/4547348240", "amenity": "bench"}, "geometry": {"type": "Point", "coordinates": [-4.6515437, 53.2883583]}, "id": "node/4547348240"}, {"type": "Feature", "properties": {"@id": "node/4548333792", "amenity": "bench"}, "geometry": {"type": "Point", "coordinates": [-4.6939725, 53.3068062]}, "id": "node/4548333792"}, {"type": "Feature", "properties": {"@id": "node/4548333793", "amenity": "bench"}, "geometry": {"type": "Point", "coordinates": [-4.6939524, 53.3067779]}, "id": "node/4548333793"}, {"type": "Feature", "properties": {"@id": "node/5609103201", "amenity": "bench", "backrest": "no"}, "geometry": {"type": "Point", "coordinates": [-4.7104516, 52.8053552]}, "id": "node/5609103201"}, {"type": "Feature", "properties": {"@id": "node/5609855810", "amenity": "bench", "backrest": "yes"}, "geometry": {"type": "Point", "coordinates": [-4.7124566, 52.8041396]}, "id": "node/5609855810"}, {"type": "Feature", "properties": {"@id": "node/5609855812", "amenity": "bench", "backrest": "yes"}, "geometry": {"type": "Point", "coordinates": [-4.7124668, 52.804139]}, "id": "node/5609855812"}, {"type": "Feature", "properties": {"@id": "node/8890561713", "amenity": "bench"}, "geometry": {"type": "Point", "coordinates": [-4.7193259, 52.8038161]}, "id": "node/8890561713"}, {"type": "Feature", "properties": {"@id": "node/8995509442", "amenity": "bench", "backrest": "yes", "material": "wood"}, "geometry": {"type": "Point", "coordinates": [-4.6895991, 53.3027556]}, "id": "node/8995509442"}, {"type": "Feature", "properties": {"@id": "node/9814079432", "amenity": "bench", "backrest": "yes", "material": "wood"}, "geometry": {"type": "Point", "coordinates": [-4.6316194, 53.3076892]}, "id": "node/9814079432"}, {"type": "Feature", "properties": {"@id": "node/9814167214", "amenity": "bench", "backrest": "yes", "material": "wood"}, "geometry": {"type": "Point", "coordinates": [-4.6315863, 53.3075348]}, "id": "node/9814167214"}, {"type": "Feature", "properties": {"@id": "node/10879372945", "amenity": "bench", "backrest": "no", "material": "wood", "seats": "3"}, "geometry": {"type": "Point", "coordinates": [-4.6489058, 52.904353]}, "id": "node/10879372945"}, {"type": "Feature", "properties": {"@id": "node/10879372950", "amenity": "bench", "backrest": "no", "material": "wood", "seats": "3"}, "geometry": {"type": "Point", "coordinates": [-4.6487581, 52.9044326]}, "id": "node/10879372950"}, {"type": "Feature", "properties": {"@id": "node/10879372953", "amenity": "bench", "backrest": "yes", "material": "wood", "seats": "3"}, "geometry": {"type": "Point", "coordinates": [-4.7227737, 52.8517144]}, "id": "node/10879372953"}, {"type": "Feature", "properties": {"@id": "node/10879372962", "amenity": "bench", "backrest": "yes", "material": "wood", "seats": "3"}, "geometry": {"type": "Point", "coordinates": [-4.6491009, 52.905321]}, "id": "node/10879372962"}, {"type": "Feature", "properties": {"@id": "node/10884266863", "amenity": "bench", "material": "wood", "name": "ysgebor hir", "seats": "3"}, "geometry": {"type": "Point", "coordinates": [-4.7208597, 52.8198817]}, "id": "node/10884266863"}, {"type": "Feature", "properties": {"@id": "node/10884266870", "amenity": "bench", "backrest": "yes", "material": "wood", "seats": "3"}, "geometry": {"type": "Point", "coordinates": [-4.7253069, 52.8336408]}, "id": "node/10884266870"}, {"type": "Feature", "properties": {"@id": "node/12036094921", "amenity": "bench", "backrest": "yes"}, "geometry": {"type": "Point", "coordinates": [-4.6364365, 53.3168968]}, "id": "node/12036094921"}, {"type": "Feature", "properties": {"@id": "node/12036094923", "amenity": "bench"}, "geometry": {"type": "Point", "coordinates": [-4.6389773, 53.3175329]}, "id": "node/12036094923"}, {"type": "Feature", "properties": {"@id": "node/12036094925", "amenity": "bench", "backrest": "yes"}, "geometry": {"type": "Point", "coordinates": [-4.6403453, 53.3179462]}, "id": "node/12036094925"}, {"type": "Feature", "properties": {"@id": "node/12036094926", "amenity": "bench", "backrest": "yes"}, "geometry": {"type": "Point", "coordinates": [-4.6413488, 53.3172919]}, "id": "node/12036094926"}, {"type": "Feature", "properties": {"@id": "node/12036094927", "amenity": "bench", "backrest": "yes"}, "geometry": {"type": "Point", "coordinates": [-4.641293, 53.3172979]}, "id": "node/12036094927"}, {"type": "Feature", "properties": {"@id": "node/12036094928", "amenity": "bench", "backrest": "yes"}, "geometry": {"type": "Point", "coordinates": [-4.6419658, 53.3172539]}, "id": "node/12036094928"}, {"type": "Feature", "properties": {"@id": "node/12036094929", "amenity": "bench", "backrest": "yes"}, "geometry": {"type": "Point", "coordinates": [-4.641921, 53.3172639]}, "id": "node/12036094929"}, {"type": "Feature", "properties": {"@id": "node/12036094930", "amenity": "bench", "backrest": "yes"}, "geometry": {"type": "Point", "coordinates": [-4.6397641, 53.3171037]}, "id": "node/12036094930"}, {"type": "Feature", "properties": {"@id": "node/12036094931", "amenity": "bench", "backrest": "yes"}, "geometry": {"type": "Point", "coordinates": [-4.639725, 53.3171003]}, "id": "node/12036094931"}, {"type": "Feature", "properties": {"@id": "node/12036094932", "amenity": "bench", "backrest": "yes"}, "geometry": {"type": "Point", "coordinates": [-4.6401307, 53.3171658]}, "id": "node/12036094932"}, {"type": "Feature", "properties": {"@id": "node/12036094935", "amenity": "bench", "backrest": "yes"}, "geometry": {"type": "Point", "coordinates": [-4.6389195, 53.3169649]}, "id": "node/12036094935"}, {"type": "Feature", "properties": {"@id": "node/12036094936", "amenity": "bench", "backrest": "yes"}, "geometry": {"type": "Point", "coordinates": [-4.6388988, 53.3169616]}, "id": "node/12036094936"}, {"type": "Feature", "properties": {"@id": "node/12036094937", "amenity": "bench", "backrest": "yes"}, "geometry": {"type": "Point", "coordinates": [-4.6386557, 53.3169233]}, "id": "node/12036094937"}, {"type": "Feature", "properties": {"@id": "node/12036094941", "amenity": "bench", "backrest": "yes"}, "geometry": {"type": "Point", "coordinates": [-4.6379693, 53.3168226]}, "id": "node/12036094941"}, {"type": "Feature", "properties": {"@id": "node/12036094942", "amenity": "bench", "backrest": "yes"}, "geometry": {"type": "Point", "coordinates": [-4.6379447, 53.3168193]}, "id": "node/12036094942"}, {"type": "Feature", "properties": {"@id": "node/12036094943", "amenity": "bench", "backrest": "yes"}, "geometry": {"type": "Point", "coordinates": [-4.6375971, 53.3167645]}, "id": "node/12036094943"}, {"type": "Feature", "properties": {"@id": "node/12036094944", "amenity": "bench", "backrest": "yes"}, "geometry": {"type": "Point", "coordinates": [-4.6375759, 53.3167612]}, "id": "node/12036094944"}, {"type": "Feature", "properties": {"@id": "node/12036094951", "amenity": "bench", "backrest": "yes"}, "geometry": {"type": "Point", "coordinates": [-4.6324058, 53.3159513]}, "id": "node/12036094951"}, {"type": "Feature", "properties": {"@id": "node/12036094953", "amenity": "bench"}, "geometry": {"type": "Point", "coordinates": [-4.6306747, 53.3154719]}, "id": "node/12036094953"}, {"type": "Feature", "properties": {"@id": "node/12036094957", "amenity": "bench"}, "geometry": {"type": "Point", "coordinates": [-4.6310581, 53.315257]}, "id": "node/12036094957"}, {"type": "Feature", "properties": {"@id": "node/12036094958", "amenity": "bench"}, "geometry": {"type": "Point", "coordinates": [-4.6310134, 53.3152403]}, "id": "node/12036094958"}, {"type": "Feature", "properties": {"@id": "node/12036094959", "amenity": "bench"}, "geometry": {"type": "Point", "coordinates": [-4.631076, 53.3151221]}, "id": "node/12036094959"}, {"type": "Feature", "properties": {"@id": "node/12036094960", "amenity": "bench"}, "geometry": {"type": "Point", "coordinates": [-4.6310302, 53.3151027]}, "id": "node/12036094960"}, {"type": "Feature", "properties": {"@id": "node/12036094962", "amenity": "bench"}, "geometry": {"type": "Point", "coordinates": [-4.6305295, 53.3148216]}, "id": "node/12036094962"}, {"type": "Feature", "properties": {"@id": "node/12036094963", "amenity": "bench"}, "geometry": {"type": "Point", "coordinates": [-4.6304915, 53.3147883]}, "id": "node/12036094963"}, {"type": "Feature", "properties": {"@id": "node/12062907763", "amenity": "bench", "backrest": "yes"}, "geometry": {"type": "Point", "coordinates": [-4.6647375, 53.3164199]}, "id": "node/12062907763"}, {"type": "Feature", "properties": {"@id": "node/12062907764", "amenity": "bench"}, "geometry": {"type": "Point", "coordinates": [-4.664763, 53.3164629]}, "id": "node/12062907764"}, {"type": "Feature", "properties": {"@id": "node/12062941570", "amenity": "bench"}, "geometry": {"type": "Point", "coordinates": [-4.6640737, 53.3164078]}, "id": "node/12062941570"}, {"type": "Feature", "properties": {"@id": "node/12062941574", "amenity": "bench"}, "geometry": {"type": "Point", "coordinates": [-4.6641466, 53.3170911]}, "id": "node/12062941574"}, {"type": "Feature", "properties": {"@id": "node/12062941575", "amenity": "bench"}, "geometry": {"type": "Point", "coordinates": [-4.6640772, 53.3170833]}, "id": "node/12062941575"}, {"type": "Feature", "properties": {"@id": "node/12071370926", "amenity": "bench", "backrest": "yes"}, "geometry": {"type": "Point", "coordinates": [-4.6642414, 53.3170246]}, "id": "node/12071370926"}, {"type": "Feature", "properties": {"@id": "node/12071371360", "amenity": "bench", "backrest": "yes"}, "geometry": {"type": "Point", "coordinates": [-4.6641529, 53.3168121]}, "id": "node/12071371360"}, {"type": "Feature", "properties": {"@id": "node/12071379549", "amenity": "bench", "backrest": "no"}, "geometry": {"type": "Point", "coordinates": [-4.6639814, 53.3167323]}, "id": "node/12071379549"}, {"type": "Feature", "properties": {"@id": "node/12071401458", "amenity": "bench", "backrest": "no"}, "geometry": {"type": "Point", "coordinates": [-4.6653223, 53.317204]}, "id": "node/12071401458"}, {"type": "Feature", "properties": {"@id": "node/12071402007", "amenity": "bench", "backrest": "yes"}, "geometry": {"type": "Point", "coordinates": [-4.664228, 53.3170552]}, "id": "node/12071402007"}, {"type": "Feature", "properties": {"@id": "node/12071434213", "amenity": "bench", "backrest": "no"}, "geometry": {"type": "Point", "coordinates": [-4.6648041, 53.3164511]}, "id": "node/12071434213"}, {"type": "Feature", "properties": {"@id": "node/12071436642", "amenity": "bench", "backrest": "no"}, "geometry": {"type": "Point", "coordinates": [-4.664781, 53.3164118]}, "id": "node/12071436642"}, {"type": "Feature", "properties": {"@id": "node/12071439480", "amenity": "bench", "backrest": "no"}, "geometry": {"type": "Point", "coordinates": [-4.6648282, 53.316483]}, "id": "node/12071439480"}, {"type": "Feature", "properties": {"@id": "node/12071446600", "amenity": "bench", "backrest": "yes"}, "geometry": {"type": "Point", "coordinates": [-4.6631123, 53.3161915]}, "id": "node/12071446600"}, {"type": "Feature", "properties": {"@id": "node/12330738754", "amenity": "bench"}, "geometry": {"type": "Point", "coordinates": [-4.6331643, 53.3121094]}, "id": "node/12330738754"}, {"type": "Feature", "properties": {"@id": "node/12331125893", "amenity": "bench", "backrest": "yes"}, "geometry": {"type": "Point", "coordinates": [-4.6328503, 53.3086151]}, "id": "node/12331125893"}, {"type": "Feature", "properties": {"@id": "node/12331130465", "amenity": "bench", "backrest": "yes"}, "geometry": {"type": "Point", "coordinates": [-4.6328833, 53.3086126]}, "id": "node/12331130465"}, {"type": "Feature", "properties": {"@id": "node/12409259779", "amenity": "bench", "backrest": "yes"}, "geometry": {"type": "Point", "coordinates": [-4.6297305, 53.3064194]}, "id": "node/12409259779"}, {"type": "Feature", "properties": {"@id": "node/12409378699", "amenity": "bench", "backrest": "no"}, "geometry": {"type": "Point", "coordinates": [-4.6347357, 53.3162511]}, "id": "node/12409378699"}, {"type": "Feature", "properties": {"@id": "node/12409532463", "amenity": "bench", "backrest": "no"}, "geometry": {"type": "Point", "coordinates": [-4.6399067, 53.3178041]}, "id": "node/12409532463"}, {"type": "Feature", "properties": {"@id": "node/12409532480", "amenity": "bench", "backrest": "yes"}, "geometry": {"type": "Point", "coordinates": [-4.6413027, 53.3172796]}, "id": "node/12409532480"}, {"type": "Feature", "properties": {"@id": "node/12409534427", "amenity": "bench", "backrest": "no"}, "geometry": {"type": "Point", "coordinates": [-4.6395365, 53.3177085]}, "id": "node/12409534427"}, {"type": "Feature", "properties": {"@id": "node/12409544099", "amenity": "bench", "backrest": "yes"}, "geometry": {"type": "Point", "coordinates": [-4.6389177, 53.3169706]}, "id": "node/12409544099"}, {"type": "Feature", "properties": {"@id": "node/12409546278", "amenity": "bench", "backrest": "yes"}, "geometry": {"type": "Point", "coordinates": [-4.640409, 53.3171546]}, "id": "node/12409546278"}, {"type": "Feature", "properties": {"@id": "node/12409567028", "amenity": "bench", "backrest": "yes"}, "geometry": {"type": "Point", "coordinates": [-4.6419171, 53.3172505]}, "id": "node/12409567028"}, {"type": "Feature", "properties": {"@id": "node/12409569178", "amenity": "bench", "backrest": "yes"}, "geometry": {"type": "Point", "coordinates": [-4.6397353, 53.3171285]}, "id": "node/12409569178"}, {"type": "Feature", "properties": {"@id": "node/12409572378", "amenity": "bench", "backrest": "yes"}, "geometry": {"type": "Point", "coordinates": [-4.6401357, 53.3171689]}, "id": "node/12409572378"}, {"type": "Feature", "properties": {"@id": "node/12409572869", "amenity": "bench", "backrest": "yes"}, "geometry": {"type": "Point", "coordinates": [-4.6397215, 53.3171084]}, "id": "node/12409572869"}, {"type": "Feature", "properties": {"@id": "node/12409574636", "amenity": "bench", "backrest": "yes"}, "geometry": {"type": "Point", "coordinates": [-4.641906, 53.3172208]}, "id": "node/12409574636"}, {"type": "Feature", "properties": {"@id": "node/12409574795", "amenity": "bench", "backrest": "no"}, "geometry": {"type": "Point", "coordinates": [-4.6392905, 53.3173474]}, "id": "node/12409574795"}, {"type": "Feature", "properties": {"@id": "node/12409579599", "amenity": "bench", "backrest": "yes"}, "geometry": {"type": "Point", "coordinates": [-4.6401357, 53.3171689]}, "id": "node/12409579599"}, {"type": "Feature", "properties": {"@id": "node/12409582560", "amenity": "bench", "backrest": "no"}, "geometry": {"type": "Point", "coordinates": [-4.638987, 53.3171215]}, "id": "node/12409582560"}, {"type": "Feature", "properties": {"@id": "node/12409584568", "amenity": "bench", "backrest": "yes"}, "geometry": {"type": "Point", "coordinates": [-4.6380063, 53.3168258]}, "id": "node/12409584568"}, {"type": "Feature", "properties": {"@id": "node/12409586277", "amenity": "bench", "backrest": "yes"}, "geometry": {"type": "Point", "coordinates": [-4.6401357, 53.3171689]}, "id": "node/12409586277"}, {"type": "Feature", "properties": {"@id": "node/12409589642", "amenity": "bench", "backrest": "no"}, "geometry": {"type": "Point", "coordinates": [-4.6394434, 53.3171992]}, "id": "node/12409589642"}, {"type": "Feature", "properties": {"@id": "node/12409589644", "amenity": "bench", "backrest": "yes"}, "geometry": {"type": "Point", "coordinates": [-4.6388968, 53.3169718]}, "id": "node/12409589644"}, {"type": "Feature", "properties": {"@id": "node/12409590897", "amenity": "bench"}, "geometry": {"type": "Point", "coordinates": [-4.6412558, 53.3172671]}, "id": "node/12409590897"}, {"type": "Feature", "properties": {"@id": "node/12409592384", "amenity": "bench", "backrest": "yes"}, "geometry": {"type": "Point", "coordinates": [-4.6375978, 53.3167621]}, "id": "node/12409592384"}, {"type": "Feature", "properties": {"@id": "node/12409594124", "amenity": "bench", "backrest": "yes"}, "geometry": {"type": "Point", "coordinates": [-4.6375978, 53.3167621]}, "id": "node/12409594124"}, {"type": "Feature", "properties": {"@id": "node/12409596715", "amenity": "bench", "backrest": "no"}, "geometry": {"type": "Point", "coordinates": [-4.6389594, 53.3172519]}, "id": "node/12409596715"}, {"type": "Feature", "properties": {"@id": "node/12409605082", "amenity": "bench", "backrest": "yes"}, "geometry": {"type": "Point", "coordinates": [-4.6383622, 53.3169098]}, "id": "node/12409605082"}, {"type": "Feature", "properties": {"@id": "node/12409606956", "amenity": "bench", "backrest": "yes"}, "geometry": {"type": "Point", "coordinates": [-4.6379425, 53.316809]}, "id": "node/12409606956"}, {"type": "Feature", "properties": {"@id": "node/12522948610", "amenity": "bench", "backrest": "no"}, "geometry": {"type": "Point", "coordinates": [-4.6332293, 53.3103342]}, "id": "node/12522948610"}, {"type": "Feature", "properties": {"@id": "node/12522952978", "amenity": "bench", "backrest": "yes"}, "geometry": {"type": "Point", "coordinates": [-4.6120679, 53.3028819]}, "id": "node/12522952978"}, {"type": "Feature", "properties": {"@id": "node/12522956469", "amenity": "bench", "backrest": "yes"}, "geometry": {"type": "Point", "coordinates": [-4.6018955, 53.3016016]}, "id": "node/12522956469"}, {"type": "Feature", "properties": {"@id": "node/12723479013", "amenity": "bench"}, "geometry": {"type": "Point", "coordinates": [-4.6161211, 53.2798305]}, "id": "node/12723479013"}, {"type": "Feature", "properties": {"@id": "node/12806152636", "amenity": "bench", "backrest": "no"}, "geometry": {"type": "Point", "coordinates": [-4.6188062, 52.8219463]}, "id": "node/12806152636"}, {"type": "Feature", "properties": {"@id": "node/12806208847", "amenity": "bench", "backrest": "no"}, "geometry": {"type": "Point", "coordinates": [-4.6173388, 52.8241532]}, "id": "node/12806208847"}, {"type": "Feature", "properties": {"@id": "node/12806209541", "amenity": "bench", "backrest": "yes"}, "geometry": {"type": "Point", "coordinates": [-4.6184683, 52.822772]}, "id": "node/12806209541"}, {"type": "Feature", "properties": {"@id": "node/12806218031", "amenity": "bench", "backrest": "yes"}, "geometry": {"type": "Point", "coordinates": [-4.6177775, 52.8236068]}, "id": "node/12806218031"}, {"type": "Feature", "properties": {"@id": "node/12806218661", "amenity": "bench", "backrest": "no"}, "geometry": {"type": "Point", "coordinates": [-4.6167726, 52.8245464]}, "id": "node/12806218661"}, {"type": "Feature", "properties": {"@id": "node/12816991513", "amenity": "bench", "backrest": "yes"}, "geometry": {"type": "Point", "coordinates": [-4.6148772, 53.2781506]}, "id": "node/12816991513"}, {"type": "Feature", "properties": {"@id": "node/12817050830", "amenity": "bench", "backrest": "yes"}, "geometry": {"type": "Point", "coordinates": [-4.6218691, 53.2748675]}, "id": "node/12817050830"}, {"type": "Feature", "properties": {"@id": "node/12817282619", "amenity": "bench", "backrest": "yes"}, "geometry": {"type": "Point", "coordinates": [-4.6306954, 52.9062537]}, "id": "node/12817282619"}]}