{"type": "FeatureCollection", "features": [{"type": "Feature", "properties": {"@id": "node/429269555", "amenity": "bench"}, "geometry": {"type": "Point", "coordinates": [-0.1361, 53.8762641]}, "id": "node/429269555"}, {"type": "Feature", "properties": {"@id": "node/429269557", "amenity": "bench", "source": "survey"}, "geometry": {"type": "Point", "coordinates": [-0.1369531, 53.8761763]}, "id": "node/429269557"}, {"type": "Feature", "properties": {"@id": "node/443397415", "amenity": "bench"}, "geometry": {"type": "Point", "coordinates": [-0.19245, 53.9403783]}, "id": "node/443397415"}, {"type": "Feature", "properties": {"@id": "node/443397420", "amenity": "bench"}, "geometry": {"type": "Point", "coordinates": [-0.1883161, 53.9404435]}, "id": "node/443397420"}, {"type": "Feature", "properties": {"@id": "node/469908291", "amenity": "bench", "backrest": "yes"}, "geometry": {"type": "Point", "coordinates": [-0.1684489, 54.1008611]}, "id": "node/469908291"}, {"type": "Feature", "properties": {"@id": "node/474727456", "amenity": "bench"}, "geometry": {"type": "Point", "coordinates": [-0.143175, 54.1054736]}, "id": "node/474727456"}, {"type": "Feature", "properties": {"@id": "node/474727491", "amenity": "bench"}, "geometry": {"type": "Point", "coordinates": [-0.144592, 54.1058217]}, "id": "node/474727491"}, {"type": "Feature", "properties": {"@id": "node/474727492", "amenity": "bench"}, "geometry": {"type": "Point", "coordinates": [-0.1427714, 54.1047442]}, "id": "node/474727492"}, {"type": "Feature", "properties": {"@id": "node/480334549", "amenity": "bench", "backrest": "no", "material": "wood", "source": "survey"}, "geometry": {"type": "Point", "coordinates": [-0.1447237, 54.1067299]}, "id": "node/480334549"}, {"type": "Feature", "properties": {"@id": "node/480334550", "amenity": "bench", "source": "survey"}, "geometry": {"type": "Point", "coordinates": [-0.1454201, 54.1099679]}, "id": "node/480334550"}, {"type": "Feature", "properties": {"@id": "node/480334556", "amenity": "bench", "source": "survey"}, "geometry": {"type": "Point", "coordinates": [-0.1451888, 54.1114767]}, "id": "node/480334556"}, {"type": "Feature", "properties": {"@id": "node/480334609", "amenity": "bench", "source": "survey"}, "geometry": {"type": "Point", "coordinates": [-0.1414873, 54.1045752]}, "id": "node/480334609"}, {"type": "Feature", "properties": {"@id": "node/480334612", "amenity": "bench", "source": "survey"}, "geometry": {"type": "Point", "coordinates": [-0.1414797, 54.1058621]}, "id": "node/480334612"}, {"type": "Feature", "properties": {"@id": "node/482478615", "amenity": "bench", "source": "survey"}, "geometry": {"type": "Point", "coordinates": [-0.1746795, 54.0945721]}, "id": "node/482478615"}, {"type": "Feature", "properties": {"@id": "node/482478616", "amenity": "bench", "source": "survey"}, "geometry": {"type": "Point", "coordinates": [-0.1744866, 54.0946258]}, "id": "node/482478616"}, {"type": "Feature", "properties": {"@id": "node/482478618", "amenity": "bench", "source": "survey"}, "geometry": {"type": "Point", "coordinates": [-0.174667, 54.0943027]}, "id": "node/482478618"}, {"type": "Feature", "properties": {"@id": "node/489904932", "amenity": "bench", "source": "survey"}, "geometry": {"type": "Point", "coordinates": [-0.118999, 54.1060404]}, "id": "node/489904932"}, {"type": "Feature", "properties": {"@id": "node/489904934", "amenity": "bench", "source": "survey"}, "geometry": {"type": "Point", "coordinates": [-0.1189246, 54.1053213]}, "id": "node/489904934"}, {"type": "Feature", "properties": {"@id": "node/489904936", "amenity": "bench", "backrest": "yes", "source": "survey"}, "geometry": {"type": "Point", "coordinates": [-0.1185302, 54.1046333]}, "id": "node/489904936"}, {"type": "Feature", "properties": {"@id": "node/489904938", "amenity": "bench", "backrest": "no", "source": "survey"}, "geometry": {"type": "Point", "coordinates": [-0.1188889, 54.1045035]}, "id": "node/489904938"}, {"type": "Feature", "properties": {"@id": "node/490722158", "amenity": "bench", "backrest": "no", "source": "survey"}, "geometry": {"type": "Point", "coordinates": [-0.1285254, 54.1046197]}, "id": "node/490722158"}, {"type": "Feature", "properties": {"@id": "node/490722196", "amenity": "bench", "backrest": "yes", "source": "survey"}, "geometry": {"type": "Point", "coordinates": [-0.1177723, 54.1049315]}, "id": "node/490722196"}, {"type": "Feature", "properties": {"@id": "node/490722198", "amenity": "bench", "source": "survey"}, "geometry": {"type": "Point", "coordinates": [-0.1157838, 54.1058278]}, "id": "node/490722198"}, {"type": "Feature", "properties": {"@id": "node/490722200", "amenity": "bench", "source": "survey"}, "geometry": {"type": "Point", "coordinates": [-0.1127734, 54.1063182]}, "id": "node/490722200"}, {"type": "Feature", "properties": {"@id": "node/490722247", "amenity": "bench", "source": "survey"}, "geometry": {"type": "Point", "coordinates": [-0.1126147, 54.1072991]}, "id": "node/490722247"}, {"type": "Feature", "properties": {"@id": "node/490722249", "amenity": "bench", "source": "survey"}, "geometry": {"type": "Point", "coordinates": [-0.114318, 54.1079711]}, "id": "node/490722249"}, {"type": "Feature", "properties": {"@id": "node/490722285", "amenity": "bench", "source": "survey"}, "geometry": {"type": "Point", "coordinates": [-0.1179802, 54.1053395]}, "id": "node/490722285"}, {"type": "Feature", "properties": {"@id": "node/490722288", "amenity": "bench", "source": "survey"}, "geometry": {"type": "Point", "coordinates": [-0.1178536, 54.1059316]}, "id": "node/490722288"}, {"type": "Feature", "properties": {"@id": "node/490722290", "amenity": "bench", "source": "survey"}, "geometry": {"type": "Point", "coordinates": [-0.1166673, 54.1067453]}, "id": "node/490722290"}, {"type": "Feature", "properties": {"@id": "node/490722293", "amenity": "bench", "source": "survey"}, "geometry": {"type": "Point", "coordinates": [-0.1159641, 54.1072334]}, "id": "node/490722293"}, {"type": "Feature", "properties": {"@id": "node/490722306", "amenity": "bench", "source": "survey"}, "geometry": {"type": "Point", "coordinates": [-0.1153164, 54.1080626]}, "id": "node/490722306"}, {"type": "Feature", "properties": {"@id": "node/490722309", "amenity": "bench", "source": "survey"}, "geometry": {"type": "Point", "coordinates": [-0.1176773, 54.1070309]}, "id": "node/490722309"}, {"type": "Feature", "properties": {"@id": "node/490722320", "amenity": "bench", "source": "survey"}, "geometry": {"type": "Point", "coordinates": [-0.1145678, 54.1081188]}, "id": "node/490722320"}, {"type": "Feature", "properties": {"@id": "node/505445766", "amenity": "bench", "source": "survey"}, "geometry": {"type": "Point", "coordinates": [-0.1092406, 54.1148985]}, "id": "node/505445766"}, {"type": "Feature", "properties": {"@id": "node/505799093", "amenity": "bench", "source": "survey"}, "geometry": {"type": "Point", "coordinates": [-0.1156793, 54.1050944]}, "id": "node/505799093"}, {"type": "Feature", "properties": {"@id": "node/769303511", "amenity": "bench", "source": "survey"}, "geometry": {"type": "Point", "coordinates": [-0.0907518, 54.1103922]}, "id": "node/769303511"}, {"type": "Feature", "properties": {"@id": "node/769816548", "amenity": "bench", "backrest": "no", "source": "survey"}, "geometry": {"type": "Point", "coordinates": [-0.0842324, 54.1176939]}, "id": "node/769816548"}, {"type": "Feature", "properties": {"@id": "node/769816569", "amenity": "bench", "backrest": "no", "source": "survey"}, "geometry": {"type": "Point", "coordinates": [-0.0839902, 54.1176984]}, "id": "node/769816569"}, {"type": "Feature", "properties": {"@id": "node/1437254113", "amenity": "bench", "source": "survey"}, "geometry": {"type": "Point", "coordinates": [-0.1774948, 53.9072663]}, "id": "node/1437254113"}, {"type": "Feature", "properties": {"@id": "node/1437254169", "amenity": "bench", "source": "survey"}, "geometry": {"type": "Point", "coordinates": [-0.1736082, 53.9106918]}, "id": "node/1437254169"}, {"type": "Feature", "properties": {"@id": "node/1437450601", "amenity": "bench", "source": "survey"}, "geometry": {"type": "Point", "coordinates": [-0.1613024, 53.9155838]}, "id": "node/1437450601"}, {"type": "Feature", "properties": {"@id": "node/1437484121", "amenity": "bench", "source": "survey"}, "geometry": {"type": "Point", "coordinates": [-0.167218, 53.9122552]}, "id": "node/1437484121"}, {"type": "Feature", "properties": {"@id": "node/1437515277", "amenity": "bench", "source": "photo"}, "geometry": {"type": "Point", "coordinates": [-0.1707706, 53.9110197]}, "id": "node/1437515277"}, {"type": "Feature", "properties": {"@id": "node/3192157670", "amenity": "bench"}, "geometry": {"type": "Point", "coordinates": [-0.1895194, 54.0818199]}, "id": "node/3192157670"}, {"type": "Feature", "properties": {"@id": "node/3192157674", "amenity": "bench"}, "geometry": {"type": "Point", "coordinates": [-0.1895348, 54.0818445]}, "id": "node/3192157674"}, {"type": "Feature", "properties": {"@id": "node/3241281407", "amenity": "bench", "backrest": "yes"}, "geometry": {"type": "Point", "coordinates": [-0.1940594, 54.0807613]}, "id": "node/3241281407"}, {"type": "Feature", "properties": {"@id": "node/3241281409", "amenity": "bench", "backrest": "yes"}, "geometry": {"type": "Point", "coordinates": [-0.1940916, 54.0807744]}, "id": "node/3241281409"}, {"type": "Feature", "properties": {"@id": "node/3241281410", "amenity": "bench", "backrest": "yes", "check_date": "2023-06-16"}, "geometry": {"type": "Point", "coordinates": [-0.1941204, 54.080786]}, "id": "node/3241281410"}, {"type": "Feature", "properties": {"@id": "node/3241281412", "amenity": "bench", "backrest": "yes"}, "geometry": {"type": "Point", "coordinates": [-0.1939722, 54.080793]}, "id": "node/3241281412"}, {"type": "Feature", "properties": {"@id": "node/3241281416", "amenity": "bench", "backrest": "yes"}, "geometry": {"type": "Point", "coordinates": [-0.193887, 54.0808119]}, "id": "node/3241281416"}, {"type": "Feature", "properties": {"@id": "node/3241281417", "amenity": "bench", "backrest": "yes"}, "geometry": {"type": "Point", "coordinates": [-0.193998, 54.0808209]}, "id": "node/3241281417"}, {"type": "Feature", "properties": {"@id": "node/3241281419", "amenity": "bench", "backrest": "yes"}, "geometry": {"type": "Point", "coordinates": [-0.1938672, 54.0808339]}, "id": "node/3241281419"}, {"type": "Feature", "properties": {"@id": "node/3241281421", "amenity": "bench", "backrest": "yes"}, "geometry": {"type": "Point", "coordinates": [-0.1940238, 54.0808494]}, "id": "node/3241281421"}, {"type": "Feature", "properties": {"@id": "node/3241281422", "amenity": "bench", "backrest": "yes"}, "geometry": {"type": "Point", "coordinates": [-0.1938484, 54.0808566]}, "id": "node/3241281422"}, {"type": "Feature", "properties": {"@id": "node/3241281423", "amenity": "bench", "backrest": "yes"}, "geometry": {"type": "Point", "coordinates": [-0.1940446, 54.0808726]}, "id": "node/3241281423"}, {"type": "Feature", "properties": {"@id": "node/3241281425", "amenity": "bench", "backrest": "yes"}, "geometry": {"type": "Point", "coordinates": [-0.1938275, 54.0808787]}, "id": "node/3241281425"}, {"type": "Feature", "properties": {"@id": "node/3241281428", "amenity": "bench", "backrest": "yes"}, "geometry": {"type": "Point", "coordinates": [-0.1940684, 54.0808982]}, "id": "node/3241281428"}, {"type": "Feature", "properties": {"@id": "node/3241281429", "amenity": "bench", "backrest": "yes"}, "geometry": {"type": "Point", "coordinates": [-0.1938077, 54.0808985]}, "id": "node/3241281429"}, {"type": "Feature", "properties": {"@id": "node/3241281431", "amenity": "bench", "backrest": "yes"}, "geometry": {"type": "Point", "coordinates": [-0.1937879, 54.08092]}, "id": "node/3241281431"}, {"type": "Feature", "properties": {"@id": "node/3241281433", "amenity": "bench", "backrest": "yes"}, "geometry": {"type": "Point", "coordinates": [-0.1940912, 54.0809249]}, "id": "node/3241281433"}, {"type": "Feature", "properties": {"@id": "node/3241281434", "amenity": "bench", "backrest": "yes"}, "geometry": {"type": "Point", "coordinates": [-0.1937661, 54.0809398]}, "id": "node/3241281434"}, {"type": "Feature", "properties": {"@id": "node/3241281436", "amenity": "bench", "backrest": "yes"}, "geometry": {"type": "Point", "coordinates": [-0.194112, 54.0809517]}, "id": "node/3241281436"}, {"type": "Feature", "properties": {"@id": "node/3241281438", "amenity": "bench", "backrest": "yes"}, "geometry": {"type": "Point", "coordinates": [-0.1937463, 54.0809624]}, "id": "node/3241281438"}, {"type": "Feature", "properties": {"@id": "node/3241281441", "amenity": "bench", "backrest": "yes"}, "geometry": {"type": "Point", "coordinates": [-0.1937235, 54.0809857]}, "id": "node/3241281441"}, {"type": "Feature", "properties": {"@id": "node/3241281456", "amenity": "bench", "backrest": "yes"}, "geometry": {"type": "Point", "coordinates": [-0.1936551, 54.0810572]}, "id": "node/3241281456"}, {"type": "Feature", "properties": {"@id": "node/3241281461", "amenity": "bench", "backrest": "yes"}, "geometry": {"type": "Point", "coordinates": [-0.1936402, 54.0810764]}, "id": "node/3241281461"}, {"type": "Feature", "properties": {"@id": "node/3241281462", "amenity": "bench", "backrest": "yes"}, "geometry": {"type": "Point", "coordinates": [-0.1936174, 54.0810932]}, "id": "node/3241281462"}, {"type": "Feature", "properties": {"@id": "node/3241281465", "amenity": "bench", "backrest": "yes"}, "geometry": {"type": "Point", "coordinates": [-0.1935976, 54.0811124]}, "id": "node/3241281465"}, {"type": "Feature", "properties": {"@id": "node/3241281466", "amenity": "bench", "backrest": "yes"}, "geometry": {"type": "Point", "coordinates": [-0.1935813, 54.0811366]}, "id": "node/3241281466"}, {"type": "Feature", "properties": {"@id": "node/3241281468", "amenity": "bench", "backrest": "yes"}, "geometry": {"type": "Point", "coordinates": [-0.1935595, 54.0811557]}, "id": "node/3241281468"}, {"type": "Feature", "properties": {"@id": "node/3241281470", "amenity": "bench", "backrest": "yes"}, "geometry": {"type": "Point", "coordinates": [-0.1935377, 54.0811743]}, "id": "node/3241281470"}, {"type": "Feature", "properties": {"@id": "node/3241281472", "amenity": "bench", "backrest": "yes"}, "geometry": {"type": "Point", "coordinates": [-0.1935159, 54.0811941]}, "id": "node/3241281472"}, {"type": "Feature", "properties": {"@id": "node/3241281474", "amenity": "bench", "backrest": "yes"}, "geometry": {"type": "Point", "coordinates": [-0.1934931, 54.0812191]}, "id": "node/3241281474"}, {"type": "Feature", "properties": {"@id": "node/4184100702", "amenity": "bench"}, "geometry": {"type": "Point", "coordinates": [-0.1916065, 54.0984362]}, "id": "node/4184100702"}, {"type": "Feature", "properties": {"@id": "node/4184181342", "amenity": "bench"}, "geometry": {"type": "Point", "coordinates": [-0.1937951, 54.0845898]}, "id": "node/4184181342"}, {"type": "Feature", "properties": {"@id": "node/4184181346", "amenity": "bench"}, "geometry": {"type": "Point", "coordinates": [-0.1944093, 54.0847424]}, "id": "node/4184181346"}, {"type": "Feature", "properties": {"@id": "node/4542265076", "amenity": "bench"}, "geometry": {"type": "Point", "coordinates": [-0.1797028, 54.0905146]}, "id": "node/4542265076"}, {"type": "Feature", "properties": {"@id": "node/4542265082", "amenity": "bench"}, "geometry": {"type": "Point", "coordinates": [-0.1795472, 54.0905917]}, "id": "node/4542265082"}, {"type": "Feature", "properties": {"@id": "node/4573411613", "amenity": "bench"}, "geometry": {"type": "Point", "coordinates": [-0.1910964, 54.0818623]}, "id": "node/4573411613"}, {"type": "Feature", "properties": {"@id": "node/6254365527", "amenity": "bench"}, "geometry": {"type": "Point", "coordinates": [-0.1951133, 54.0798887]}, "id": "node/6254365527"}, {"type": "Feature", "properties": {"@id": "node/6254365528", "amenity": "bench"}, "geometry": {"type": "Point", "coordinates": [-0.1953493, 54.0798258]}, "id": "node/6254365528"}, {"type": "Feature", "properties": {"@id": "node/6254365531", "amenity": "bench"}, "geometry": {"type": "Point", "coordinates": [-0.1958482, 54.0797504]}, "id": "node/6254365531"}, {"type": "Feature", "properties": {"@id": "node/6254365532", "amenity": "bench"}, "geometry": {"type": "Point", "coordinates": [-0.1956283, 54.079785]}, "id": "node/6254365532"}, {"type": "Feature", "properties": {"@id": "node/6770069192", "amenity": "bench"}, "geometry": {"type": "Point", "coordinates": [-0.1898922, 54.0813716]}, "id": "node/6770069192"}, {"type": "Feature", "properties": {"@id": "node/6770069193", "amenity": "bench"}, "geometry": {"type": "Point", "coordinates": [-0.1898641, 54.0814007]}, "id": "node/6770069193"}, {"type": "Feature", "properties": {"@id": "node/6770069194", "amenity": "bench"}, "geometry": {"type": "Point", "coordinates": [-0.1898292, 54.0814274]}, "id": "node/6770069194"}, {"type": "Feature", "properties": {"@id": "node/6770069195", "amenity": "bench"}, "geometry": {"type": "Point", "coordinates": [-0.1899445, 54.0813692]}, "id": "node/6770069195"}, {"type": "Feature", "properties": {"@id": "node/9404557600", "amenity": "bench"}, "geometry": {"type": "Point", "coordinates": [-0.1484615, 53.8077025]}, "id": "node/9404557600"}, {"type": "Feature", "properties": {"@id": "node/9770095405", "amenity": "bench", "backrest": "yes", "seats": "4"}, "geometry": {"type": "Point", "coordinates": [-0.1971769, 54.0789208]}, "id": "node/9770095405"}, {"type": "Feature", "properties": {"@id": "node/9770095406", "amenity": "bench", "backrest": "yes", "seats": "4"}, "geometry": {"type": "Point", "coordinates": [-0.1971479, 54.0789022]}, "id": "node/9770095406"}, {"type": "Feature", "properties": {"@id": "node/9770095407", "amenity": "bench", "backrest": "yes", "seats": "4"}, "geometry": {"type": "Point", "coordinates": [-0.1971207, 54.078881]}, "id": "node/9770095407"}, {"type": "Feature", "properties": {"@id": "node/9770095408", "amenity": "bench", "backrest": "yes", "seats": "4"}, "geometry": {"type": "Point", "coordinates": [-0.1970869, 54.0788605]}, "id": "node/9770095408"}, {"type": "Feature", "properties": {"@id": "node/9770095409", "amenity": "bench", "backrest": "yes", "seats": "4"}, "geometry": {"type": "Point", "coordinates": [-0.1970574, 54.0788391]}, "id": "node/9770095409"}, {"type": "Feature", "properties": {"@id": "node/9770133961", "amenity": "bench", "backrest": "yes", "colour": "brown", "material": "wood", "seats": "3"}, "geometry": {"type": "Point", "coordinates": [-0.1959028, 54.0799508]}, "id": "node/9770133961"}, {"type": "Feature", "properties": {"@id": "node/9770133962", "amenity": "bench", "backrest": "yes", "colour": "brown", "material": "wood", "seats": "3"}, "geometry": {"type": "Point", "coordinates": [-0.1958487, 54.079954]}, "id": "node/9770133962"}, {"type": "Feature", "properties": {"@id": "node/9770133963", "amenity": "bench", "backrest": "yes", "colour": "brown", "material": "wood", "seats": "3"}, "geometry": {"type": "Point", "coordinates": [-0.1957374, 54.0799544]}, "id": "node/9770133963"}, {"type": "Feature", "properties": {"@id": "node/9770133964", "amenity": "bench", "backrest": "yes", "colour": "brown", "material": "wood", "seats": "3"}, "geometry": {"type": "Point", "coordinates": [-0.1956629, 54.0799635]}, "id": "node/9770133964"}, {"type": "Feature", "properties": {"@id": "node/9770133965", "amenity": "bench", "backrest": "yes", "colour": "brown", "material": "wood", "seats": "3"}, "geometry": {"type": "Point", "coordinates": [-0.1955999, 54.0799678]}, "id": "node/9770133965"}, {"type": "Feature", "properties": {"@id": "node/9770133966", "amenity": "bench", "backrest": "yes", "colour": "brown", "material": "wood", "seats": "3"}, "geometry": {"type": "Point", "coordinates": [-0.1953853, 54.0799733]}, "id": "node/9770133966"}, {"type": "Feature", "properties": {"@id": "node/9770133967", "amenity": "bench", "backrest": "yes", "colour": "brown", "material": "wood", "seats": "3"}, "geometry": {"type": "Point", "coordinates": [-0.1950487, 54.0799832]}, "id": "node/9770133967"}, {"type": "Feature", "properties": {"@id": "node/9770133968", "amenity": "bench", "backrest": "yes", "colour": "brown", "material": "wood", "seats": "3"}, "geometry": {"type": "Point", "coordinates": [-0.1949823, 54.0799898]}, "id": "node/9770133968"}, {"type": "Feature", "properties": {"@id": "node/9770133969", "amenity": "bench", "backrest": "yes", "colour": "brown", "material": "wood", "seats": "3"}, "geometry": {"type": "Point", "coordinates": [-0.1952137, 54.0799769]}, "id": "node/9770133969"}, {"type": "Feature", "properties": {"@id": "node/9770133970", "amenity": "bench", "backrest": "yes", "colour": "brown", "material": "wood", "seats": "3"}, "geometry": {"type": "Point", "coordinates": [-0.1948301, 54.0799898]}, "id": "node/9770133970"}, {"type": "Feature", "properties": {"@id": "node/9775738767", "amenity": "bench", "backrest": "yes", "colour": "brown", "material": "wood", "seats": "4"}, "geometry": {"type": "Point", "coordinates": [-0.1768824, 54.0928491]}, "id": "node/9775738767"}, {"type": "Feature", "properties": {"@id": "node/9775738768", "amenity": "bench", "backrest": "yes", "colour": "brown", "material": "wood", "seats": "4"}, "geometry": {"type": "Point", "coordinates": [-0.176856, 54.0928633]}, "id": "node/9775738768"}, {"type": "Feature", "properties": {"@id": "node/9775738769", "amenity": "bench", "backrest": "yes", "colour": "brown", "material": "wood", "seats": "4"}, "geometry": {"type": "Point", "coordinates": [-0.1771526, 54.0928777]}, "id": "node/9775738769"}, {"type": "Feature", "properties": {"@id": "node/9775738770", "amenity": "bench", "backrest": "yes", "colour": "brown", "material": "wood", "seats": "4"}, "geometry": {"type": "Point", "coordinates": [-0.1771594, 54.0926602]}, "id": "node/9775738770"}, {"type": "Feature", "properties": {"@id": "node/9775738771", "amenity": "bench", "backrest": "yes", "colour": "brown", "material": "wood", "seats": "4"}, "geometry": {"type": "Point", "coordinates": [-0.1771611, 54.0926116]}, "id": "node/9775738771"}, {"type": "Feature", "properties": {"@id": "node/9775738772", "amenity": "bench", "backrest": "yes", "colour": "brown", "material": "wood", "seats": "4"}, "geometry": {"type": "Point", "coordinates": [-0.1771646, 54.0927417]}, "id": "node/9775738772"}, {"type": "Feature", "properties": {"@id": "node/9775738773", "amenity": "bench", "backrest": "yes", "colour": "brown", "material": "wood", "seats": "4"}, "geometry": {"type": "Point", "coordinates": [-0.1743275, 54.0948905]}, "id": "node/9775738773"}, {"type": "Feature", "properties": {"@id": "node/9775738774", "amenity": "bench", "backrest": "yes", "colour": "brown", "material": "wood", "seats": "4"}, "geometry": {"type": "Point", "coordinates": [-0.1744467, 54.0948081]}, "id": "node/9775738774"}, {"type": "Feature", "properties": {"@id": "node/9775738775", "amenity": "bench", "backrest": "yes", "colour": "brown", "material": "wood", "seats": "4"}, "geometry": {"type": "Point", "coordinates": [-0.1747607, 54.0945959]}, "id": "node/9775738775"}, {"type": "Feature", "properties": {"@id": "node/9775738776", "amenity": "bench", "backrest": "yes", "colour": "brown", "material": "wood", "seats": "4"}, "geometry": {"type": "Point", "coordinates": [-0.1746639, 54.0946621]}, "id": "node/9775738776"}, {"type": "Feature", "properties": {"@id": "node/9775738777", "amenity": "bench", "backrest": "yes", "colour": "brown", "material": "wood", "seats": "4"}, "geometry": {"type": "Point", "coordinates": [-0.1748597, 54.0945266]}, "id": "node/9775738777"}, {"type": "Feature", "properties": {"@id": "node/9775738778", "amenity": "bench", "backrest": "yes", "colour": "brown", "material": "wood", "seats": "4"}, "geometry": {"type": "Point", "coordinates": [-0.1750278, 54.0944054]}, "id": "node/9775738778"}, {"type": "Feature", "properties": {"@id": "node/9775738779", "amenity": "bench", "backrest": "yes", "colour": "brown", "material": "wood", "seats": "4"}, "geometry": {"type": "Point", "coordinates": [-0.1749686, 54.0944545]}, "id": "node/9775738779"}, {"type": "Feature", "properties": {"@id": "node/9775738780", "amenity": "bench", "backrest": "yes", "colour": "brown", "material": "wood", "seats": "4"}, "geometry": {"type": "Point", "coordinates": [-0.1750886, 54.0943598]}, "id": "node/9775738780"}, {"type": "Feature", "properties": {"@id": "node/9775738781", "amenity": "bench", "backrest": "yes", "colour": "brown", "material": "wood", "seats": "4"}, "geometry": {"type": "Point", "coordinates": [-0.1751452, 54.0943152]}, "id": "node/9775738781"}, {"type": "Feature", "properties": {"@id": "node/9775738782", "amenity": "bench", "backrest": "yes", "colour": "brown", "material": "wood", "seats": "4"}, "geometry": {"type": "Point", "coordinates": [-0.1752136, 54.0942672]}, "id": "node/9775738782"}, {"type": "Feature", "properties": {"@id": "node/9775738783", "amenity": "bench", "backrest": "yes", "colour": "brown", "material": "wood", "seats": "4"}, "geometry": {"type": "Point", "coordinates": [-0.1753256, 54.0941748]}, "id": "node/9775738783"}, {"type": "Feature", "properties": {"@id": "node/9775738784", "amenity": "bench", "backrest": "yes", "colour": "brown", "material": "wood", "seats": "4"}, "geometry": {"type": "Point", "coordinates": [-0.1753878, 54.0941289]}, "id": "node/9775738784"}, {"type": "Feature", "properties": {"@id": "node/9775738785", "amenity": "bench", "backrest": "yes", "colour": "brown", "material": "wood", "seats": "4"}, "geometry": {"type": "Point", "coordinates": [-0.1742176, 54.0949764]}, "id": "node/9775738785"}, {"type": "Feature", "properties": {"@id": "node/9775738786", "amenity": "bench", "backrest": "yes", "colour": "brown", "material": "wood", "seats": "4"}, "geometry": {"type": "Point", "coordinates": [-0.1741351, 54.0950385]}, "id": "node/9775738786"}, {"type": "Feature", "properties": {"@id": "node/9775738787", "amenity": "bench", "backrest": "yes", "colour": "brown", "material": "wood", "seats": "4"}, "geometry": {"type": "Point", "coordinates": [-0.174034, 54.0951022]}, "id": "node/9775738787"}, {"type": "Feature", "properties": {"@id": "node/9775738788", "amenity": "bench", "backrest": "yes", "colour": "brown", "material": "wood", "seats": "4"}, "geometry": {"type": "Point", "coordinates": [-0.1738839, 54.0951995]}, "id": "node/9775738788"}, {"type": "Feature", "properties": {"@id": "node/9775738789", "amenity": "bench", "backrest": "yes", "colour": "brown", "material": "wood", "seats": "4"}, "geometry": {"type": "Point", "coordinates": [-0.1737902, 54.0952573]}, "id": "node/9775738789"}, {"type": "Feature", "properties": {"@id": "node/9775738790", "amenity": "bench", "backrest": "yes", "colour": "brown", "material": "wood", "seats": "4"}, "geometry": {"type": "Point", "coordinates": [-0.1737088, 54.0953069]}, "id": "node/9775738790"}, {"type": "Feature", "properties": {"@id": "node/9775738791", "amenity": "bench", "backrest": "yes", "colour": "brown", "material": "wood", "seats": "4"}, "geometry": {"type": "Point", "coordinates": [-0.1736417, 54.0953425]}, "id": "node/9775738791"}, {"type": "Feature", "properties": {"@id": "node/9775738792", "amenity": "bench", "backrest": "yes", "colour": "brown", "material": "wood", "seats": "4"}, "geometry": {"type": "Point", "coordinates": [-0.1734544, 54.0954545]}, "id": "node/9775738792"}, {"type": "Feature", "properties": {"@id": "node/9775738793", "amenity": "bench", "backrest": "yes", "colour": "brown", "material": "wood", "seats": "4"}, "geometry": {"type": "Point", "coordinates": [-0.1733703, 54.0955232]}, "id": "node/9775738793"}, {"type": "Feature", "properties": {"@id": "node/9775738794", "amenity": "bench", "backrest": "yes", "colour": "brown", "material": "wood", "seats": "4"}, "geometry": {"type": "Point", "coordinates": [-0.1732846, 54.0955912]}, "id": "node/9775738794"}, {"type": "Feature", "properties": {"@id": "node/9775738795", "amenity": "bench", "backrest": "yes", "colour": "brown", "material": "wood", "seats": "4"}, "geometry": {"type": "Point", "coordinates": [-0.1732069, 54.0956515]}, "id": "node/9775738795"}, {"type": "Feature", "properties": {"@id": "node/9775738796", "amenity": "bench", "backrest": "yes", "colour": "brown", "material": "wood", "seats": "4"}, "geometry": {"type": "Point", "coordinates": [-0.173109, 54.0957136]}, "id": "node/9775738796"}, {"type": "Feature", "properties": {"@id": "node/9775738797", "amenity": "bench", "backrest": "yes", "colour": "brown", "material": "wood", "seats": "4"}, "geometry": {"type": "Point", "coordinates": [-0.1729913, 54.0957891]}, "id": "node/9775738797"}, {"type": "Feature", "properties": {"@id": "node/9775738798", "amenity": "bench", "backrest": "yes", "colour": "brown", "material": "wood", "seats": "4"}, "geometry": {"type": "Point", "coordinates": [-0.1728955, 54.0958422]}, "id": "node/9775738798"}, {"type": "Feature", "properties": {"@id": "node/9775738799", "amenity": "bench", "backrest": "yes", "colour": "brown", "material": "wood", "seats": "4"}, "geometry": {"type": "Point", "coordinates": [-0.1727742, 54.0959127]}, "id": "node/9775738799"}, {"type": "Feature", "properties": {"@id": "node/9775738800", "amenity": "bench", "backrest": "yes", "colour": "brown", "material": "wood", "seats": "4"}, "geometry": {"type": "Point", "coordinates": [-0.1726811, 54.0959848]}, "id": "node/9775738800"}, {"type": "Feature", "properties": {"@id": "node/9775738801", "amenity": "bench", "backrest": "yes", "colour": "brown", "material": "wood", "seats": "4"}, "geometry": {"type": "Point", "coordinates": [-0.172597, 54.0960326]}, "id": "node/9775738801"}, {"type": "Feature", "properties": {"@id": "node/9775738802", "amenity": "bench", "backrest": "yes", "colour": "brown", "material": "wood", "seats": "4"}, "geometry": {"type": "Point", "coordinates": [-0.1724639, 54.0961196]}, "id": "node/9775738802"}, {"type": "Feature", "properties": {"@id": "node/9775738803", "amenity": "bench", "backrest": "yes", "colour": "brown", "material": "wood", "seats": "4"}, "geometry": {"type": "Point", "coordinates": [-0.1723479, 54.096198]}, "id": "node/9775738803"}, {"type": "Feature", "properties": {"@id": "node/9775738804", "amenity": "bench", "backrest": "yes", "colour": "brown", "material": "wood", "seats": "4"}, "geometry": {"type": "Point", "coordinates": [-0.1719365, 54.0964548]}, "id": "node/9775738804"}, {"type": "Feature", "properties": {"@id": "node/9775738805", "amenity": "bench", "backrest": "yes", "colour": "brown", "material": "wood", "seats": "4"}, "geometry": {"type": "Point", "coordinates": [-0.1717332, 54.0965862]}, "id": "node/9775738805"}, {"type": "Feature", "properties": {"@id": "node/9775738806", "amenity": "bench", "backrest": "yes", "colour": "brown", "material": "wood", "seats": "4"}, "geometry": {"type": "Point", "coordinates": [-0.1715288, 54.0967161]}, "id": "node/9775738806"}, {"type": "Feature", "properties": {"@id": "node/9775738807", "amenity": "bench", "backrest": "yes", "colour": "brown", "material": "wood", "seats": "4"}, "geometry": {"type": "Point", "coordinates": [-0.1713734, 54.0968684]}, "id": "node/9775738807"}, {"type": "Feature", "properties": {"@id": "node/9775738808", "amenity": "bench", "backrest": "yes", "colour": "brown", "material": "wood", "seats": "4"}, "geometry": {"type": "Point", "coordinates": [-0.1712143, 54.0969648]}, "id": "node/9775738808"}, {"type": "Feature", "properties": {"@id": "node/9775738809", "amenity": "bench", "backrest": "yes", "colour": "brown", "material": "wood", "seats": "4"}, "geometry": {"type": "Point", "coordinates": [-0.1709812, 54.0971237]}, "id": "node/9775738809"}, {"type": "Feature", "properties": {"@id": "node/9775738810", "amenity": "bench", "backrest": "yes", "colour": "brown", "material": "wood", "seats": "4"}, "geometry": {"type": "Point", "coordinates": [-0.1705815, 54.0973646]}, "id": "node/9775738810"}, {"type": "Feature", "properties": {"@id": "node/9775738811", "amenity": "bench", "backrest": "yes", "colour": "brown", "material": "wood", "seats": "4"}, "geometry": {"type": "Point", "coordinates": [-0.1701573, 54.0976162]}, "id": "node/9775738811"}, {"type": "Feature", "properties": {"@id": "node/9775738812", "amenity": "bench", "backrest": "yes", "colour": "brown", "material": "wood", "seats": "4"}, "geometry": {"type": "Point", "coordinates": [-0.169979, 54.0977441]}, "id": "node/9775738812"}, {"type": "Feature", "properties": {"@id": "node/9775738813", "amenity": "bench", "backrest": "yes", "colour": "brown", "material": "wood", "seats": "4"}, "geometry": {"type": "Point", "coordinates": [-0.1698592, 54.0978175]}, "id": "node/9775738813"}, {"type": "Feature", "properties": {"@id": "node/9775738814", "amenity": "bench", "backrest": "yes", "colour": "brown", "material": "wood", "seats": "4"}, "geometry": {"type": "Point", "coordinates": [-0.1697879, 54.0978624]}, "id": "node/9775738814"}, {"type": "Feature", "properties": {"@id": "node/9775738815", "amenity": "bench", "backrest": "yes", "colour": "brown", "material": "wood", "seats": "4"}, "geometry": {"type": "Point", "coordinates": [-0.1696746, 54.0979336]}, "id": "node/9775738815"}, {"type": "Feature", "properties": {"@id": "node/9775738816", "amenity": "bench", "backrest": "yes", "colour": "brown", "material": "wood", "seats": "4"}, "geometry": {"type": "Point", "coordinates": [-0.1694963, 54.0980372]}, "id": "node/9775738816"}, {"type": "Feature", "properties": {"@id": "node/9775741717", "amenity": "bench", "backrest": "yes", "colour": "brown", "material": "wood", "seats": "4"}, "geometry": {"type": "Point", "coordinates": [-0.1693552, 54.0981146]}, "id": "node/9775741717"}, {"type": "Feature", "properties": {"@id": "node/9775741718", "amenity": "bench", "backrest": "yes", "colour": "brown", "material": "wood", "seats": "4"}, "geometry": {"type": "Point", "coordinates": [-0.1691961, 54.0982207]}, "id": "node/9775741718"}, {"type": "Feature", "properties": {"@id": "node/9775741719", "amenity": "bench", "backrest": "yes", "colour": "brown", "material": "wood", "seats": "4"}, "geometry": {"type": "Point", "coordinates": [-0.1690024, 54.0982968]}, "id": "node/9775741719"}, {"type": "Feature", "properties": {"@id": "node/9775741720", "amenity": "bench", "backrest": "yes", "colour": "brown", "material": "wood", "seats": "4"}, "geometry": {"type": "Point", "coordinates": [-0.1688587, 54.098373]}, "id": "node/9775741720"}, {"type": "Feature", "properties": {"@id": "node/9775741721", "amenity": "bench", "backrest": "yes", "colour": "brown", "material": "wood", "seats": "4"}, "geometry": {"type": "Point", "coordinates": [-0.168757, 54.0984176]}, "id": "node/9775741721"}, {"type": "Feature", "properties": {"@id": "node/9775741722", "amenity": "bench", "backrest": "yes", "colour": "brown", "material": "wood", "seats": "4"}, "geometry": {"type": "Point", "coordinates": [-0.1686761, 54.0984535]}, "id": "node/9775741722"}, {"type": "Feature", "properties": {"@id": "node/9775741723", "amenity": "bench", "backrest": "yes", "colour": "brown", "material": "wood", "seats": "4"}, "geometry": {"type": "Point", "coordinates": [-0.1684324, 54.0985833]}, "id": "node/9775741723"}, {"type": "Feature", "properties": {"@id": "node/9775741724", "amenity": "bench", "backrest": "yes", "colour": "brown", "material": "wood", "seats": "4"}, "geometry": {"type": "Point", "coordinates": [-0.168327, 54.0986607]}, "id": "node/9775741724"}, {"type": "Feature", "properties": {"@id": "node/9775741725", "amenity": "bench", "backrest": "yes", "colour": "brown", "material": "wood", "seats": "4"}, "geometry": {"type": "Point", "coordinates": [-0.1681679, 54.0986985]}, "id": "node/9775741725"}, {"type": "Feature", "properties": {"@id": "node/9775741726", "amenity": "bench", "backrest": "yes", "colour": "brown", "material": "wood", "seats": "4"}, "geometry": {"type": "Point", "coordinates": [-0.1678799, 54.0987884]}, "id": "node/9775741726"}, {"type": "Feature", "properties": {"@id": "node/9775741727", "amenity": "bench", "backrest": "yes", "colour": "brown", "material": "wood", "seats": "4"}, "geometry": {"type": "Point", "coordinates": [-0.1677495, 54.0988411]}, "id": "node/9775741727"}, {"type": "Feature", "properties": {"@id": "node/9775741728", "amenity": "bench", "backrest": "yes", "colour": "brown", "material": "wood", "seats": "4"}, "geometry": {"type": "Point", "coordinates": [-0.1676128, 54.0988998]}, "id": "node/9775741728"}, {"type": "Feature", "properties": {"@id": "node/9775741729", "amenity": "bench", "backrest": "yes", "colour": "brown", "material": "wood", "seats": "4"}, "geometry": {"type": "Point", "coordinates": [-0.167476, 54.0989566]}, "id": "node/9775741729"}, {"type": "Feature", "properties": {"@id": "node/9775741730", "amenity": "bench", "backrest": "yes", "colour": "brown", "material": "wood", "seats": "4"}, "geometry": {"type": "Point", "coordinates": [-0.1673461, 54.0990181]}, "id": "node/9775741730"}, {"type": "Feature", "properties": {"@id": "node/9775741731", "amenity": "bench", "backrest": "yes", "colour": "brown", "material": "wood", "seats": "4"}, "geometry": {"type": "Point", "coordinates": [-0.1672194, 54.0990761]}, "id": "node/9775741731"}, {"type": "Feature", "properties": {"@id": "node/9775741732", "amenity": "bench", "backrest": "yes", "colour": "brown", "material": "wood", "seats": "4"}, "geometry": {"type": "Point", "coordinates": [-0.1670976, 54.0991432]}, "id": "node/9775741732"}, {"type": "Feature", "properties": {"@id": "node/9775741733", "amenity": "bench", "backrest": "yes", "colour": "brown", "material": "wood", "seats": "4"}, "geometry": {"type": "Point", "coordinates": [-0.1669672, 54.0992094]}, "id": "node/9775741733"}, {"type": "Feature", "properties": {"@id": "node/9775741734", "amenity": "bench", "backrest": "yes", "colour": "brown", "material": "wood", "seats": "4"}, "geometry": {"type": "Point", "coordinates": [-0.1667202, 54.0993114]}, "id": "node/9775741734"}, {"type": "Feature", "properties": {"@id": "node/9775741735", "amenity": "bench", "backrest": "yes", "colour": "brown", "material": "wood", "seats": "4"}, "geometry": {"type": "Point", "coordinates": [-0.1668405, 54.0992587]}, "id": "node/9775741735"}, {"type": "Feature", "properties": {"@id": "node/9775741736", "amenity": "bench", "backrest": "yes", "colour": "brown", "material": "wood", "seats": "4"}, "geometry": {"type": "Point", "coordinates": [-0.1665968, 54.0993661]}, "id": "node/9775741736"}, {"type": "Feature", "properties": {"@id": "node/9775741737", "amenity": "bench", "backrest": "yes", "colour": "brown", "material": "wood", "seats": "4"}, "geometry": {"type": "Point", "coordinates": [-0.1664754, 54.0994107]}, "id": "node/9775741737"}, {"type": "Feature", "properties": {"@id": "node/9775741738", "amenity": "bench", "backrest": "yes", "colour": "brown", "material": "wood", "seats": "4"}, "geometry": {"type": "Point", "coordinates": [-0.1663871, 54.0994235]}, "id": "node/9775741738"}, {"type": "Feature", "properties": {"@id": "node/9775741739", "amenity": "bench", "backrest": "yes", "colour": "brown", "material": "wood", "seats": "4"}, "geometry": {"type": "Point", "coordinates": [-0.1663078, 54.09944]}, "id": "node/9775741739"}, {"type": "Feature", "properties": {"@id": "node/9775741740", "amenity": "bench", "backrest": "yes", "colour": "brown", "material": "wood", "seats": "4"}, "geometry": {"type": "Point", "coordinates": [-0.1661584, 54.0994944]}, "id": "node/9775741740"}, {"type": "Feature", "properties": {"@id": "node/9775741741", "amenity": "bench", "backrest": "yes", "colour": "brown", "material": "wood", "seats": "4"}, "geometry": {"type": "Point", "coordinates": [-0.1660203, 54.09954]}, "id": "node/9775741741"}, {"type": "Feature", "properties": {"@id": "node/9775741742", "amenity": "bench", "backrest": "yes", "colour": "brown", "material": "wood", "seats": "4"}, "geometry": {"type": "Point", "coordinates": [-0.1658902, 54.099588]}, "id": "node/9775741742"}, {"type": "Feature", "properties": {"@id": "node/9775741743", "amenity": "bench", "backrest": "yes", "colour": "brown", "material": "wood", "seats": "4"}, "geometry": {"type": "Point", "coordinates": [-0.1657809, 54.0996281]}, "id": "node/9775741743"}, {"type": "Feature", "properties": {"@id": "node/9775741744", "amenity": "bench", "backrest": "yes", "colour": "brown", "material": "wood", "seats": "4"}, "geometry": {"type": "Point", "coordinates": [-0.1656911, 54.0996528]}, "id": "node/9775741744"}, {"type": "Feature", "properties": {"@id": "node/9775741745", "amenity": "bench", "backrest": "yes", "colour": "brown", "material": "wood", "seats": "4"}, "geometry": {"type": "Point", "coordinates": [-0.1655704, 54.0996882]}, "id": "node/9775741745"}, {"type": "Feature", "properties": {"@id": "node/9775741746", "amenity": "bench", "backrest": "yes", "colour": "brown", "material": "wood", "seats": "4"}, "geometry": {"type": "Point", "coordinates": [-0.1654705, 54.0997197]}, "id": "node/9775741746"}, {"type": "Feature", "properties": {"@id": "node/9775741747", "amenity": "bench", "backrest": "yes", "colour": "brown", "material": "wood", "seats": "4"}, "geometry": {"type": "Point", "coordinates": [-0.165335, 54.0997645]}, "id": "node/9775741747"}, {"type": "Feature", "properties": {"@id": "node/9775741748", "amenity": "bench", "backrest": "yes", "colour": "brown", "material": "wood", "seats": "4"}, "geometry": {"type": "Point", "coordinates": [-0.1652297, 54.0997924]}, "id": "node/9775741748"}, {"type": "Feature", "properties": {"@id": "node/9775741749", "amenity": "bench", "backrest": "yes", "colour": "brown", "material": "wood", "seats": "4"}, "geometry": {"type": "Point", "coordinates": [-0.1651164, 54.0998207]}, "id": "node/9775741749"}, {"type": "Feature", "properties": {"@id": "node/9775741750", "amenity": "bench", "backrest": "yes", "colour": "brown", "material": "wood", "seats": "4"}, "geometry": {"type": "Point", "coordinates": [-0.1648985, 54.0998899]}, "id": "node/9775741750"}, {"type": "Feature", "properties": {"@id": "node/9775741751", "amenity": "bench", "backrest": "yes", "colour": "brown", "material": "wood", "seats": "4"}, "geometry": {"type": "Point", "coordinates": [-0.1647912, 54.0999171]}, "id": "node/9775741751"}, {"type": "Feature", "properties": {"@id": "node/9775741752", "amenity": "bench", "backrest": "yes", "colour": "brown", "material": "wood", "seats": "4"}, "geometry": {"type": "Point", "coordinates": [-0.1646886, 54.0999532]}, "id": "node/9775741752"}, {"type": "Feature", "properties": {"@id": "node/9775741753", "amenity": "bench", "backrest": "yes", "colour": "brown", "material": "wood", "seats": "4"}, "geometry": {"type": "Point", "coordinates": [-0.1645988, 54.1000189]}, "id": "node/9775741753"}, {"type": "Feature", "properties": {"@id": "node/9775741754", "amenity": "bench", "backrest": "yes", "colour": "brown", "material": "wood", "seats": "4"}, "geometry": {"type": "Point", "coordinates": [-0.1645738, 54.1000401]}, "id": "node/9775741754"}, {"type": "Feature", "properties": {"@id": "node/9980758482", "amenity": "bench"}, "geometry": {"type": "Point", "coordinates": [-0.112537, 53.8285654]}, "id": "node/9980758482"}, {"type": "Feature", "properties": {"@id": "node/9980774932", "amenity": "bench"}, "geometry": {"type": "Point", "coordinates": [-0.1998941, 53.8687843]}, "id": "node/9980774932"}, {"type": "Feature", "properties": {"@id": "node/10023783091", "amenity": "bench", "backrest": "yes", "material": "wood", "seats": "2"}, "geometry": {"type": "Point", "coordinates": [-0.0827928, 54.1167309]}, "id": "node/10023783091"}, {"type": "Feature", "properties": {"@id": "node/10023783092", "amenity": "bench", "backrest": "yes", "material": "wood", "seats": "2"}, "geometry": {"type": "Point", "coordinates": [-0.0829615, 54.1168156]}, "id": "node/10023783092"}, {"type": "Feature", "properties": {"@id": "node/10023783093", "amenity": "bench", "backrest": "yes", "material": "wood", "seats": "2"}, "geometry": {"type": "Point", "coordinates": [-0.0831371, 54.116897]}, "id": "node/10023783093"}, {"type": "Feature", "properties": {"@id": "node/10023783094", "amenity": "bench", "backrest": "yes", "material": "wood", "seats": "2"}, "geometry": {"type": "Point", "coordinates": [-0.083235, 54.1169479]}, "id": "node/10023783094"}, {"type": "Feature", "properties": {"@id": "node/10023783095", "amenity": "bench", "backrest": "yes", "material": "wood", "seats": "2"}, "geometry": {"type": "Point", "coordinates": [-0.0830419, 54.116852]}, "id": "node/10023783095"}, {"type": "Feature", "properties": {"@id": "node/10023783096", "amenity": "bench", "backrest": "yes", "material": "wood", "seats": "2"}, "geometry": {"type": "Point", "coordinates": [-0.083431, 54.1170697]}, "id": "node/10023783096"}, {"type": "Feature", "properties": {"@id": "node/10676965164", "amenity": "bench"}, "geometry": {"type": "Point", "coordinates": [-0.1780517, 53.9071753]}, "id": "node/10676965164"}, {"type": "Feature", "properties": {"@id": "node/10676965165", "amenity": "bench"}, "geometry": {"type": "Point", "coordinates": [-0.1796463, 53.9074297]}, "id": "node/10676965165"}, {"type": "Feature", "properties": {"@id": "node/10790514005", "amenity": "bench"}, "geometry": {"type": "Point", "coordinates": [-0.1894994, 54.0812586]}, "id": "node/10790514005"}, {"type": "Feature", "properties": {"@id": "node/10790514305", "amenity": "bench"}, "geometry": {"type": "Point", "coordinates": [-0.189397, 54.0812443]}, "id": "node/10790514305"}, {"type": "Feature", "properties": {"@id": "node/10790514405", "amenity": "bench"}, "geometry": {"type": "Point", "coordinates": [-0.1892688, 54.081224]}, "id": "node/10790514405"}, {"type": "Feature", "properties": {"@id": "node/10816816136", "amenity": "bench"}, "geometry": {"type": "Point", "coordinates": [-0.1674986, 54.1009328]}, "id": "node/10816816136"}, {"type": "Feature", "properties": {"@id": "node/10816913365", "amenity": "bench"}, "geometry": {"type": "Point", "coordinates": [-0.1054898, 54.1281239]}, "id": "node/10816913365"}, {"type": "Feature", "properties": {"@id": "node/10816945645", "amenity": "bench"}, "geometry": {"type": "Point", "coordinates": [-0.125156, 54.1164785]}, "id": "node/10816945645"}, {"type": "Feature", "properties": {"@id": "node/10816945648", "amenity": "bench"}, "geometry": {"type": "Point", "coordinates": [-0.1251471, 54.1162762]}, "id": "node/10816945648"}, {"type": "Feature", "properties": {"@id": "node/10983812781", "amenity": "bench", "backrest": "yes", "material": "wood"}, "geometry": {"type": "Point", "coordinates": [-0.1608896, 54.1455713]}, "id": "node/10983812781"}, {"type": "Feature", "properties": {"@id": "node/10983813888", "amenity": "bench", "backrest": "yes", "material": "wood"}, "geometry": {"type": "Point", "coordinates": [-0.1639594, 54.1473957]}, "id": "node/10983813888"}, {"type": "Feature", "properties": {"@id": "node/10983851937", "amenity": "bench", "backrest": "yes", "check_date": "2023-06-18", "inscription": "In Memory of Kristin Woffindin", "material": "wood"}, "geometry": {"type": "Point", "coordinates": [-0.1580375, 54.1450972]}, "id": "node/10983851937"}, {"type": "Feature", "properties": {"@id": "node/10983866046", "amenity": "bench", "backrest": "yes", "material": "wood"}, "geometry": {"type": "Point", "coordinates": [-0.1678405, 54.14806]}, "id": "node/10983866046"}, {"type": "Feature", "properties": {"@id": "node/10983897656", "amenity": "bench", "backrest": "yes", "material": "wood"}, "geometry": {"type": "Point", "coordinates": [-0.163603, 54.1465444]}, "id": "node/10983897656"}, {"type": "Feature", "properties": {"@id": "node/10984199105", "amenity": "bench", "backrest": "yes", "material": "wood"}, "geometry": {"type": "Point", "coordinates": [-0.1747348, 54.1374421]}, "id": "node/10984199105"}, {"type": "Feature", "properties": {"@id": "node/11367635017", "amenity": "bench"}, "geometry": {"type": "Point", "coordinates": [-0.1590586, 54.1024824]}, "id": "node/11367635017"}, {"type": "Feature", "properties": {"@id": "node/11367635018", "amenity": "bench"}, "geometry": {"type": "Point", "coordinates": [-0.1590479, 54.1024567]}, "id": "node/11367635018"}, {"type": "Feature", "properties": {"@id": "node/11367635019", "amenity": "bench"}, "geometry": {"type": "Point", "coordinates": [-0.1590425, 54.1024336]}, "id": "node/11367635019"}, {"type": "Feature", "properties": {"@id": "node/11367635020", "amenity": "bench"}, "geometry": {"type": "Point", "coordinates": [-0.159038, 54.1024079]}, "id": "node/11367635020"}, {"type": "Feature", "properties": {"@id": "node/11367635021", "amenity": "bench"}, "geometry": {"type": "Point", "coordinates": [-0.1590282, 54.1023833]}, "id": "node/11367635021"}, {"type": "Feature", "properties": {"@id": "node/11367635022", "amenity": "bench"}, "geometry": {"type": "Point", "coordinates": [-0.1597345, 54.1026423]}, "id": "node/11367635022"}, {"type": "Feature", "properties": {"@id": "node/11367635023", "amenity": "bench"}, "geometry": {"type": "Point", "coordinates": [-0.1596326, 54.1026564]}, "id": "node/11367635023"}, {"type": "Feature", "properties": {"@id": "node/11367635024", "amenity": "bench"}, "geometry": {"type": "Point", "coordinates": [-0.1595235, 54.10267]}, "id": "node/11367635024"}, {"type": "Feature", "properties": {"@id": "node/11367635025", "amenity": "bench"}, "geometry": {"type": "Point", "coordinates": [-0.1594171, 54.1026831]}, "id": "node/11367635025"}, {"type": "Feature", "properties": {"@id": "node/11367635026", "amenity": "bench"}, "geometry": {"type": "Point", "coordinates": [-0.1593134, 54.1026952]}, "id": "node/11367635026"}, {"type": "Feature", "properties": {"@id": "node/11367635027", "amenity": "bench"}, "geometry": {"type": "Point", "coordinates": [-0.1592061, 54.1027099]}, "id": "node/11367635027"}, {"type": "Feature", "properties": {"@id": "node/11511676683", "amenity": "bench", "material": "wood"}, "geometry": {"type": "Point", "coordinates": [-0.1691411, 54.1468375]}, "id": "node/11511676683"}, {"type": "Feature", "properties": {"@id": "node/11511676684", "amenity": "bench", "material": "wood"}, "geometry": {"type": "Point", "coordinates": [-0.1692166, 54.146881]}, "id": "node/11511676684"}, {"type": "Feature", "properties": {"@id": "node/11522621147", "amenity": "bench", "backrest": "yes", "material": "wood"}, "geometry": {"type": "Point", "coordinates": [-0.1687343, 54.1462673]}, "id": "node/11522621147"}, {"type": "Feature", "properties": {"@id": "node/12460777868", "amenity": "bench", "armrest": "yes", "backrest": "yes", "material": "wood"}, "geometry": {"type": "Point", "coordinates": [-0.1126447, 54.1242189]}, "id": "node/12460777868"}, {"type": "Feature", "properties": {"@id": "node/12516881480", "amenity": "bench"}, "geometry": {"type": "Point", "coordinates": [-0.1822817, 54.0876765]}, "id": "node/12516881480"}, {"type": "Feature", "properties": {"@id": "node/12516881481", "amenity": "bench"}, "geometry": {"type": "Point", "coordinates": [-0.1823488, 54.087597]}, "id": "node/12516881481"}, {"type": "Feature", "properties": {"@id": "node/12516881482", "amenity": "bench"}, "geometry": {"type": "Point", "coordinates": [-0.1826505, 54.0872784]}, "id": "node/12516881482"}, {"type": "Feature", "properties": {"@id": "node/12516881483", "amenity": "bench"}, "geometry": {"type": "Point", "coordinates": [-0.1825057, 54.0874137]}, "id": "node/12516881483"}, {"type": "Feature", "properties": {"@id": "node/12516881484", "amenity": "bench"}, "geometry": {"type": "Point", "coordinates": [-0.1823957, 54.0875388]}, "id": "node/12516881484"}, {"type": "Feature", "properties": {"@id": "node/12516926006", "amenity": "bench", "backrest": "yes"}, "geometry": {"type": "Point", "coordinates": [-0.1820309, 54.0878975]}, "id": "node/12516926006"}, {"type": "Feature", "properties": {"@id": "node/12516926007", "amenity": "bench", "backrest": "yes"}, "geometry": {"type": "Point", "coordinates": [-0.1819142, 54.0880092]}, "id": "node/12516926007"}, {"type": "Feature", "properties": {"@id": "node/12516926008", "amenity": "bench", "backrest": "yes"}, "geometry": {"type": "Point", "coordinates": [-0.1821382, 54.087796]}, "id": "node/12516926008"}, {"type": "Feature", "properties": {"@id": "node/12516926009", "amenity": "bench", "backrest": "yes"}, "geometry": {"type": "Point", "coordinates": [-0.1818217, 54.088117]}, "id": "node/12516926009"}, {"type": "Feature", "properties": {"@id": "node/12516930849", "amenity": "bench"}, "geometry": {"type": "Point", "coordinates": [-0.1780881, 54.091353]}, "id": "node/12516930849"}, {"type": "Feature", "properties": {"@id": "node/12516930852", "amenity": "bench"}, "geometry": {"type": "Point", "coordinates": [-0.1791663, 54.0904799]}, "id": "node/12516930852"}, {"type": "Feature", "properties": {"@id": "node/12516930853", "amenity": "bench"}, "geometry": {"type": "Point", "coordinates": [-0.1789503, 54.0906703]}, "id": "node/12516930853"}, {"type": "Feature", "properties": {"@id": "node/12516930854", "amenity": "bench"}, "geometry": {"type": "Point", "coordinates": [-0.1783062, 54.0911868]}, "id": "node/12516930854"}, {"type": "Feature", "properties": {"@id": "node/12516930855", "amenity": "bench"}, "geometry": {"type": "Point", "coordinates": [-0.1793822, 54.0902833]}, "id": "node/12516930855"}, {"type": "Feature", "properties": {"@id": "node/12516934529", "amenity": "bench"}, "geometry": {"type": "Point", "coordinates": [-0.182794, 54.0871306]}, "id": "node/12516934529"}, {"type": "Feature", "properties": {"@id": "node/12516942244", "amenity": "bench", "backrest": "yes"}, "geometry": {"type": "Point", "coordinates": [-0.1815977, 54.0883585]}, "id": "node/12516942244"}, {"type": "Feature", "properties": {"@id": "node/12516942245", "amenity": "bench"}, "geometry": {"type": "Point", "coordinates": [-0.1811203, 54.0888344]}, "id": "node/12516942245"}, {"type": "Feature", "properties": {"@id": "node/12516942246", "amenity": "bench"}, "geometry": {"type": "Point", "coordinates": [-0.1808105, 54.089182]}, "id": "node/12516942246"}, {"type": "Feature", "properties": {"@id": "node/12516942247", "amenity": "bench"}, "geometry": {"type": "Point", "coordinates": [-0.1814649, 54.0884772]}, "id": "node/12516942247"}, {"type": "Feature", "properties": {"@id": "node/12516942248", "amenity": "bench"}, "geometry": {"type": "Point", "coordinates": [-0.1814113, 54.0885425]}, "id": "node/12516942248"}, {"type": "Feature", "properties": {"@id": "node/12516942249", "amenity": "bench"}, "geometry": {"type": "Point", "coordinates": [-0.181022, 54.0889285]}, "id": "node/12516942249"}, {"type": "Feature", "properties": {"@id": "node/12516942250", "amenity": "bench"}, "geometry": {"type": "Point", "coordinates": [-0.1808212, 54.0891443]}, "id": "node/12516942250"}, {"type": "Feature", "properties": {"@id": "node/12516942251", "amenity": "bench"}, "geometry": {"type": "Point", "coordinates": [-0.1813241, 54.088629]}, "id": "node/12516942251"}, {"type": "Feature", "properties": {"@id": "node/12516978351", "amenity": "bench"}, "geometry": {"type": "Point", "coordinates": [-0.1680281, 54.0987401]}, "id": "node/12516978351"}, {"type": "Feature", "properties": {"@id": "node/12516978352", "amenity": "bench"}, "geometry": {"type": "Point", "coordinates": [-0.1684827, 54.0985404]}, "id": "node/12516978352"}, {"type": "Feature", "properties": {"@id": "node/12516978356", "amenity": "bench"}, "geometry": {"type": "Point", "coordinates": [-0.1720486, 54.0963856]}, "id": "node/12516978356"}, {"type": "Feature", "properties": {"@id": "node/12516978357", "amenity": "bench"}, "geometry": {"type": "Point", "coordinates": [-0.1703066, 54.0975267]}, "id": "node/12516978357"}, {"type": "Feature", "properties": {"@id": "node/12516981717", "amenity": "bench"}, "geometry": {"type": "Point", "coordinates": [-0.1756485, 54.0940468]}, "id": "node/12516981717"}, {"type": "Feature", "properties": {"@id": "node/12516986571", "amenity": "bench"}, "geometry": {"type": "Point", "coordinates": [-0.1635836, 54.1002587]}, "id": "node/12516986571"}, {"type": "Feature", "properties": {"@id": "node/12806128473", "amenity": "bench", "backrest": "yes"}, "geometry": {"type": "Point", "coordinates": [-0.1816359, 54.0888899]}, "id": "node/12806128473"}, {"type": "Feature", "properties": {"@id": "node/12806137079", "amenity": "bench", "backrest": "no"}, "geometry": {"type": "Point", "coordinates": [-0.1813036, 54.0891202]}, "id": "node/12806137079"}, {"type": "Feature", "properties": {"@id": "node/12806193884", "amenity": "bench", "backrest": "no"}, "geometry": {"type": "Point", "coordinates": [-0.1812511, 54.0891679]}, "id": "node/12806193884"}, {"type": "Feature", "properties": {"@id": "node/12806206181", "amenity": "bench", "backrest": "yes"}, "geometry": {"type": "Point", "coordinates": [-0.1814346, 54.0890198]}, "id": "node/12806206181"}, {"type": "Feature", "properties": {"@id": "node/12806209972", "amenity": "bench", "backrest": "no"}, "geometry": {"type": "Point", "coordinates": [-0.1812879, 54.0891394]}, "id": "node/12806209972"}, {"type": "Feature", "properties": {"@id": "node/12806211155", "amenity": "bench", "backrest": "yes"}, "geometry": {"type": "Point", "coordinates": [-0.181529, 54.088949]}, "id": "node/12806211155"}, {"type": "Feature", "properties": {"@id": "node/12806212371", "amenity": "bench", "backrest": "yes"}, "geometry": {"type": "Point", "coordinates": [-0.1817561, 54.0888116]}, "id": "node/12806212371"}, {"type": "Feature", "properties": {"@id": "node/12806212473", "amenity": "bench", "backrest": "yes"}, "geometry": {"type": "Point", "coordinates": [-0.1812278, 54.0891892]}, "id": "node/12806212473"}, {"type": "Feature", "properties": {"@id": "node/12806218659", "amenity": "bench", "backrest": "yes"}, "geometry": {"type": "Point", "coordinates": [-0.1813287, 54.0890969]}, "id": "node/12806218659"}]}