{"type": "FeatureCollection", "features": [{"type": "Feature", "properties": {"@id": "node/88128001", "amenity": "bench"}, "geometry": {"type": "Point", "coordinates": [-3.1137734, 57.5936859]}, "id": "node/88128001"}, {"type": "Feature", "properties": {"@id": "node/477941814", "amenity": "bench", "backrest": "yes"}, "geometry": {"type": "Point", "coordinates": [-2.91266, 57.6914777]}, "id": "node/477941814"}, {"type": "Feature", "properties": {"@id": "node/3131860082", "amenity": "bench", "backrest": "yes"}, "geometry": {"type": "Point", "coordinates": [-3.2268888, 57.4716815]}, "id": "node/3131860082"}, {"type": "Feature", "properties": {"@id": "node/4281348021", "amenity": "bench"}, "geometry": {"type": "Point", "coordinates": [-2.4944649, 57.6692422]}, "id": "node/4281348021"}, {"type": "Feature", "properties": {"@id": "node/4284056808", "amenity": "bench"}, "geometry": {"type": "Point", "coordinates": [-2.579938, 57.67729]}, "id": "node/4284056808"}, {"type": "Feature", "properties": {"@id": "node/5111840364", "amenity": "bench"}, "geometry": {"type": "Point", "coordinates": [-3.3759999, 58.5944135]}, "id": "node/5111840364"}, {"type": "Feature", "properties": {"@id": "node/5111840385", "amenity": "bench"}, "geometry": {"type": "Point", "coordinates": [-3.3861641, 58.598426]}, "id": "node/5111840385"}, {"type": "Feature", "properties": {"@id": "node/5583918142", "amenity": "bench"}, "geometry": {"type": "Point", "coordinates": [-3.1271669, 57.4382168]}, "id": "node/5583918142"}, {"type": "Feature", "properties": {"@id": "node/5654158140", "amenity": "bench"}, "geometry": {"type": "Point", "coordinates": [-3.2020862, 57.5207627]}, "id": "node/5654158140"}, {"type": "Feature", "properties": {"@id": "node/5654321423", "amenity": "bench"}, "geometry": {"type": "Point", "coordinates": [-3.2023723, 57.5203395]}, "id": "node/5654321423"}, {"type": "Feature", "properties": {"@id": "node/5742224432", "amenity": "bench"}, "geometry": {"type": "Point", "coordinates": [-2.6909691, 57.6807432]}, "id": "node/5742224432"}, {"type": "Feature", "properties": {"@id": "node/5744402579", "amenity": "bench"}, "geometry": {"type": "Point", "coordinates": [-2.5225371, 57.6686683]}, "id": "node/5744402579"}, {"type": "Feature", "properties": {"@id": "node/5744402641", "amenity": "bench", "backrest": "yes"}, "geometry": {"type": "Point", "coordinates": [-2.5232519, 57.6709089]}, "id": "node/5744402641"}, {"type": "Feature", "properties": {"@id": "node/5744402642", "amenity": "bench", "backrest": "yes"}, "geometry": {"type": "Point", "coordinates": [-2.5233874, 57.6708432]}, "id": "node/5744402642"}, {"type": "Feature", "properties": {"@id": "node/5744402643", "amenity": "bench", "backrest": "yes"}, "geometry": {"type": "Point", "coordinates": [-2.523492, 57.6708063]}, "id": "node/5744402643"}, {"type": "Feature", "properties": {"@id": "node/5744402699", "amenity": "bench", "backrest": "yes"}, "geometry": {"type": "Point", "coordinates": [-2.524239, 57.6702942]}, "id": "node/5744402699"}, {"type": "Feature", "properties": {"@id": "node/5744402700", "amenity": "bench", "backrest": "yes"}, "geometry": {"type": "Point", "coordinates": [-2.5243194, 57.6704398]}, "id": "node/5744402700"}, {"type": "Feature", "properties": {"@id": "node/5744402701", "amenity": "bench", "backrest": "yes"}, "geometry": {"type": "Point", "coordinates": [-2.5245628, 57.6705542]}, "id": "node/5744402701"}, {"type": "Feature", "properties": {"@id": "node/5744402702", "amenity": "bench", "backrest": "yes"}, "geometry": {"type": "Point", "coordinates": [-2.5248774, 57.6705447]}, "id": "node/5744402702"}, {"type": "Feature", "properties": {"@id": "node/5744402750", "amenity": "bench", "backrest": "yes"}, "geometry": {"type": "Point", "coordinates": [-2.5250289, 57.6709175]}, "id": "node/5744402750"}, {"type": "Feature", "properties": {"@id": "node/5744402751", "amenity": "bench", "backrest": "yes"}, "geometry": {"type": "Point", "coordinates": [-2.5254419, 57.6709146]}, "id": "node/5744402751"}, {"type": "Feature", "properties": {"@id": "node/6151262646", "amenity": "bench"}, "geometry": {"type": "Point", "coordinates": [-3.3808802, 58.5887059]}, "id": "node/6151262646"}, {"type": "Feature", "properties": {"@id": "node/6763572875", "amenity": "bench"}, "geometry": {"type": "Point", "coordinates": [-2.577, 57.68108]}, "id": "node/6763572875"}, {"type": "Feature", "properties": {"@id": "node/6763572876", "amenity": "bench"}, "geometry": {"type": "Point", "coordinates": [-2.57675, 57.68129]}, "id": "node/6763572876"}, {"type": "Feature", "properties": {"@id": "node/6763623008", "amenity": "bench"}, "geometry": {"type": "Point", "coordinates": [-2.5760619, 57.6816391]}, "id": "node/6763623008"}, {"type": "Feature", "properties": {"@id": "node/6763623009", "amenity": "bench"}, "geometry": {"type": "Point", "coordinates": [-2.5760901, 57.6815914]}, "id": "node/6763623009"}, {"type": "Feature", "properties": {"@id": "node/6792092279", "amenity": "bench", "backrest": "yes", "material": "wood"}, "geometry": {"type": "Point", "coordinates": [-3.1631555, 58.3463892]}, "id": "node/6792092279"}, {"type": "Feature", "properties": {"@id": "node/6844021385", "amenity": "bench", "backrest": "yes", "material": "wood"}, "geometry": {"type": "Point", "coordinates": [-3.2283899, 57.4691777]}, "id": "node/6844021385"}, {"type": "Feature", "properties": {"@id": "node/6851139329", "amenity": "bench", "backrest": "yes", "material": "wood"}, "geometry": {"type": "Point", "coordinates": [-3.1215656, 57.4441787]}, "id": "node/6851139329"}, {"type": "Feature", "properties": {"@id": "node/6851139338", "amenity": "bench", "backrest": "yes", "material": "wood"}, "geometry": {"type": "Point", "coordinates": [-3.1305301, 57.4516271]}, "id": "node/6851139338"}, {"type": "Feature", "properties": {"@id": "node/7265871187", "amenity": "bench", "backrest": "yes"}, "geometry": {"type": "Point", "coordinates": [-2.5307864, 57.6698005]}, "id": "node/7265871187"}, {"type": "Feature", "properties": {"@id": "node/7265871188", "amenity": "bench", "backrest": "yes"}, "geometry": {"type": "Point", "coordinates": [-2.5311672, 57.6697492]}, "id": "node/7265871188"}, {"type": "Feature", "properties": {"@id": "node/7265871189", "amenity": "bench", "backrest": "yes"}, "geometry": {"type": "Point", "coordinates": [-2.5316578, 57.6696843]}, "id": "node/7265871189"}, {"type": "Feature", "properties": {"@id": "node/7265871190", "amenity": "bench", "backrest": "yes"}, "geometry": {"type": "Point", "coordinates": [-2.5321507, 57.6696868]}, "id": "node/7265871190"}, {"type": "Feature", "properties": {"@id": "node/7265871191", "amenity": "bench", "backrest": "yes"}, "geometry": {"type": "Point", "coordinates": [-2.5326669, 57.669718]}, "id": "node/7265871191"}, {"type": "Feature", "properties": {"@id": "node/7265871192", "amenity": "bench", "backrest": "yes"}, "geometry": {"type": "Point", "coordinates": [-2.5335943, 57.6697705]}, "id": "node/7265871192"}, {"type": "Feature", "properties": {"@id": "node/7468233757", "amenity": "bench"}, "geometry": {"type": "Point", "coordinates": [-2.7855729, 57.5790594]}, "id": "node/7468233757"}, {"type": "Feature", "properties": {"@id": "node/7527410573", "amenity": "bench", "backrest": "yes", "material": "wood"}, "geometry": {"type": "Point", "coordinates": [-2.9363176, 57.5430591]}, "id": "node/7527410573"}, {"type": "Feature", "properties": {"@id": "node/7530288948", "amenity": "bench", "backrest": "yes"}, "geometry": {"type": "Point", "coordinates": [-2.9507727, 57.5361829]}, "id": "node/7530288948"}, {"type": "Feature", "properties": {"@id": "node/7563797938", "amenity": "bench", "material": "wood"}, "geometry": {"type": "Point", "coordinates": [-3.2330181, 57.4692577]}, "id": "node/7563797938"}, {"type": "Feature", "properties": {"@id": "node/7563797939", "amenity": "bench", "backrest": "yes", "material": "wood"}, "geometry": {"type": "Point", "coordinates": [-3.2330865, 57.469226]}, "id": "node/7563797939"}, {"type": "Feature", "properties": {"@id": "node/7568549072", "amenity": "bench", "backrest": "yes", "material": "wood"}, "geometry": {"type": "Point", "coordinates": [-3.2294628, 57.4707772]}, "id": "node/7568549072"}, {"type": "Feature", "properties": {"@id": "node/7568549074", "amenity": "bench", "backrest": "yes", "material": "wood"}, "geometry": {"type": "Point", "coordinates": [-3.2319264, 57.4698022]}, "id": "node/7568549074"}, {"type": "Feature", "properties": {"@id": "node/7578664865", "amenity": "bench"}, "geometry": {"type": "Point", "coordinates": [-3.2267967, 57.4716989]}, "id": "node/7578664865"}, {"type": "Feature", "properties": {"@id": "node/7578664866", "amenity": "bench"}, "geometry": {"type": "Point", "coordinates": [-3.226963, 57.4717133]}, "id": "node/7578664866"}, {"type": "Feature", "properties": {"@id": "node/7614913954", "amenity": "bench", "backrest": "yes"}, "geometry": {"type": "Point", "coordinates": [-2.9491502, 57.5383937]}, "id": "node/7614913954"}, {"type": "Feature", "properties": {"@id": "node/7614913958", "amenity": "bench", "backrest": "no", "material": "concrete"}, "geometry": {"type": "Point", "coordinates": [-2.950272, 57.5383096]}, "id": "node/7614913958"}, {"type": "Feature", "properties": {"@id": "node/7636318120", "amenity": "bench"}, "geometry": {"type": "Point", "coordinates": [-3.1303364, 57.4301365]}, "id": "node/7636318120"}, {"type": "Feature", "properties": {"@id": "node/7902734205", "amenity": "bench"}, "geometry": {"type": "Point", "coordinates": [-3.3696216, 57.4229047]}, "id": "node/7902734205"}, {"type": "Feature", "properties": {"@id": "node/7902734245", "amenity": "bench"}, "geometry": {"type": "Point", "coordinates": [-3.3649948, 57.4281121]}, "id": "node/7902734245"}, {"type": "Feature", "properties": {"@id": "node/8930910338", "amenity": "bench"}, "geometry": {"type": "Point", "coordinates": [-3.4930878, 58.5150226]}, "id": "node/8930910338"}, {"type": "Feature", "properties": {"@id": "node/9064685233", "amenity": "bench"}, "geometry": {"type": "Point", "coordinates": [-3.3100792, 57.6487131]}, "id": "node/9064685233"}, {"type": "Feature", "properties": {"@id": "node/9064685234", "amenity": "bench"}, "geometry": {"type": "Point", "coordinates": [-3.3100753, 57.6486764]}, "id": "node/9064685234"}, {"type": "Feature", "properties": {"@id": "node/9064685235", "amenity": "bench"}, "geometry": {"type": "Point", "coordinates": [-3.3102133, 57.6487036]}, "id": "node/9064685235"}, {"type": "Feature", "properties": {"@id": "node/9064685236", "amenity": "bench", "backrest": "yes"}, "geometry": {"type": "Point", "coordinates": [-3.3125588, 57.6489994]}, "id": "node/9064685236"}, {"type": "Feature", "properties": {"@id": "node/9083504228", "amenity": "bench"}, "geometry": {"type": "Point", "coordinates": [-2.8487451, 57.7032861]}, "id": "node/9083504228"}, {"type": "Feature", "properties": {"@id": "node/9083504231", "amenity": "bench"}, "geometry": {"type": "Point", "coordinates": [-2.8471763, 57.7044957]}, "id": "node/9083504231"}, {"type": "Feature", "properties": {"@id": "node/9083504234", "amenity": "bench"}, "geometry": {"type": "Point", "coordinates": [-2.8479249, 57.7046905]}, "id": "node/9083504234"}, {"type": "Feature", "properties": {"@id": "node/9083504291", "amenity": "bench"}, "geometry": {"type": "Point", "coordinates": [-2.857654, 57.7046147]}, "id": "node/9083504291"}, {"type": "Feature", "properties": {"@id": "node/9083504319", "amenity": "bench"}, "geometry": {"type": "Point", "coordinates": [-2.8624509, 57.7040033]}, "id": "node/9083504319"}, {"type": "Feature", "properties": {"@id": "node/9083504320", "amenity": "bench"}, "geometry": {"type": "Point", "coordinates": [-2.8625297, 57.7040043]}, "id": "node/9083504320"}, {"type": "Feature", "properties": {"@id": "node/9083504321", "amenity": "bench"}, "geometry": {"type": "Point", "coordinates": [-2.8626085, 57.7040062]}, "id": "node/9083504321"}, {"type": "Feature", "properties": {"@id": "node/9083504322", "amenity": "bench"}, "geometry": {"type": "Point", "coordinates": [-2.8626926, 57.7040186]}, "id": "node/9083504322"}, {"type": "Feature", "properties": {"@id": "node/9083504323", "amenity": "bench"}, "geometry": {"type": "Point", "coordinates": [-2.8628216, 57.7040196]}, "id": "node/9083504323"}, {"type": "Feature", "properties": {"@id": "node/9083504350", "amenity": "bench", "backrest": "yes"}, "geometry": {"type": "Point", "coordinates": [-2.8218159, 57.6918672]}, "id": "node/9083504350"}, {"type": "Feature", "properties": {"@id": "node/9083504351", "amenity": "bench", "backrest": "yes"}, "geometry": {"type": "Point", "coordinates": [-2.8216738, 57.6919212]}, "id": "node/9083504351"}, {"type": "Feature", "properties": {"@id": "node/9083504352", "amenity": "bench", "backrest": "yes"}, "geometry": {"type": "Point", "coordinates": [-2.8215485, 57.6919695]}, "id": "node/9083504352"}, {"type": "Feature", "properties": {"@id": "node/9083504355", "amenity": "bench"}, "geometry": {"type": "Point", "coordinates": [-2.8223044, 57.6921288]}, "id": "node/9083504355"}, {"type": "Feature", "properties": {"@id": "node/9083504356", "amenity": "bench"}, "geometry": {"type": "Point", "coordinates": [-2.8223765, 57.6923786]}, "id": "node/9083504356"}, {"type": "Feature", "properties": {"@id": "node/9083504357", "amenity": "bench"}, "geometry": {"type": "Point", "coordinates": [-2.8223376, 57.6922391]}, "id": "node/9083504357"}, {"type": "Feature", "properties": {"@id": "node/9083504358", "amenity": "bench"}, "geometry": {"type": "Point", "coordinates": [-2.8221661, 57.69241]}, "id": "node/9083504358"}, {"type": "Feature", "properties": {"@id": "node/9083504359", "amenity": "bench"}, "geometry": {"type": "Point", "coordinates": [-2.8224007, 57.6924793]}, "id": "node/9083504359"}, {"type": "Feature", "properties": {"@id": "node/9206465529", "amenity": "bench", "backrest": "yes"}, "geometry": {"type": "Point", "coordinates": [-3.2829352, 57.7188626]}, "id": "node/9206465529"}, {"type": "Feature", "properties": {"@id": "node/9206465530", "amenity": "bench", "backrest": "yes"}, "geometry": {"type": "Point", "coordinates": [-3.2828698, 57.7189494]}, "id": "node/9206465530"}, {"type": "Feature", "properties": {"@id": "node/9556563653", "amenity": "bench"}, "geometry": {"type": "Point", "coordinates": [-2.6917167, 57.6856471]}, "id": "node/9556563653"}, {"type": "Feature", "properties": {"@id": "node/9805557066", "amenity": "bench"}, "geometry": {"type": "Point", "coordinates": [-3.2730608, 58.2991265]}, "id": "node/9805557066"}, {"type": "Feature", "properties": {"@id": "node/9805558385", "amenity": "bench", "description": "In memory of David Gunn"}, "geometry": {"type": "Point", "coordinates": [-3.2932549, 58.295373]}, "id": "node/9805558385"}, {"type": "Feature", "properties": {"@id": "node/9805570244", "amenity": "bench"}, "geometry": {"type": "Point", "coordinates": [-3.2934945, 58.2958048]}, "id": "node/9805570244"}, {"type": "Feature", "properties": {"@id": "node/9823159061", "amenity": "bench"}, "geometry": {"type": "Point", "coordinates": [-3.4668528, 58.2096897]}, "id": "node/9823159061"}, {"type": "Feature", "properties": {"@id": "node/9823164932", "amenity": "bench"}, "geometry": {"type": "Point", "coordinates": [-3.1008123, 58.4741749]}, "id": "node/9823164932"}, {"type": "Feature", "properties": {"@id": "node/9823173457", "amenity": "bench"}, "geometry": {"type": "Point", "coordinates": [-3.4300635, 58.2461298]}, "id": "node/9823173457"}, {"type": "Feature", "properties": {"@id": "node/9823174859", "amenity": "bench"}, "geometry": {"type": "Point", "coordinates": [-3.2851763, 58.3031671]}, "id": "node/9823174859"}, {"type": "Feature", "properties": {"@id": "node/9823179310", "amenity": "bench"}, "geometry": {"type": "Point", "coordinates": [-3.2851785, 58.3031204]}, "id": "node/9823179310"}, {"type": "Feature", "properties": {"@id": "node/9823179963", "amenity": "bench"}, "geometry": {"type": "Point", "coordinates": [-3.4311406, 58.2464561]}, "id": "node/9823179963"}, {"type": "Feature", "properties": {"@id": "node/9949321213", "amenity": "bench", "backrest": "yes", "material": "wood", "seats": "4"}, "geometry": {"type": "Point", "coordinates": [-3.3552879, 57.4664331]}, "id": "node/9949321213"}, {"type": "Feature", "properties": {"@id": "node/10073514939", "amenity": "bench"}, "geometry": {"type": "Point", "coordinates": [-3.3113062, 57.6480878]}, "id": "node/10073514939"}, {"type": "Feature", "properties": {"@id": "node/10073514940", "amenity": "bench"}, "geometry": {"type": "Point", "coordinates": [-3.3111833, 57.6480695]}, "id": "node/10073514940"}, {"type": "Feature", "properties": {"@id": "node/10073514941", "amenity": "bench"}, "geometry": {"type": "Point", "coordinates": [-3.3112252, 57.6480969]}, "id": "node/10073514941"}, {"type": "Feature", "properties": {"@id": "node/10073597750", "amenity": "bench"}, "geometry": {"type": "Point", "coordinates": [-3.3101801, 57.6486602]}, "id": "node/10073597750"}, {"type": "Feature", "properties": {"@id": "node/10073806260", "amenity": "bench"}, "geometry": {"type": "Point", "coordinates": [-3.3098555, 57.6489468]}, "id": "node/10073806260"}, {"type": "Feature", "properties": {"@id": "node/10073806261", "amenity": "bench"}, "geometry": {"type": "Point", "coordinates": [-3.3098595, 57.6488923]}, "id": "node/10073806261"}, {"type": "Feature", "properties": {"@id": "node/10073907960", "amenity": "bench"}, "geometry": {"type": "Point", "coordinates": [-3.3108858, 57.6498315]}, "id": "node/10073907960"}, {"type": "Feature", "properties": {"@id": "node/10087194851", "amenity": "bench"}, "geometry": {"type": "Point", "coordinates": [-3.2809851, 57.7239829]}, "id": "node/10087194851"}, {"type": "Feature", "properties": {"@id": "node/10087194866", "amenity": "bench"}, "geometry": {"type": "Point", "coordinates": [-3.2806209, 57.7240183]}, "id": "node/10087194866"}, {"type": "Feature", "properties": {"@id": "node/10152630439", "amenity": "bench", "backrest": "yes"}, "geometry": {"type": "Point", "coordinates": [-3.3083146, 57.6507129]}, "id": "node/10152630439"}, {"type": "Feature", "properties": {"@id": "node/10152630440", "amenity": "bench", "backrest": "yes"}, "geometry": {"type": "Point", "coordinates": [-3.3084517, 57.6507159]}, "id": "node/10152630440"}, {"type": "Feature", "properties": {"@id": "node/10152630441", "amenity": "bench", "backrest": "yes"}, "geometry": {"type": "Point", "coordinates": [-3.3086217, 57.6507197]}, "id": "node/10152630441"}, {"type": "Feature", "properties": {"@id": "node/10152630442", "amenity": "bench", "backrest": "yes"}, "geometry": {"type": "Point", "coordinates": [-3.3087552, 57.6507226]}, "id": "node/10152630442"}, {"type": "Feature", "properties": {"@id": "node/10152842379", "amenity": "bench"}, "geometry": {"type": "Point", "coordinates": [-3.3091777, 57.6507206]}, "id": "node/10152842379"}, {"type": "Feature", "properties": {"@id": "node/10152842380", "amenity": "bench"}, "geometry": {"type": "Point", "coordinates": [-3.3101885, 57.6507363]}, "id": "node/10152842380"}, {"type": "Feature", "properties": {"@id": "node/10152842381", "amenity": "bench"}, "geometry": {"type": "Point", "coordinates": [-3.3096525, 57.650728]}, "id": "node/10152842381"}, {"type": "Feature", "properties": {"@id": "node/10152842382", "amenity": "bench"}, "geometry": {"type": "Point", "coordinates": [-3.3099034, 57.6507319]}, "id": "node/10152842382"}, {"type": "Feature", "properties": {"@id": "node/10152907574", "amenity": "bench"}, "geometry": {"type": "Point", "coordinates": [-3.3094656, 57.6512362]}, "id": "node/10152907574"}, {"type": "Feature", "properties": {"@id": "node/10152907581", "amenity": "bench"}, "geometry": {"type": "Point", "coordinates": [-3.309853, 57.6508993]}, "id": "node/10152907581"}, {"type": "Feature", "properties": {"@id": "node/10152907582", "amenity": "bench"}, "geometry": {"type": "Point", "coordinates": [-3.3096318, 57.6509852]}, "id": "node/10152907582"}, {"type": "Feature", "properties": {"@id": "node/10152907599", "amenity": "bench"}, "geometry": {"type": "Point", "coordinates": [-3.3086636, 57.6517025]}, "id": "node/10152907599"}, {"type": "Feature", "properties": {"@id": "node/10152907600", "amenity": "bench"}, "geometry": {"type": "Point", "coordinates": [-3.3089523, 57.6516408]}, "id": "node/10152907600"}, {"type": "Feature", "properties": {"@id": "node/10616409752", "amenity": "bench"}, "geometry": {"type": "Point", "coordinates": [-3.2997314, 57.6491884]}, "id": "node/10616409752"}, {"type": "Feature", "properties": {"@id": "node/10633832775", "amenity": "bench"}, "geometry": {"type": "Point", "coordinates": [-3.3040286, 57.650506]}, "id": "node/10633832775"}, {"type": "Feature", "properties": {"@id": "node/10746894059", "amenity": "bench"}, "geometry": {"type": "Point", "coordinates": [-3.321416, 57.6476028]}, "id": "node/10746894059"}, {"type": "Feature", "properties": {"@id": "node/10746894060", "amenity": "bench"}, "geometry": {"type": "Point", "coordinates": [-3.3217594, 57.6475174]}, "id": "node/10746894060"}, {"type": "Feature", "properties": {"@id": "node/10746894061", "amenity": "bench"}, "geometry": {"type": "Point", "coordinates": [-3.3217352, 57.6476624]}, "id": "node/10746894061"}, {"type": "Feature", "properties": {"@id": "node/10746894062", "amenity": "bench"}, "geometry": {"type": "Point", "coordinates": [-3.3216296, 57.6476882]}, "id": "node/10746894062"}, {"type": "Feature", "properties": {"@id": "node/10746894151", "amenity": "bench"}, "geometry": {"type": "Point", "coordinates": [-3.3220498, 57.6483309]}, "id": "node/10746894151"}, {"type": "Feature", "properties": {"@id": "node/10773878584", "amenity": "bench"}, "geometry": {"type": "Point", "coordinates": [-3.3282675, 57.645934]}, "id": "node/10773878584"}, {"type": "Feature", "properties": {"@id": "node/10773878585", "amenity": "bench"}, "geometry": {"type": "Point", "coordinates": [-3.328209, 57.6458572]}, "id": "node/10773878585"}, {"type": "Feature", "properties": {"@id": "node/10804118343", "amenity": "bench"}, "geometry": {"type": "Point", "coordinates": [-2.9654563, 57.6763664]}, "id": "node/10804118343"}, {"type": "Feature", "properties": {"@id": "node/10867788497", "amenity": "bench"}, "geometry": {"type": "Point", "coordinates": [-3.4889002, 57.7009516]}, "id": "node/10867788497"}, {"type": "Feature", "properties": {"@id": "node/10943596045", "amenity": "bench"}, "geometry": {"type": "Point", "coordinates": [-3.468782, 57.695901]}, "id": "node/10943596045"}, {"type": "Feature", "properties": {"@id": "node/10943596046", "amenity": "bench"}, "geometry": {"type": "Point", "coordinates": [-3.4686702, 57.6958423]}, "id": "node/10943596046"}, {"type": "Feature", "properties": {"@id": "node/10946056757", "amenity": "bench"}, "geometry": {"type": "Point", "coordinates": [-3.3201348, 57.6515841]}, "id": "node/10946056757"}, {"type": "Feature", "properties": {"@id": "node/10946056758", "amenity": "bench"}, "geometry": {"type": "Point", "coordinates": [-3.3209179, 57.6514402]}, "id": "node/10946056758"}, {"type": "Feature", "properties": {"@id": "node/11030184309", "amenity": "bench"}, "geometry": {"type": "Point", "coordinates": [-3.4965149, 57.7032755]}, "id": "node/11030184309"}, {"type": "Feature", "properties": {"@id": "node/11030184317", "amenity": "bench"}, "geometry": {"type": "Point", "coordinates": [-3.4968891, 57.7029143]}, "id": "node/11030184317"}, {"type": "Feature", "properties": {"@id": "node/11030184318", "amenity": "bench"}, "geometry": {"type": "Point", "coordinates": [-3.4970983, 57.7027975]}, "id": "node/11030184318"}, {"type": "Feature", "properties": {"@id": "node/11030184319", "amenity": "bench"}, "geometry": {"type": "Point", "coordinates": [-3.4970138, 57.7027746]}, "id": "node/11030184319"}, {"type": "Feature", "properties": {"@id": "node/11032297037", "amenity": "bench"}, "geometry": {"type": "Point", "coordinates": [-3.496799, 57.7033]}, "id": "node/11032297037"}, {"type": "Feature", "properties": {"@id": "node/11032297038", "amenity": "bench"}, "geometry": {"type": "Point", "coordinates": [-3.4971324, 57.7034092]}, "id": "node/11032297038"}, {"type": "Feature", "properties": {"@id": "node/11041866705", "amenity": "bench"}, "geometry": {"type": "Point", "coordinates": [-2.9657006, 57.6767695]}, "id": "node/11041866705"}, {"type": "Feature", "properties": {"@id": "node/11041866706", "amenity": "bench"}, "geometry": {"type": "Point", "coordinates": [-2.9659038, 57.6767195]}, "id": "node/11041866706"}, {"type": "Feature", "properties": {"@id": "node/11043605932", "amenity": "bench"}, "geometry": {"type": "Point", "coordinates": [-3.0135161, 57.6643894]}, "id": "node/11043605932"}, {"type": "Feature", "properties": {"@id": "node/11043605933", "amenity": "bench"}, "geometry": {"type": "Point", "coordinates": [-3.0136108, 57.6643576]}, "id": "node/11043605933"}, {"type": "Feature", "properties": {"@id": "node/11091444783", "amenity": "bench"}, "geometry": {"type": "Point", "coordinates": [-3.3067303, 57.6458548]}, "id": "node/11091444783"}, {"type": "Feature", "properties": {"@id": "node/11091444784", "amenity": "bench"}, "geometry": {"type": "Point", "coordinates": [-3.3068569, 57.645939]}, "id": "node/11091444784"}, {"type": "Feature", "properties": {"@id": "node/11091444785", "amenity": "bench"}, "geometry": {"type": "Point", "coordinates": [-3.3069726, 57.6460158]}, "id": "node/11091444785"}, {"type": "Feature", "properties": {"@id": "node/11091444786", "amenity": "bench"}, "geometry": {"type": "Point", "coordinates": [-3.3075304, 57.6457853]}, "id": "node/11091444786"}, {"type": "Feature", "properties": {"@id": "node/11091444787", "amenity": "bench"}, "geometry": {"type": "Point", "coordinates": [-3.3074198, 57.6457112]}, "id": "node/11091444787"}, {"type": "Feature", "properties": {"@id": "node/11091444788", "amenity": "bench"}, "geometry": {"type": "Point", "coordinates": [-3.3073019, 57.6456323]}, "id": "node/11091444788"}, {"type": "Feature", "properties": {"@id": "node/11091444789", "amenity": "bench"}, "geometry": {"type": "Point", "coordinates": [-3.3069753, 57.6454231]}, "id": "node/11091444789"}, {"type": "Feature", "properties": {"@id": "node/11091444790", "amenity": "bench"}, "geometry": {"type": "Point", "coordinates": [-3.3068577, 57.6453452]}, "id": "node/11091444790"}, {"type": "Feature", "properties": {"@id": "node/11091444791", "amenity": "bench"}, "geometry": {"type": "Point", "coordinates": [-3.3067238, 57.6452565]}, "id": "node/11091444791"}, {"type": "Feature", "properties": {"@id": "node/11091444792", "amenity": "bench"}, "geometry": {"type": "Point", "coordinates": [-3.3062582, 57.6455515]}, "id": "node/11091444792"}, {"type": "Feature", "properties": {"@id": "node/11091444793", "amenity": "bench"}, "geometry": {"type": "Point", "coordinates": [-3.3061418, 57.6454773]}, "id": "node/11091444793"}, {"type": "Feature", "properties": {"@id": "node/11091444794", "amenity": "bench"}, "geometry": {"type": "Point", "coordinates": [-3.3063829, 57.645631]}, "id": "node/11091444794"}, {"type": "Feature", "properties": {"@id": "node/11134746113", "amenity": "bench"}, "geometry": {"type": "Point", "coordinates": [-2.8141571, 57.6955735]}, "id": "node/11134746113"}, {"type": "Feature", "properties": {"@id": "node/11135000191", "amenity": "bench"}, "geometry": {"type": "Point", "coordinates": [-2.8212235, 57.693465]}, "id": "node/11135000191"}, {"type": "Feature", "properties": {"@id": "node/11135038933", "amenity": "bench"}, "geometry": {"type": "Point", "coordinates": [-2.8213022, 57.6934542]}, "id": "node/11135038933"}, {"type": "Feature", "properties": {"@id": "node/11135038947", "amenity": "bench"}, "geometry": {"type": "Point", "coordinates": [-2.819861, 57.6935966]}, "id": "node/11135038947"}, {"type": "Feature", "properties": {"@id": "node/11135038948", "amenity": "bench"}, "geometry": {"type": "Point", "coordinates": [-2.8173264, 57.6934054]}, "id": "node/11135038948"}, {"type": "Feature", "properties": {"@id": "node/11135038949", "amenity": "bench"}, "geometry": {"type": "Point", "coordinates": [-2.817046, 57.6935161]}, "id": "node/11135038949"}, {"type": "Feature", "properties": {"@id": "node/11135038956", "amenity": "bench"}, "geometry": {"type": "Point", "coordinates": [-2.8107262, 57.6922214]}, "id": "node/11135038956"}, {"type": "Feature", "properties": {"@id": "node/11135038963", "amenity": "bench"}, "geometry": {"type": "Point", "coordinates": [-2.7702121, 57.6912362]}, "id": "node/11135038963"}, {"type": "Feature", "properties": {"@id": "node/11135038966", "amenity": "bench"}, "geometry": {"type": "Point", "coordinates": [-2.7997344, 57.6955829]}, "id": "node/11135038966"}, {"type": "Feature", "properties": {"@id": "node/11135038972", "amenity": "bench"}, "geometry": {"type": "Point", "coordinates": [-2.8099353, 57.6957452]}, "id": "node/11135038972"}, {"type": "Feature", "properties": {"@id": "node/11188158898", "amenity": "bench"}, "geometry": {"type": "Point", "coordinates": [-2.9271297, 57.692141]}, "id": "node/11188158898"}, {"type": "Feature", "properties": {"@id": "node/11188158899", "amenity": "bench"}, "geometry": {"type": "Point", "coordinates": [-2.926817, 57.6915209]}, "id": "node/11188158899"}, {"type": "Feature", "properties": {"@id": "node/11188158900", "amenity": "bench"}, "geometry": {"type": "Point", "coordinates": [-2.9265934, 57.6911169]}, "id": "node/11188158900"}, {"type": "Feature", "properties": {"@id": "node/11188158901", "amenity": "bench"}, "geometry": {"type": "Point", "coordinates": [-2.9266293, 57.6908526]}, "id": "node/11188158901"}, {"type": "Feature", "properties": {"@id": "node/11188158902", "amenity": "bench"}, "geometry": {"type": "Point", "coordinates": [-2.9268942, 57.6905655]}, "id": "node/11188158902"}, {"type": "Feature", "properties": {"@id": "node/11245190240", "amenity": "bench"}, "geometry": {"type": "Point", "coordinates": [-2.6917268, 57.6855776]}, "id": "node/11245190240"}, {"type": "Feature", "properties": {"@id": "node/11245190241", "amenity": "bench"}, "geometry": {"type": "Point", "coordinates": [-2.6916752, 57.685592]}, "id": "node/11245190241"}, {"type": "Feature", "properties": {"@id": "node/11245190242", "amenity": "bench"}, "geometry": {"type": "Point", "coordinates": [-2.6917128, 57.6855927]}, "id": "node/11245190242"}, {"type": "Feature", "properties": {"@id": "node/11245385393", "amenity": "bench"}, "geometry": {"type": "Point", "coordinates": [-2.822626, 57.691626]}, "id": "node/11245385393"}, {"type": "Feature", "properties": {"@id": "node/11245385395", "amenity": "bench"}, "geometry": {"type": "Point", "coordinates": [-2.8242809, 57.6909827]}, "id": "node/11245385395"}, {"type": "Feature", "properties": {"@id": "node/11245385396", "amenity": "bench"}, "geometry": {"type": "Point", "coordinates": [-2.8245103, 57.690958]}, "id": "node/11245385396"}, {"type": "Feature", "properties": {"@id": "node/11245385428", "amenity": "bench"}, "geometry": {"type": "Point", "coordinates": [-2.8254966, 57.6898609]}, "id": "node/11245385428"}, {"type": "Feature", "properties": {"@id": "node/11245385434", "amenity": "bench", "backrest": "yes"}, "geometry": {"type": "Point", "coordinates": [-2.8257193, 57.6904351]}, "id": "node/11245385434"}, {"type": "Feature", "properties": {"@id": "node/11245385435", "amenity": "bench", "backrest": "yes"}, "geometry": {"type": "Point", "coordinates": [-2.8256241, 57.6904573]}, "id": "node/11245385435"}, {"type": "Feature", "properties": {"@id": "node/11245385436", "amenity": "bench", "backrest": "yes"}, "geometry": {"type": "Point", "coordinates": [-2.8255382, 57.6904293]}, "id": "node/11245385436"}, {"type": "Feature", "properties": {"@id": "node/11245385437", "amenity": "bench"}, "geometry": {"type": "Point", "coordinates": [-2.8256026, 57.6905419]}, "id": "node/11245385437"}, {"type": "Feature", "properties": {"@id": "node/11246009350", "amenity": "bench"}, "geometry": {"type": "Point", "coordinates": [-2.8220205, 57.6932355]}, "id": "node/11246009350"}, {"type": "Feature", "properties": {"@id": "node/11259871210", "amenity": "bench", "backrest": "yes"}, "geometry": {"type": "Point", "coordinates": [-2.7006411, 57.6818458]}, "id": "node/11259871210"}, {"type": "Feature", "properties": {"@id": "node/11283642981", "amenity": "bench", "backrest": "yes"}, "geometry": {"type": "Point", "coordinates": [-2.6224869, 57.5622506]}, "id": "node/11283642981"}, {"type": "Feature", "properties": {"@id": "node/11283642982", "amenity": "bench", "backrest": "yes"}, "geometry": {"type": "Point", "coordinates": [-2.6228578, 57.5621398]}, "id": "node/11283642982"}, {"type": "Feature", "properties": {"@id": "node/11283642983", "amenity": "bench", "backrest": "yes"}, "geometry": {"type": "Point", "coordinates": [-2.6231427, 57.5625038]}, "id": "node/11283642983"}, {"type": "Feature", "properties": {"@id": "node/11283642984", "amenity": "bench", "backrest": "yes"}, "geometry": {"type": "Point", "coordinates": [-2.6226553, 57.5625121]}, "id": "node/11283642984"}, {"type": "Feature", "properties": {"@id": "node/11362270495", "amenity": "bench", "backrest": "yes"}, "geometry": {"type": "Point", "coordinates": [-2.8121171, 57.6755012]}, "id": "node/11362270495"}, {"type": "Feature", "properties": {"@id": "node/11363000115", "amenity": "bench", "backrest": "yes"}, "geometry": {"type": "Point", "coordinates": [-2.8192357, 57.6912436]}, "id": "node/11363000115"}, {"type": "Feature", "properties": {"@id": "node/11363000116", "amenity": "bench", "backrest": "yes"}, "geometry": {"type": "Point", "coordinates": [-2.8192706, 57.6912612]}, "id": "node/11363000116"}, {"type": "Feature", "properties": {"@id": "node/11377288764", "amenity": "bench"}, "geometry": {"type": "Point", "coordinates": [-3.2836501, 57.7220287]}, "id": "node/11377288764"}, {"type": "Feature", "properties": {"@id": "node/11377288765", "amenity": "bench", "backrest": "yes"}, "geometry": {"type": "Point", "coordinates": [-3.2839052, 57.7218893]}, "id": "node/11377288765"}, {"type": "Feature", "properties": {"@id": "node/11377288766", "amenity": "bench"}, "geometry": {"type": "Point", "coordinates": [-3.2839758, 57.7219645]}, "id": "node/11377288766"}, {"type": "Feature", "properties": {"@id": "node/11377288767", "amenity": "bench"}, "geometry": {"type": "Point", "coordinates": [-3.2841022, 57.7219239]}, "id": "node/11377288767"}, {"type": "Feature", "properties": {"@id": "node/11377288768", "amenity": "bench"}, "geometry": {"type": "Point", "coordinates": [-3.2840336, 57.7218642]}, "id": "node/11377288768"}, {"type": "Feature", "properties": {"@id": "node/11377299669", "amenity": "bench"}, "geometry": {"type": "Point", "coordinates": [-3.2837679, 57.7216959]}, "id": "node/11377299669"}, {"type": "Feature", "properties": {"@id": "node/11377299670", "amenity": "bench"}, "geometry": {"type": "Point", "coordinates": [-3.2843228, 57.7217584]}, "id": "node/11377299670"}, {"type": "Feature", "properties": {"@id": "node/11377299677", "amenity": "bench"}, "geometry": {"type": "Point", "coordinates": [-3.2841807, 57.7220603]}, "id": "node/11377299677"}, {"type": "Feature", "properties": {"@id": "node/11377299690", "amenity": "bench"}, "geometry": {"type": "Point", "coordinates": [-3.2839439, 57.7222793]}, "id": "node/11377299690"}, {"type": "Feature", "properties": {"@id": "node/11377299691", "amenity": "bench"}, "geometry": {"type": "Point", "coordinates": [-3.2836513, 57.7222504]}, "id": "node/11377299691"}, {"type": "Feature", "properties": {"@id": "node/11378058143", "amenity": "bench"}, "geometry": {"type": "Point", "coordinates": [-3.3007439, 57.7212257]}, "id": "node/11378058143"}, {"type": "Feature", "properties": {"@id": "node/11378058144", "amenity": "bench"}, "geometry": {"type": "Point", "coordinates": [-3.3005524, 57.7213053]}, "id": "node/11378058144"}, {"type": "Feature", "properties": {"@id": "node/11378058145", "amenity": "bench"}, "geometry": {"type": "Point", "coordinates": [-3.3003418, 57.7213926]}, "id": "node/11378058145"}, {"type": "Feature", "properties": {"@id": "node/11378058146", "amenity": "bench"}, "geometry": {"type": "Point", "coordinates": [-3.3001812, 57.72146]}, "id": "node/11378058146"}, {"type": "Feature", "properties": {"@id": "node/11379260414", "amenity": "bench"}, "geometry": {"type": "Point", "coordinates": [-3.2820958, 57.7190728]}, "id": "node/11379260414"}, {"type": "Feature", "properties": {"@id": "node/11379382807", "amenity": "bench"}, "geometry": {"type": "Point", "coordinates": [-3.2819085, 57.7192431]}, "id": "node/11379382807"}, {"type": "Feature", "properties": {"@id": "node/11379382808", "amenity": "bench", "mapillary": "848558567059469"}, "geometry": {"type": "Point", "coordinates": [-3.2817921, 57.7193272]}, "id": "node/11379382808"}, {"type": "Feature", "properties": {"@id": "node/11379382811", "amenity": "bench", "mapillary": "694253642803087"}, "geometry": {"type": "Point", "coordinates": [-3.2820556, 57.7193156]}, "id": "node/11379382811"}, {"type": "Feature", "properties": {"@id": "node/11379382812", "amenity": "bench", "mapillary": "694253642803087"}, "geometry": {"type": "Point", "coordinates": [-3.2819672, 57.7193463]}, "id": "node/11379382812"}, {"type": "Feature", "properties": {"@id": "node/11379382813", "amenity": "bench", "mapillary": "694253642803087"}, "geometry": {"type": "Point", "coordinates": [-3.281718, 57.7194116]}, "id": "node/11379382813"}, {"type": "Feature", "properties": {"@id": "node/11379382814", "amenity": "bench", "mapillary": "694253642803087"}, "geometry": {"type": "Point", "coordinates": [-3.2816751, 57.7194438]}, "id": "node/11379382814"}, {"type": "Feature", "properties": {"@id": "node/11379438910", "amenity": "bench", "mapillary": "1070722037303042"}, "geometry": {"type": "Point", "coordinates": [-3.281421, 57.7196129]}, "id": "node/11379438910"}, {"type": "Feature", "properties": {"@id": "node/11379438911", "amenity": "bench", "mapillary": "1070722037303042"}, "geometry": {"type": "Point", "coordinates": [-3.2813434, 57.7196279]}, "id": "node/11379438911"}, {"type": "Feature", "properties": {"@id": "node/11379438912", "amenity": "bench", "mapillary": "1070722037303042"}, "geometry": {"type": "Point", "coordinates": [-3.2811391, 57.719692]}, "id": "node/11379438912"}, {"type": "Feature", "properties": {"@id": "node/11379438913", "amenity": "bench", "mapillary": "1070722037303042"}, "geometry": {"type": "Point", "coordinates": [-3.2810104, 57.7197617]}, "id": "node/11379438913"}, {"type": "Feature", "properties": {"@id": "node/11379446139", "amenity": "bench", "mapillary": "345842568398867"}, "geometry": {"type": "Point", "coordinates": [-3.2800648, 57.7200892]}, "id": "node/11379446139"}, {"type": "Feature", "properties": {"@id": "node/11379446140", "amenity": "bench"}, "geometry": {"type": "Point", "coordinates": [-3.2807809, 57.7199168]}, "id": "node/11379446140"}, {"type": "Feature", "properties": {"@id": "node/11379454762", "amenity": "bench"}, "geometry": {"type": "Point", "coordinates": [-3.2801466, 57.7201286]}, "id": "node/11379454762"}, {"type": "Feature", "properties": {"@id": "node/11379454763", "amenity": "bench"}, "geometry": {"type": "Point", "coordinates": [-3.2801039, 57.7201099]}, "id": "node/11379454763"}, {"type": "Feature", "properties": {"@id": "node/11379474288", "amenity": "bench"}, "geometry": {"type": "Point", "coordinates": [-3.2808415, 57.7198513]}, "id": "node/11379474288"}, {"type": "Feature", "properties": {"@id": "node/11380332263", "amenity": "bench"}, "geometry": {"type": "Point", "coordinates": [-3.3061822, 57.6515656]}, "id": "node/11380332263"}, {"type": "Feature", "properties": {"@id": "node/11380403332", "amenity": "bench"}, "geometry": {"type": "Point", "coordinates": [-3.3059547, 57.6510448]}, "id": "node/11380403332"}, {"type": "Feature", "properties": {"@id": "node/11380403333", "amenity": "bench"}, "geometry": {"type": "Point", "coordinates": [-3.3055935, 57.6510369]}, "id": "node/11380403333"}, {"type": "Feature", "properties": {"@id": "node/11380403334", "amenity": "bench"}, "geometry": {"type": "Point", "coordinates": [-3.3054117, 57.6512288]}, "id": "node/11380403334"}, {"type": "Feature", "properties": {"@id": "node/11380403335", "amenity": "bench"}, "geometry": {"type": "Point", "coordinates": [-3.3053111, 57.6515288]}, "id": "node/11380403335"}, {"type": "Feature", "properties": {"@id": "node/11388707246", "amenity": "bench", "backrest": "yes", "material": "wood"}, "geometry": {"type": "Point", "coordinates": [-2.780803, 57.4462286]}, "id": "node/11388707246"}, {"type": "Feature", "properties": {"@id": "node/11464417565", "amenity": "bench"}, "geometry": {"type": "Point", "coordinates": [-3.4851162, 58.5164424]}, "id": "node/11464417565"}, {"type": "Feature", "properties": {"@id": "node/11498211929", "amenity": "bench", "backrest": "yes"}, "geometry": {"type": "Point", "coordinates": [-2.4963789, 57.6685919]}, "id": "node/11498211929"}, {"type": "Feature", "properties": {"@id": "node/11557873337", "amenity": "bench", "backrest": "yes"}, "geometry": {"type": "Point", "coordinates": [-2.6286259, 57.5601756]}, "id": "node/11557873337"}, {"type": "Feature", "properties": {"@id": "node/11557873338", "amenity": "bench", "backrest": "yes"}, "geometry": {"type": "Point", "coordinates": [-2.6287137, 57.5601472]}, "id": "node/11557873338"}, {"type": "Feature", "properties": {"@id": "node/11557962785", "amenity": "bench", "backrest": "yes"}, "geometry": {"type": "Point", "coordinates": [-2.7568676, 57.5227367]}, "id": "node/11557962785"}, {"type": "Feature", "properties": {"@id": "node/11571493187", "amenity": "bench", "backrest": "yes"}, "geometry": {"type": "Point", "coordinates": [-2.9943672, 57.6359433]}, "id": "node/11571493187"}, {"type": "Feature", "properties": {"@id": "node/11824418877", "amenity": "bench"}, "geometry": {"type": "Point", "coordinates": [-2.9730315, 57.6741834]}, "id": "node/11824418877"}, {"type": "Feature", "properties": {"@id": "node/11824418878", "amenity": "bench"}, "geometry": {"type": "Point", "coordinates": [-2.9728196, 57.6742387]}, "id": "node/11824418878"}, {"type": "Feature", "properties": {"@id": "node/11824418879", "amenity": "bench"}, "geometry": {"type": "Point", "coordinates": [-2.972719, 57.674423]}, "id": "node/11824418879"}, {"type": "Feature", "properties": {"@id": "node/11824418880", "amenity": "bench"}, "geometry": {"type": "Point", "coordinates": [-2.9728317, 57.6745241]}, "id": "node/11824418880"}, {"type": "Feature", "properties": {"@id": "node/11824418930", "amenity": "bench"}, "geometry": {"type": "Point", "coordinates": [-2.9723914, 57.674342]}, "id": "node/11824418930"}, {"type": "Feature", "properties": {"@id": "node/11824418931", "amenity": "bench"}, "geometry": {"type": "Point", "coordinates": [-2.9723485, 57.6743514]}, "id": "node/11824418931"}, {"type": "Feature", "properties": {"@id": "node/11827267815", "amenity": "bench"}, "geometry": {"type": "Point", "coordinates": [-2.9765742, 57.6765061]}, "id": "node/11827267815"}, {"type": "Feature", "properties": {"@id": "node/11827267816", "amenity": "bench"}, "geometry": {"type": "Point", "coordinates": [-2.9768608, 57.6763755]}, "id": "node/11827267816"}, {"type": "Feature", "properties": {"@id": "node/11827267817", "amenity": "bench"}, "geometry": {"type": "Point", "coordinates": [-2.9771466, 57.6763599]}, "id": "node/11827267817"}, {"type": "Feature", "properties": {"@id": "node/11827267818", "amenity": "bench"}, "geometry": {"type": "Point", "coordinates": [-2.9769608, 57.6765534]}, "id": "node/11827267818"}, {"type": "Feature", "properties": {"@id": "node/11827267819", "amenity": "bench"}, "geometry": {"type": "Point", "coordinates": [-2.9761321, 57.6765313]}, "id": "node/11827267819"}, {"type": "Feature", "properties": {"@id": "node/11827267820", "amenity": "bench"}, "geometry": {"type": "Point", "coordinates": [-2.9756885, 57.6763872]}, "id": "node/11827267820"}, {"type": "Feature", "properties": {"@id": "node/11827267821", "amenity": "bench"}, "geometry": {"type": "Point", "coordinates": [-2.975197, 57.6766705]}, "id": "node/11827267821"}, {"type": "Feature", "properties": {"@id": "node/11827267822", "amenity": "bench"}, "geometry": {"type": "Point", "coordinates": [-2.9755406, 57.6765898]}, "id": "node/11827267822"}, {"type": "Feature", "properties": {"@id": "node/11836718045", "amenity": "bench"}, "geometry": {"type": "Point", "coordinates": [-3.3235525, 57.6614562]}, "id": "node/11836718045"}, {"type": "Feature", "properties": {"@id": "node/11836718046", "amenity": "bench"}, "geometry": {"type": "Point", "coordinates": [-3.3234641, 57.6614685]}, "id": "node/11836718046"}, {"type": "Feature", "properties": {"@id": "node/11850501033", "amenity": "bench"}, "geometry": {"type": "Point", "coordinates": [-2.9688324, 57.6761257]}, "id": "node/11850501033"}, {"type": "Feature", "properties": {"@id": "node/11850501034", "amenity": "bench"}, "geometry": {"type": "Point", "coordinates": [-2.9691686, 57.6760595]}, "id": "node/11850501034"}, {"type": "Feature", "properties": {"@id": "node/11850501035", "amenity": "bench"}, "geometry": {"type": "Point", "coordinates": [-2.9691527, 57.6759876]}, "id": "node/11850501035"}, {"type": "Feature", "properties": {"@id": "node/11850501036", "amenity": "bench"}, "geometry": {"type": "Point", "coordinates": [-2.9687864, 57.676051]}, "id": "node/11850501036"}, {"type": "Feature", "properties": {"@id": "node/11850501062", "amenity": "bench"}, "geometry": {"type": "Point", "coordinates": [-2.9720462, 57.6756958]}, "id": "node/11850501062"}, {"type": "Feature", "properties": {"@id": "node/11850501375", "amenity": "bench"}, "geometry": {"type": "Point", "coordinates": [-2.9717003, 57.6757124]}, "id": "node/11850501375"}, {"type": "Feature", "properties": {"@id": "node/11850501388", "amenity": "bench"}, "geometry": {"type": "Point", "coordinates": [-2.9720364, 57.6757969]}, "id": "node/11850501388"}, {"type": "Feature", "properties": {"@id": "node/11850501389", "amenity": "bench"}, "geometry": {"type": "Point", "coordinates": [-2.9717044, 57.675811]}, "id": "node/11850501389"}, {"type": "Feature", "properties": {"@id": "node/12122186696", "amenity": "bench", "backrest": "yes"}, "geometry": {"type": "Point", "coordinates": [-2.520706, 57.6622628]}, "id": "node/12122186696"}, {"type": "Feature", "properties": {"@id": "node/12122198334", "amenity": "bench", "backrest": "yes"}, "geometry": {"type": "Point", "coordinates": [-2.5213671, 57.6622668]}, "id": "node/12122198334"}, {"type": "Feature", "properties": {"@id": "node/12146803236", "amenity": "bench", "backrest": "yes"}, "geometry": {"type": "Point", "coordinates": [-2.8533696, 57.7054224]}, "id": "node/12146803236"}, {"type": "Feature", "properties": {"@id": "node/12583144318", "amenity": "bench"}, "geometry": {"type": "Point", "coordinates": [-3.0968225, 58.4423984]}, "id": "node/12583144318"}, {"type": "Feature", "properties": {"@id": "node/12778375783", "amenity": "bench", "backrest": "yes"}, "geometry": {"type": "Point", "coordinates": [-2.573349, 57.6812069]}, "id": "node/12778375783"}, {"type": "Feature", "properties": {"@id": "node/12778376711", "amenity": "bench", "backrest": "yes"}, "geometry": {"type": "Point", "coordinates": [-2.5731245, 57.6811587]}, "id": "node/12778376711"}, {"type": "Feature", "properties": {"@id": "node/12778377635", "amenity": "bench", "backrest": "yes"}, "geometry": {"type": "Point", "coordinates": [-2.5729191, 57.6811131]}, "id": "node/12778377635"}, {"type": "Feature", "properties": {"@id": "node/12778390238", "amenity": "bench", "backrest": "yes"}, "geometry": {"type": "Point", "coordinates": [-2.5739299, 57.6813054]}, "id": "node/12778390238"}, {"type": "Feature", "properties": {"@id": "node/12778393525", "amenity": "bench", "backrest": "yes"}, "geometry": {"type": "Point", "coordinates": [-2.5735211, 57.6812337]}, "id": "node/12778393525"}, {"type": "Feature", "properties": {"@id": "node/12778461171", "amenity": "bench", "backrest": "yes"}, "geometry": {"type": "Point", "coordinates": [-2.5733303, 57.6817079]}, "id": "node/12778461171"}, {"type": "Feature", "properties": {"@id": "node/12778477543", "amenity": "bench", "backrest": "yes"}, "geometry": {"type": "Point", "coordinates": [-2.5730664, 57.6816127]}, "id": "node/12778477543"}, {"type": "Feature", "properties": {"@id": "node/12778479335", "amenity": "bench", "backrest": "yes"}, "geometry": {"type": "Point", "coordinates": [-2.5723924, 57.681342]}, "id": "node/12778479335"}, {"type": "Feature", "properties": {"@id": "node/12778480420", "amenity": "bench", "backrest": "no"}, "geometry": {"type": "Point", "coordinates": [-2.5723994, 57.6809954]}, "id": "node/12778480420"}, {"type": "Feature", "properties": {"@id": "node/12778481168", "amenity": "bench", "backrest": "no"}, "geometry": {"type": "Point", "coordinates": [-2.5726009, 57.6810386]}, "id": "node/12778481168"}, {"type": "Feature", "properties": {"@id": "node/12778483528", "amenity": "bench", "backrest": "yes"}, "geometry": {"type": "Point", "coordinates": [-2.5732049, 57.6816395]}, "id": "node/12778483528"}]}