{"type": "FeatureCollection", "features": [{"type": "Feature", "properties": {"@id": "node/423367570", "amenity": "bench", "backrest": "yes"}, "geometry": {"type": "Point", "coordinates": [-2.9604928, 58.984949]}, "id": "node/423367570"}, {"type": "Feature", "properties": {"@id": "node/428939022", "amenity": "bench"}, "geometry": {"type": "Point", "coordinates": [-3.3418819, 58.64137]}, "id": "node/428939022"}, {"type": "Feature", "properties": {"@id": "node/1293380022", "amenity": "bench", "source": "survey"}, "geometry": {"type": "Point", "coordinates": [-3.3127281, 59.1375583]}, "id": "node/1293380022"}, {"type": "Feature", "properties": {"@id": "node/1293380060", "amenity": "bench", "source": "survey"}, "geometry": {"type": "Point", "coordinates": [-3.3124933, 59.1368864]}, "id": "node/1293380060"}, {"type": "Feature", "properties": {"@id": "node/2562441494", "amenity": "bench"}, "geometry": {"type": "Point", "coordinates": [-3.324951, 59.1354413]}, "id": "node/2562441494"}, {"type": "Feature", "properties": {"@id": "node/4257541085", "amenity": "bench", "backrest": "yes"}, "geometry": {"type": "Point", "coordinates": [-2.9696046, 58.9606643]}, "id": "node/4257541085"}, {"type": "Feature", "properties": {"@id": "node/4257541391", "amenity": "bench", "backrest": "yes"}, "geometry": {"type": "Point", "coordinates": [-2.9696461, 58.960688]}, "id": "node/4257541391"}, {"type": "Feature", "properties": {"@id": "node/4257541392", "amenity": "bench", "backrest": "yes"}, "geometry": {"type": "Point", "coordinates": [-2.9697406, 58.9607016]}, "id": "node/4257541392"}, {"type": "Feature", "properties": {"@id": "node/4257541394", "amenity": "bench", "backrest": "yes"}, "geometry": {"type": "Point", "coordinates": [-3.3387068, 59.0492404]}, "id": "node/4257541394"}, {"type": "Feature", "properties": {"@id": "node/4257541395", "amenity": "bench", "backrest": "yes"}, "geometry": {"type": "Point", "coordinates": [-3.3396598, 59.0489134]}, "id": "node/4257541395"}, {"type": "Feature", "properties": {"@id": "node/4257541396", "amenity": "bench"}, "geometry": {"type": "Point", "coordinates": [-3.1863247, 58.9945566]}, "id": "node/4257541396"}, {"type": "Feature", "properties": {"@id": "node/4257541397", "amenity": "bench"}, "geometry": {"type": "Point", "coordinates": [-3.1863429, 58.9945681]}, "id": "node/4257541397"}, {"type": "Feature", "properties": {"@id": "node/4259002478", "amenity": "bench", "survey:date": "2024-08-06"}, "geometry": {"type": "Point", "coordinates": [-2.8973243, 58.8960051]}, "id": "node/4259002478"}, {"type": "Feature", "properties": {"@id": "node/4259011028", "amenity": "bench"}, "geometry": {"type": "Point", "coordinates": [-2.9179866, 58.7414119]}, "id": "node/4259011028"}, {"type": "Feature", "properties": {"@id": "node/4259011029", "amenity": "bench"}, "geometry": {"type": "Point", "coordinates": [-2.9245913, 58.7390623]}, "id": "node/4259011029"}, {"type": "Feature", "properties": {"@id": "node/4259011090", "amenity": "bench"}, "geometry": {"type": "Point", "coordinates": [-2.9180579, 58.7425025]}, "id": "node/4259011090"}, {"type": "Feature", "properties": {"@id": "node/4259011091", "amenity": "bench"}, "geometry": {"type": "Point", "coordinates": [-2.9209603, 58.7402931]}, "id": "node/4259011091"}, {"type": "Feature", "properties": {"@id": "node/4259011249", "amenity": "bench"}, "geometry": {"type": "Point", "coordinates": [-2.9166852, 58.7449694]}, "id": "node/4259011249"}, {"type": "Feature", "properties": {"@id": "node/4261040569", "amenity": "bench"}, "geometry": {"type": "Point", "coordinates": [-3.3135238, 58.9164247]}, "id": "node/4261040569"}, {"type": "Feature", "properties": {"@id": "node/4261040570", "amenity": "bench"}, "geometry": {"type": "Point", "coordinates": [-3.3133961, 58.9163472]}, "id": "node/4261040570"}, {"type": "Feature", "properties": {"@id": "node/4261040571", "amenity": "bench", "backrest": "yes"}, "geometry": {"type": "Point", "coordinates": [-3.2976615, 58.9633132]}, "id": "node/4261040571"}, {"type": "Feature", "properties": {"@id": "node/4261041194", "amenity": "bench", "backrest": "yes"}, "geometry": {"type": "Point", "coordinates": [-3.2977786, 58.9633382]}, "id": "node/4261041194"}, {"type": "Feature", "properties": {"@id": "node/4529309135", "amenity": "bench"}, "geometry": {"type": "Point", "coordinates": [-2.9871427, 59.1309663]}, "id": "node/4529309135"}, {"type": "Feature", "properties": {"@id": "node/5000117723", "amenity": "bench", "backrest": "yes"}, "geometry": {"type": "Point", "coordinates": [-2.9605139, 58.9814333]}, "id": "node/5000117723"}, {"type": "Feature", "properties": {"@id": "node/5000117724", "amenity": "bench", "backrest": "yes"}, "geometry": {"type": "Point", "coordinates": [-2.9605938, 58.981437]}, "id": "node/5000117724"}, {"type": "Feature", "properties": {"@id": "node/5000117725", "amenity": "bench", "backrest": "yes"}, "geometry": {"type": "Point", "coordinates": [-2.9601328, 58.9816589]}, "id": "node/5000117725"}, {"type": "Feature", "properties": {"@id": "node/5000117726", "amenity": "bench", "backrest": "yes"}, "geometry": {"type": "Point", "coordinates": [-2.9596855, 58.9808658]}, "id": "node/5000117726"}, {"type": "Feature", "properties": {"@id": "node/5000117727", "amenity": "bench", "backrest": "yes"}, "geometry": {"type": "Point", "coordinates": [-2.9593744, 58.9807844]}, "id": "node/5000117727"}, {"type": "Feature", "properties": {"@id": "node/5000117729", "amenity": "bench", "backrest": "yes"}, "geometry": {"type": "Point", "coordinates": [-2.9604555, 58.9794442]}, "id": "node/5000117729"}, {"type": "Feature", "properties": {"@id": "node/5000121323", "amenity": "bench", "backrest": "yes"}, "geometry": {"type": "Point", "coordinates": [-2.9604477, 58.9814299]}, "id": "node/5000121323"}, {"type": "Feature", "properties": {"@id": "node/5000127321", "amenity": "bench", "backrest": "yes"}, "geometry": {"type": "Point", "coordinates": [-2.9604415, 58.9815227]}, "id": "node/5000127321"}, {"type": "Feature", "properties": {"@id": "node/5000127521", "amenity": "bench", "backrest": "yes"}, "geometry": {"type": "Point", "coordinates": [-2.9601751, 58.9816115]}, "id": "node/5000127521"}, {"type": "Feature", "properties": {"@id": "node/5111760378", "amenity": "bench", "backrest": "yes"}, "geometry": {"type": "Point", "coordinates": [-3.053538, 58.6472763]}, "id": "node/5111760378"}, {"type": "Feature", "properties": {"@id": "node/5600519791", "amenity": "bench"}, "geometry": {"type": "Point", "coordinates": [-3.3006896, 58.9565226]}, "id": "node/5600519791"}, {"type": "Feature", "properties": {"@id": "node/5600519803", "amenity": "bench"}, "geometry": {"type": "Point", "coordinates": [-3.3006392, 58.9564112]}, "id": "node/5600519803"}, {"type": "Feature", "properties": {"@id": "node/5600519808", "amenity": "bench"}, "geometry": {"type": "Point", "coordinates": [-3.3006319, 58.9563449]}, "id": "node/5600519808"}, {"type": "Feature", "properties": {"@id": "node/5875291804", "amenity": "bench"}, "geometry": {"type": "Point", "coordinates": [-2.9265183, 58.7413751]}, "id": "node/5875291804"}, {"type": "Feature", "properties": {"@id": "node/6545701758", "amenity": "bench", "backrest": "yes"}, "geometry": {"type": "Point", "coordinates": [-3.3303219, 58.9572609]}, "id": "node/6545701758"}, {"type": "Feature", "properties": {"@id": "node/6545701759", "amenity": "bench", "backrest": "yes"}, "geometry": {"type": "Point", "coordinates": [-3.3302964, 58.9572076]}, "id": "node/6545701759"}, {"type": "Feature", "properties": {"@id": "node/6715682250", "amenity": "bench", "backrest": "yes", "material": "wood"}, "geometry": {"type": "Point", "coordinates": [-3.0259608, 58.6442359]}, "id": "node/6715682250"}, {"type": "Feature", "properties": {"@id": "node/7813848992", "amenity": "bench", "backrest": "yes", "material": "wood", "seats": "4"}, "geometry": {"type": "Point", "coordinates": [-3.04985, 59.183329]}, "id": "node/7813848992"}, {"type": "Feature", "properties": {"@id": "node/7945773465", "amenity": "bench"}, "geometry": {"type": "Point", "coordinates": [-2.9494643, 58.7635503]}, "id": "node/7945773465"}, {"type": "Feature", "properties": {"@id": "node/7945773466", "amenity": "bench"}, "geometry": {"type": "Point", "coordinates": [-2.9534494, 58.7661502]}, "id": "node/7945773466"}, {"type": "Feature", "properties": {"@id": "node/8264085121", "amenity": "bench"}, "geometry": {"type": "Point", "coordinates": [-2.9269649, 58.7414569]}, "id": "node/8264085121"}, {"type": "Feature", "properties": {"@id": "node/8323924162", "amenity": "bench", "backrest": "yes"}, "geometry": {"type": "Point", "coordinates": [-3.2068491, 58.800546]}, "id": "node/8323924162"}, {"type": "Feature", "properties": {"@id": "node/8572401202", "amenity": "bench"}, "geometry": {"type": "Point", "coordinates": [-2.9647723, 58.9809644]}, "id": "node/8572401202"}, {"type": "Feature", "properties": {"@id": "node/8603437174", "amenity": "bench"}, "geometry": {"type": "Point", "coordinates": [-2.9901162, 59.3197869]}, "id": "node/8603437174"}, {"type": "Feature", "properties": {"@id": "node/8665004843", "amenity": "bench", "backrest": "yes"}, "geometry": {"type": "Point", "coordinates": [-2.9605046, 58.9815257]}, "id": "node/8665004843"}, {"type": "Feature", "properties": {"@id": "node/9014621390", "amenity": "bench"}, "geometry": {"type": "Point", "coordinates": [-3.3047205, 59.1012302]}, "id": "node/9014621390"}, {"type": "Feature", "properties": {"@id": "node/9014640408", "amenity": "bench"}, "geometry": {"type": "Point", "coordinates": [-3.3047329, 59.1012286]}, "id": "node/9014640408"}, {"type": "Feature", "properties": {"@id": "node/9018132188", "amenity": "bench"}, "geometry": {"type": "Point", "coordinates": [-2.4492857, 59.2830739]}, "id": "node/9018132188"}, {"type": "Feature", "properties": {"@id": "node/9018181675", "amenity": "bench"}, "geometry": {"type": "Point", "coordinates": [-2.4492632, 59.2830791]}, "id": "node/9018181675"}, {"type": "Feature", "properties": {"@id": "node/9812166932", "amenity": "bench"}, "geometry": {"type": "Point", "coordinates": [-3.4045839, 58.8702662]}, "id": "node/9812166932"}, {"type": "Feature", "properties": {"@id": "node/10878093232", "amenity": "bench", "backrest": "yes", "material": "wood"}, "geometry": {"type": "Point", "coordinates": [-2.9468885, 58.9909036]}, "id": "node/10878093232"}, {"type": "Feature", "properties": {"@id": "node/10970260955", "amenity": "bench", "backrest": "no"}, "geometry": {"type": "Point", "coordinates": [-3.2243827, 58.9980429]}, "id": "node/10970260955"}, {"type": "Feature", "properties": {"@id": "node/11063760932", "amenity": "bench", "source": "survey;gps"}, "geometry": {"type": "Point", "coordinates": [-3.1572561, 58.92234]}, "id": "node/11063760932"}, {"type": "Feature", "properties": {"@id": "node/11075088990", "amenity": "bench", "name": "Banc"}, "geometry": {"type": "Point", "coordinates": [-3.3768904, 58.8935561]}, "id": "node/11075088990"}, {"type": "Feature", "properties": {"@id": "node/11148580038", "amenity": "bench"}, "geometry": {"type": "Point", "coordinates": [-3.1086343, 59.0619677]}, "id": "node/11148580038"}, {"type": "Feature", "properties": {"@id": "node/11157763191", "amenity": "bench"}, "geometry": {"type": "Point", "coordinates": [-2.9849179, 59.332142]}, "id": "node/11157763191"}, {"type": "Feature", "properties": {"@id": "node/11207390440", "amenity": "bench"}, "geometry": {"type": "Point", "coordinates": [-2.957996, 58.9835909]}, "id": "node/11207390440"}, {"type": "Feature", "properties": {"@id": "node/11922674727", "amenity": "bench"}, "geometry": {"type": "Point", "coordinates": [-2.8984474, 59.3512463]}, "id": "node/11922674727"}, {"type": "Feature", "properties": {"@id": "node/11924812799", "amenity": "bench"}, "geometry": {"type": "Point", "coordinates": [-2.8991206, 59.3510582]}, "id": "node/11924812799"}, {"type": "Feature", "properties": {"@id": "node/11924822161", "amenity": "bench"}, "geometry": {"type": "Point", "coordinates": [-2.9018962, 59.3574964]}, "id": "node/11924822161"}, {"type": "Feature", "properties": {"@id": "node/11924846568", "amenity": "bench"}, "geometry": {"type": "Point", "coordinates": [-2.9014238, 59.3572826]}, "id": "node/11924846568"}, {"type": "Feature", "properties": {"@id": "node/11924853746", "amenity": "bench"}, "geometry": {"type": "Point", "coordinates": [-2.8864906, 59.3576344]}, "id": "node/11924853746"}, {"type": "Feature", "properties": {"@id": "node/11928209613", "amenity": "bench"}, "geometry": {"type": "Point", "coordinates": [-2.5998437, 59.2314224]}, "id": "node/11928209613"}, {"type": "Feature", "properties": {"@id": "node/11930489845", "amenity": "bench"}, "geometry": {"type": "Point", "coordinates": [-2.9349804, 59.1570532]}, "id": "node/11930489845"}, {"type": "Feature", "properties": {"@id": "node/11931191689", "amenity": "bench"}, "geometry": {"type": "Point", "coordinates": [-2.9724056, 59.1186639]}, "id": "node/11931191689"}, {"type": "Feature", "properties": {"@id": "node/11933451212", "amenity": "bench"}, "geometry": {"type": "Point", "coordinates": [-3.3114298, 59.1356384]}, "id": "node/11933451212"}, {"type": "Feature", "properties": {"@id": "node/11933465629", "amenity": "bench"}, "geometry": {"type": "Point", "coordinates": [-3.3203692, 59.1334696]}, "id": "node/11933465629"}, {"type": "Feature", "properties": {"@id": "node/11933631477", "access": "customers", "amenity": "bench", "armrest": "yes", "backrest": "yes", "covered": "no", "direction": "SSE", "material": "wood", "operator": "Historic Scotland", "seats": "3", "two_sided": "no", "wheelchair": "yes"}, "geometry": {"type": "Point", "coordinates": [-3.0824216, 59.123904]}, "id": "node/11933631477"}, {"type": "Feature", "properties": {"@id": "node/11933693267", "amenity": "bench", "armrest": "yes", "backrest": "yes", "covered": "no", "direction": "W", "material": "wood", "openbenches:id": "34376", "seats": "3", "two_sided": "no"}, "geometry": {"type": "Point", "coordinates": [-3.0842165, 59.1238223]}, "id": "node/11933693267"}, {"type": "Feature", "properties": {"@id": "node/11934443015", "amenity": "bench"}, "geometry": {"type": "Point", "coordinates": [-3.3355314, 59.04874]}, "id": "node/11934443015"}, {"type": "Feature", "properties": {"@id": "node/11934451174", "amenity": "bench"}, "geometry": {"type": "Point", "coordinates": [-3.3354382, 59.0487977]}, "id": "node/11934451174"}, {"type": "Feature", "properties": {"@id": "node/11934662651", "amenity": "bench"}, "geometry": {"type": "Point", "coordinates": [-3.3359405, 59.0476434]}, "id": "node/11934662651"}, {"type": "Feature", "properties": {"@id": "node/11934674301", "amenity": "bench"}, "geometry": {"type": "Point", "coordinates": [-3.3361545, 59.0476509]}, "id": "node/11934674301"}, {"type": "Feature", "properties": {"@id": "node/11935119500", "amenity": "bench"}, "geometry": {"type": "Point", "coordinates": [-3.3423298, 59.0487654]}, "id": "node/11935119500"}, {"type": "Feature", "properties": {"@id": "node/11935122635", "amenity": "bench"}, "geometry": {"type": "Point", "coordinates": [-3.3422646, 59.0487365]}, "id": "node/11935122635"}, {"type": "Feature", "properties": {"@id": "node/11935135737", "amenity": "bench"}, "geometry": {"type": "Point", "coordinates": [-3.2303994, 59.0031413]}, "id": "node/11935135737"}, {"type": "Feature", "properties": {"@id": "node/11937372098", "amenity": "bench"}, "geometry": {"type": "Point", "coordinates": [-3.1971568, 58.8343095]}, "id": "node/11937372098"}, {"type": "Feature", "properties": {"@id": "node/11939409667", "amenity": "bench"}, "geometry": {"type": "Point", "coordinates": [-2.9098343, 59.0308066]}, "id": "node/11939409667"}, {"type": "Feature", "properties": {"@id": "node/12091870595", "amenity": "bench", "backrest": "yes", "survey:date": "2024-08-04"}, "geometry": {"type": "Point", "coordinates": [-2.9599876, 58.9817323]}, "id": "node/12091870595"}, {"type": "Feature", "properties": {"@id": "node/12091923882", "amenity": "bench", "backrest": "yes", "material": "wood", "seats": "5", "survey:date": "2024-08-04"}, "geometry": {"type": "Point", "coordinates": [-2.959646, 58.9809376]}, "id": "node/12091923882"}, {"type": "Feature", "properties": {"@id": "node/12091955256", "amenity": "bench", "backrest": "yes", "material": "wood", "seats": "5", "survey:date": "2024-08-04"}, "geometry": {"type": "Point", "coordinates": [-2.960347, 58.9794216]}, "id": "node/12091955256"}, {"type": "Feature", "properties": {"@id": "node/12431071475", "amenity": "bench"}, "geometry": {"type": "Point", "coordinates": [-3.1155708, 59.0067291]}, "id": "node/12431071475"}, {"type": "Feature", "properties": {"@id": "node/12431072303", "amenity": "bench"}, "geometry": {"type": "Point", "coordinates": [-3.1160047, 59.0071716]}, "id": "node/12431072303"}, {"type": "Feature", "properties": {"@id": "node/12431109577", "amenity": "bench"}, "geometry": {"type": "Point", "coordinates": [-3.1921685, 58.8336563]}, "id": "node/12431109577"}]}