{"type": "FeatureCollection", "features": [{"type": "Feature", "properties": {"@id": "node/1382989059", "amenity": "bench", "leisure": "picnic_table"}, "geometry": {"type": "Point", "coordinates": [-7.1695372, 54.2383813]}, "id": "node/1382989059"}, {"type": "Feature", "properties": {"@id": "node/1464105128", "amenity": "bench"}, "geometry": {"type": "Point", "coordinates": [-7.3311837, 54.9840306]}, "id": "node/1464105128"}, {"type": "Feature", "properties": {"@id": "node/2354618507", "amenity": "bench", "backrest": "yes", "source": "survey"}, "geometry": {"type": "Point", "coordinates": [-7.6480366, 54.348096]}, "id": "node/2354618507"}, {"type": "Feature", "properties": {"@id": "node/2354618554", "amenity": "bench", "backrest": "yes", "source": "survey"}, "geometry": {"type": "Point", "coordinates": [-7.6489364, 54.3483115]}, "id": "node/2354618554"}, {"type": "Feature", "properties": {"@id": "node/2354618563", "amenity": "bench", "backrest": "yes", "source": "survey"}, "geometry": {"type": "Point", "coordinates": [-7.6492107, 54.3484281]}, "id": "node/2354618563"}, {"type": "Feature", "properties": {"@id": "node/2354618566", "amenity": "bench", "source": "survey"}, "geometry": {"type": "Point", "coordinates": [-7.6485, 54.3484361]}, "id": "node/2354618566"}, {"type": "Feature", "properties": {"@id": "node/2524125471", "amenity": "bench"}, "geometry": {"type": "Point", "coordinates": [-7.0852994, 54.7810264]}, "id": "node/2524125471"}, {"type": "Feature", "properties": {"@id": "node/2524125476", "amenity": "bench"}, "geometry": {"type": "Point", "coordinates": [-7.0852752, 54.7810326]}, "id": "node/2524125476"}, {"type": "Feature", "properties": {"@id": "node/2864275193", "amenity": "bench", "leisure": "picnic_table"}, "geometry": {"type": "Point", "coordinates": [-7.1694863, 54.238369]}, "id": "node/2864275193"}, {"type": "Feature", "properties": {"@id": "node/3028560814", "amenity": "bench"}, "geometry": {"type": "Point", "coordinates": [-7.8181736, 54.2432317]}, "id": "node/3028560814"}, {"type": "Feature", "properties": {"@id": "node/3028562004", "amenity": "bench", "backrest": "no", "material": "wood"}, "geometry": {"type": "Point", "coordinates": [-7.8280867, 54.2278545]}, "id": "node/3028562004"}, {"type": "Feature", "properties": {"@id": "node/3624001726", "amenity": "bench", "backrest": "yes"}, "geometry": {"type": "Point", "coordinates": [-7.641398, 54.3464991]}, "id": "node/3624001726"}, {"type": "Feature", "properties": {"@id": "node/3731058540", "amenity": "bench", "backrest": "yes"}, "geometry": {"type": "Point", "coordinates": [-7.3657852, 54.5572247]}, "id": "node/3731058540"}, {"type": "Feature", "properties": {"@id": "node/3731058586", "amenity": "bench", "backrest": "yes", "seats": "8"}, "geometry": {"type": "Point", "coordinates": [-7.3574503, 54.558399]}, "id": "node/3731058586"}, {"type": "Feature", "properties": {"@id": "node/3731587528", "amenity": "bench", "material": "wood"}, "geometry": {"type": "Point", "coordinates": [-7.3645506, 54.5575977]}, "id": "node/3731587528"}, {"type": "Feature", "properties": {"@id": "node/3731587529", "amenity": "bench", "backrest": "yes", "material": "wood"}, "geometry": {"type": "Point", "coordinates": [-7.3614122, 54.5566344]}, "id": "node/3731587529"}, {"type": "Feature", "properties": {"@id": "node/4804724745", "amenity": "bench", "backrest": "yes", "direction": "E"}, "geometry": {"type": "Point", "coordinates": [-7.2851067, 54.2266441]}, "id": "node/4804724745"}, {"type": "Feature", "properties": {"@id": "node/4969246973", "amenity": "bench", "backrest": "yes", "material": "wood"}, "geometry": {"type": "Point", "coordinates": [-7.3630607, 54.5572851]}, "id": "node/4969246973"}, {"type": "Feature", "properties": {"@id": "node/5531404922", "amenity": "bench"}, "geometry": {"type": "Point", "coordinates": [-7.2114155, 54.9424878]}, "id": "node/5531404922"}, {"type": "Feature", "properties": {"@id": "node/5577074305", "amenity": "bench", "backrest": "yes", "direction": "SW"}, "geometry": {"type": "Point", "coordinates": [-7.2791974, 54.2278155]}, "id": "node/5577074305"}, {"type": "Feature", "properties": {"@id": "node/5616008585", "amenity": "bench", "backrest": "yes", "colour": "black", "material": "wood", "seats": "2"}, "geometry": {"type": "Point", "coordinates": [-7.035327, 54.4608176]}, "id": "node/5616008585"}, {"type": "Feature", "properties": {"@id": "node/5616008586", "amenity": "bench", "backrest": "yes", "colour": "black", "material": "wood", "seats": "2"}, "geometry": {"type": "Point", "coordinates": [-7.0331953, 54.4620106]}, "id": "node/5616008586"}, {"type": "Feature", "properties": {"@id": "node/5716057797", "amenity": "bench"}, "geometry": {"type": "Point", "coordinates": [-7.600034, 54.3344025]}, "id": "node/5716057797"}, {"type": "Feature", "properties": {"@id": "node/6805645042", "amenity": "bench"}, "geometry": {"type": "Point", "coordinates": [-7.5877364, 54.7065773]}, "id": "node/6805645042"}, {"type": "Feature", "properties": {"@id": "node/6805645043", "amenity": "bench"}, "geometry": {"type": "Point", "coordinates": [-7.5876781, 54.7065547]}, "id": "node/6805645043"}, {"type": "Feature", "properties": {"@id": "node/8831461133", "amenity": "bench"}, "geometry": {"type": "Point", "coordinates": [-7.7325897, 54.2565204]}, "id": "node/8831461133"}, {"type": "Feature", "properties": {"@id": "node/8831647039", "amenity": "bench"}, "geometry": {"type": "Point", "coordinates": [-7.7227593, 54.2540473]}, "id": "node/8831647039"}, {"type": "Feature", "properties": {"@id": "node/9026373612", "amenity": "bench"}, "geometry": {"type": "Point", "coordinates": [-7.815359, 54.2596483]}, "id": "node/9026373612"}, {"type": "Feature", "properties": {"@id": "node/9026374626", "amenity": "bench", "backrest": "yes", "material": "wood"}, "geometry": {"type": "Point", "coordinates": [-7.8131819, 54.2582504]}, "id": "node/9026374626"}, {"type": "Feature", "properties": {"@id": "node/9026374627", "amenity": "bench", "backrest": "yes", "material": "wood"}, "geometry": {"type": "Point", "coordinates": [-7.8131831, 54.2582787]}, "id": "node/9026374627"}, {"type": "Feature", "properties": {"@id": "node/9026374628", "amenity": "bench", "backrest": "yes", "material": "wood"}, "geometry": {"type": "Point", "coordinates": [-7.8131959, 54.258307]}, "id": "node/9026374628"}, {"type": "Feature", "properties": {"@id": "node/9599228173", "amenity": "bench", "backrest": "yes", "material": "wood"}, "geometry": {"type": "Point", "coordinates": [-7.2872172, 54.2295445]}, "id": "node/9599228173"}, {"type": "Feature", "properties": {"@id": "node/9682842110", "amenity": "bench"}, "geometry": {"type": "Point", "coordinates": [-7.7300312, 54.2635089]}, "id": "node/9682842110"}, {"type": "Feature", "properties": {"@id": "node/9723916826", "amenity": "bench"}, "geometry": {"type": "Point", "coordinates": [-7.3213545, 54.6069361]}, "id": "node/9723916826"}, {"type": "Feature", "properties": {"@id": "node/9723916827", "amenity": "bench"}, "geometry": {"type": "Point", "coordinates": [-7.3218872, 54.6077078]}, "id": "node/9723916827"}, {"type": "Feature", "properties": {"@id": "node/9887760438", "amenity": "bench"}, "geometry": {"type": "Point", "coordinates": [-7.6380818, 54.2994078]}, "id": "node/9887760438"}, {"type": "Feature", "properties": {"@id": "node/9887760446", "amenity": "bench"}, "geometry": {"type": "Point", "coordinates": [-7.6378097, 54.2999051]}, "id": "node/9887760446"}, {"type": "Feature", "properties": {"@id": "node/9887760447", "amenity": "bench"}, "geometry": {"type": "Point", "coordinates": [-7.6379786, 54.2999787]}, "id": "node/9887760447"}, {"type": "Feature", "properties": {"@id": "node/9889663883", "amenity": "bench", "backrest": "yes"}, "geometry": {"type": "Point", "coordinates": [-7.6329357, 54.47383]}, "id": "node/9889663883"}, {"type": "Feature", "properties": {"@id": "node/9889663884", "amenity": "bench", "backrest": "yes"}, "geometry": {"type": "Point", "coordinates": [-7.632798, 54.4738252]}, "id": "node/9889663884"}, {"type": "Feature", "properties": {"@id": "node/9889663885", "amenity": "bench", "backrest": "yes"}, "geometry": {"type": "Point", "coordinates": [-7.6328528, 54.4737567]}, "id": "node/9889663885"}, {"type": "Feature", "properties": {"@id": "node/10537602880", "amenity": "bench", "backrest": "yes", "direction": "275", "seats": "2"}, "geometry": {"type": "Point", "coordinates": [-7.0375126, 54.9299364]}, "id": "node/10537602880"}, {"type": "Feature", "properties": {"@id": "node/10594840819", "amenity": "bench"}, "geometry": {"type": "Point", "coordinates": [-6.9306514, 54.4350389]}, "id": "node/10594840819"}, {"type": "Feature", "properties": {"@id": "node/10768466739", "amenity": "bench"}, "geometry": {"type": "Point", "coordinates": [-7.3197751, 54.9993425]}, "id": "node/10768466739"}, {"type": "Feature", "properties": {"@id": "node/10768466740", "amenity": "bench"}, "geometry": {"type": "Point", "coordinates": [-7.3198143, 54.9993151]}, "id": "node/10768466740"}, {"type": "Feature", "properties": {"@id": "node/10768466741", "amenity": "bench"}, "geometry": {"type": "Point", "coordinates": [-7.3197914, 54.9992778]}, "id": "node/10768466741"}, {"type": "Feature", "properties": {"@id": "node/10768466742", "amenity": "bench"}, "geometry": {"type": "Point", "coordinates": [-7.3199368, 54.9995775]}, "id": "node/10768466742"}, {"type": "Feature", "properties": {"@id": "node/10768466743", "amenity": "bench"}, "geometry": {"type": "Point", "coordinates": [-7.3199489, 54.9995983]}, "id": "node/10768466743"}, {"type": "Feature", "properties": {"@id": "node/10768466744", "amenity": "bench"}, "geometry": {"type": "Point", "coordinates": [-7.3200086, 54.999716]}, "id": "node/10768466744"}, {"type": "Feature", "properties": {"@id": "node/10768466745", "amenity": "bench"}, "geometry": {"type": "Point", "coordinates": [-7.3200183, 54.999734]}, "id": "node/10768466745"}, {"type": "Feature", "properties": {"@id": "node/10779686297", "amenity": "bench", "backrest": "yes"}, "geometry": {"type": "Point", "coordinates": [-6.8232613, 54.3299537]}, "id": "node/10779686297"}, {"type": "Feature", "properties": {"@id": "node/10879614722", "amenity": "bench"}, "geometry": {"type": "Point", "coordinates": [-6.8339151, 54.5921633]}, "id": "node/10879614722"}, {"type": "Feature", "properties": {"@id": "node/10879614723", "amenity": "bench"}, "geometry": {"type": "Point", "coordinates": [-6.8338807, 54.5921742]}, "id": "node/10879614723"}, {"type": "Feature", "properties": {"@id": "node/10879614727", "amenity": "bench"}, "geometry": {"type": "Point", "coordinates": [-6.8347551, 54.5920213]}, "id": "node/10879614727"}, {"type": "Feature", "properties": {"@id": "node/10879614728", "amenity": "bench"}, "geometry": {"type": "Point", "coordinates": [-6.8347157, 54.5920451]}, "id": "node/10879614728"}, {"type": "Feature", "properties": {"@id": "node/11065720584", "amenity": "bench", "backrest": "yes", "direction": "190"}, "geometry": {"type": "Point", "coordinates": [-7.4519218, 54.167702]}, "id": "node/11065720584"}, {"type": "Feature", "properties": {"@id": "node/11065720585", "amenity": "bench", "backrest": "yes", "layer": "1"}, "geometry": {"type": "Point", "coordinates": [-7.4501395, 54.1666525]}, "id": "node/11065720585"}, {"type": "Feature", "properties": {"@id": "node/11214340450", "amenity": "bench", "backrest": "yes"}, "geometry": {"type": "Point", "coordinates": [-7.3135092, 54.9927113]}, "id": "node/11214340450"}, {"type": "Feature", "properties": {"@id": "node/11214340451", "amenity": "bench", "backrest": "yes"}, "geometry": {"type": "Point", "coordinates": [-7.3135436, 54.9925746]}, "id": "node/11214340451"}, {"type": "Feature", "properties": {"@id": "node/11214340452", "amenity": "bench", "backrest": "no"}, "geometry": {"type": "Point", "coordinates": [-7.313527, 54.9926184]}, "id": "node/11214340452"}, {"type": "Feature", "properties": {"@id": "node/11214340453", "amenity": "bench", "backrest": "yes"}, "geometry": {"type": "Point", "coordinates": [-7.313513, 54.9926733]}, "id": "node/11214340453"}, {"type": "Feature", "properties": {"@id": "node/11214340454", "amenity": "bench", "backrest": "yes"}, "geometry": {"type": "Point", "coordinates": [-7.3131651, 54.9926177]}, "id": "node/11214340454"}, {"type": "Feature", "properties": {"@id": "node/11214340455", "amenity": "bench", "backrest": "yes"}, "geometry": {"type": "Point", "coordinates": [-7.3126846, 54.9928319]}, "id": "node/11214340455"}, {"type": "Feature", "properties": {"@id": "node/11216925709", "amenity": "bench", "backrest": "yes", "material": "stone"}, "geometry": {"type": "Point", "coordinates": [-7.464227, 54.292406]}, "id": "node/11216925709"}, {"type": "Feature", "properties": {"@id": "node/11216934852", "amenity": "bench", "backrest": "yes"}, "geometry": {"type": "Point", "coordinates": [-7.4645253, 54.2926492]}, "id": "node/11216934852"}, {"type": "Feature", "properties": {"@id": "node/11220273170", "amenity": "bench", "backrest": "yes"}, "geometry": {"type": "Point", "coordinates": [-7.5449167, 54.3185302]}, "id": "node/11220273170"}, {"type": "Feature", "properties": {"@id": "node/11590037500", "amenity": "bench", "backrest": "yes"}, "geometry": {"type": "Point", "coordinates": [-7.4638399, 54.8274532]}, "id": "node/11590037500"}, {"type": "Feature", "properties": {"@id": "node/11590037504", "amenity": "bench", "backrest": "no"}, "geometry": {"type": "Point", "coordinates": [-7.4639549, 54.8274688]}, "id": "node/11590037504"}, {"type": "Feature", "properties": {"@id": "node/11590037505", "amenity": "bench"}, "geometry": {"type": "Point", "coordinates": [-7.4640638, 54.8275164]}, "id": "node/11590037505"}, {"type": "Feature", "properties": {"@id": "node/11590037527", "amenity": "bench", "backrest": "yes"}, "geometry": {"type": "Point", "coordinates": [-7.4646458, 54.827749]}, "id": "node/11590037527"}, {"type": "Feature", "properties": {"@id": "node/11627284146", "amenity": "bench"}, "geometry": {"type": "Point", "coordinates": [-7.2350489, 54.7199887]}, "id": "node/11627284146"}, {"type": "Feature", "properties": {"@id": "node/11970609540", "amenity": "bench", "backrest": "yes"}, "geometry": {"type": "Point", "coordinates": [-7.0856763, 54.8645561]}, "id": "node/11970609540"}, {"type": "Feature", "properties": {"@id": "node/11970609541", "amenity": "bench", "backrest": "yes"}, "geometry": {"type": "Point", "coordinates": [-7.0857154, 54.8645885]}, "id": "node/11970609541"}, {"type": "Feature", "properties": {"@id": "node/11974918844", "amenity": "bench", "backrest": "yes"}, "geometry": {"type": "Point", "coordinates": [-7.4663699, 54.8338112]}, "id": "node/11974918844"}, {"type": "Feature", "properties": {"@id": "node/12083989673", "amenity": "bench", "backrest": "no", "material": "wood"}, "geometry": {"type": "Point", "coordinates": [-7.825199, 54.2337789]}, "id": "node/12083989673"}, {"type": "Feature", "properties": {"@id": "node/12083989678", "amenity": "bench", "backrest": "yes", "material": "wood"}, "geometry": {"type": "Point", "coordinates": [-7.823913, 54.2196757]}, "id": "node/12083989678"}, {"type": "Feature", "properties": {"@id": "node/12571115215", "amenity": "bench"}, "geometry": {"type": "Point", "coordinates": [-7.5205064, 54.1306734]}, "id": "node/12571115215"}, {"type": "Feature", "properties": {"@id": "node/12810825659", "amenity": "bench"}, "geometry": {"type": "Point", "coordinates": [-6.9267082, 54.5937917]}, "id": "node/12810825659"}]}